No errors
No warnings
102 ms
data source=metars
4909 results
raw_text,station_id,observation_time,latitude,longitude,temp_c,dewpoint_c,wind_dir_degrees,wind_speed_kt,wind_gust_kt,visibility_statute_mi,altim_in_hg,sea_level_pressure_mb,corrected,auto,auto_station,maintenance_indicator_on,no_signal,lightning_sensor_off,freezing_rain_sensor_off,present_weather_sensor_off,wx_string,sky_cover,cloud_base_ft_agl,sky_cover,cloud_base_ft_agl,sky_cover,cloud_base_ft_agl,sky_cover,cloud_base_ft_agl,flight_category,three_hr_pressure_tendency_mb,maxT_c,minT_c,maxT24hr_c,minT24hr_c,precip_in,pcp3hr_in,pcp6hr_in,pcp24hr_in,snow_in,vert_vis_ft,metar_type,elevation_m
OPLA 272225Z 33006KT 4000 FU NSC 11/06 Q1011 NOSIG RMK QFE986 A29.88,OPLA,2025-01-27T22:25:00Z,31.522,74.404,11,6,330,6,,2.49,29.85,,,,,,TRUE,,,,FU,CLR,,,,,,,,IFR,,,,,,,,,,,,METAR,217
KIKT 272225Z AUTO VRB04KT 10SM SCT028 BKN033 OVC050 22/12 A3011 RMK A01,KIKT,2025-01-27T22:25:00Z,28.5208,-88.2889,22,12,VRB,4,,10+,30.11,,,TRUE,TRUE,,,,,,,SCT,2800,BKN,3300,OVC,5000,,,VFR,,,,,,,,,,,,METAR,36
KGUL 272225Z AUTO 00000KT 9SM CLR 22/18 A3010 RMK A01,KGUL,2025-01-27T22:25:00Z,27.3039,-93.5383,22,18,0,0,,9,30.10,,,TRUE,TRUE,,,,,,,CLR,,,,,,,,VFR,,,,,,,,,,,,METAR,20
UUWW 272224Z 22004MPS 5000 -DZ BR BKN004 OVC023 04/04 Q1013 R24/290050 NOSIG,UUWW,2025-01-27T22:24:00Z,55.592,37.261,4,4,220,8,,3.11,29.91,,,,,,TRUE,,,,-DZ BR,BKN,400,OVC,2300,,,,,LIFR,,,,,,,,,,,,SPECI,195
CYZE 272224Z AUTO 27027G34KT 4SM -SN BKN015 OVC020 M01/M02 A2925 RMK SLP914,CYZE,2025-01-27T22:24:00Z,45.885,-82.57,-1,-2,270,27,34,4,29.25,991.4,,TRUE,,,,,,,-SN,BKN,1500,OVC,2000,,,,,MVFR,,,,,,,,,,,,SPECI,189
CYPH 272224Z AUTO 03019KT 3SM -SN SCT120 M25/M29 A2901 RMK SLP830,CYPH,2025-01-27T22:24:00Z,58.47,-78.08,-25,-29,30,19,,3,29.01,983,,TRUE,,,,,,,-SN,SCT,12000,,,,,,,MVFR,,,,,,,,,,,,SPECI,24
UWOO 272223Z 15002MPS 0200 0150E R26/0550N FZFG VV001 M03/M03 Q1025 R26/950140 NOSIG RMK QBB050 QFE758/1011,UWOO,2025-01-27T22:23:00Z,51.795,55.457,-3,-3,150,4,,0.12,30.27,,,,,,TRUE,,,,FZFG,OVX,0,,,,,,,LIFR,,,,,,,,,,,100,SPECI,90
USPP 272223Z 13005MPS 2300 -SN BKN020 M06/M08 Q1014 R21/491043 NOSIG RMK QFE750,USPP,2025-01-27T22:23:00Z,57.914,56.021,-6,-8,130,10,,1.43,29.94,,,,,,TRUE,,,,-SN,BKN,2000,,,,,,,IFR,,,,,,,,,,,,SPECI,120
URRP 272223Z 13002MPS 0100 0050NE R05/0400N FG VV000 00/00 Q1025 R05/CLRD70 NOSIG RMK QBB020 OBST OBSC QFE764/1019,URRP,2025-01-27T22:23:00Z,47.494,39.925,0,0,130,4,,0.06,30.27,,,,,,TRUE,,,,FG,OVX,0,,,,,,,LIFR,,,,,,,,,,,0,SPECI,73
UIII 272223Z 28003MPS 3500 -SHSN OVC004CB M17/M19 Q1027 R12/490337 NOSIG RMK QBB140 MT OBSC QFE727/0970,UIII,2025-01-27T22:23:00Z,52.273,104.38,-17,-19,280,6,,2.17,30.32,,,,,,TRUE,,,,-SHSN,OVC,400,,,,,,,LIFR,,,,,,,,,,,,SPECI,480
UATT 272223Z 24006MPS 6000 -FZDZ OVC004 M06/M07 Q1027 NOSIG RMK QBB120 OBST OBSC QFE750/1000,UATT,2025-01-27T22:23:00Z,50.248,57.203,-6,-7,240,12,,3.73,30.32,,,,,,TRUE,,,,-FZDZ,OVC,400,,,,,,,LIFR,,,,,,,,,,,,SPECI,217
PFNO 272223Z AUTO 21005KT 1SM -SN BR SCT017 BKN023 OVC046 M18/M20 A2955 RMK AO2 P0000 FZRANO $,PFNO,2025-01-27T22:23:00Z,66.819,-161.024,-18,-20,210,5,,1,29.55,,,TRUE,TRUE,TRUE,,,TRUE,,-SN BR,SCT,1700,BKN,2300,OVC,4600,,,IFR,,,,,,0.005,,,,,,SPECI,14
PAUN 272223Z AUTO 21019G26KT 2SM -SN FEW013 BKN021 M18/M21 A2970 RMK AO2 PK WND 21027/2215 VIS 1 1/4V3 P0000 FZRANO,PAUN,2025-01-27T22:23:00Z,63.885,-160.794,-18,-21,210,19,26,2,29.70,,,TRUE,TRUE,,,,TRUE,,-SN,FEW,1300,BKN,2100,,,,,IFR,,,,,,0.005,,,,,,SPECI,4
CYTL 272223Z AUTO 32013G21KT 3SM -SN BKN027 M20/M23 A2957 RMK SLP043,CYTL,2025-01-27T22:23:00Z,53.816,-89.892,-20,-23,320,13,21,3,29.57,1004.3,,TRUE,,,,,,,-SN,BKN,2700,,,,,,,MVFR,,,,,,,,,,,,SPECI,218
YPPD 272222Z AUTO 26006KT 9999 TS FEW083 BKN110 28/23 Q1007,YPPD,2025-01-27T22:22:00Z,-20.372,118.632,28,23,260,6,,6+,29.73,,,TRUE,,,,,,,TS,FEW,8300,BKN,11000,,,,,VFR,,,,,,,,,,,,SPECI,6
YBRM 272222Z AUTO 03009KT 9999 VCTS SCT018 26/24 Q1008 RETS,YBRM,2025-01-27T22:22:00Z,-17.948,122.235,26,24,30,9,,6+,29.76,,,TRUE,,,,,,,VCTS,SCT,1800,,,,,,,VFR,,,,,,,,,,,,SPECI,11
ULMM 272222Z 16002MPS CAVOK M12/M14 Q1002 R13/690145 NOSIG RMK QFE745,ULMM,2025-01-27T22:22:00Z,68.781,32.749,-12,-14,160,4,,6+,29.59,,,,,,TRUE,,,,,CAVOK,,,,,,,,VFR,,,,,,,,,,,,SPECI,79
PAMK 272222Z AUTO 27010KT 9SM FEW010 BKN038 OVC049 M18/M20 A2972 RMK AO2 PK WND 24028/2159 SNE17 P0000 FZRANO,PAMK,2025-01-27T22:22:00Z,63.484,-162.115,-18,-20,270,10,,9,29.72,,,TRUE,TRUE,,,,TRUE,,,FEW,1000,BKN,3800,OVC,4900,,,VFR,,,,,,0.005,,,,,,SPECI,31
LEVX 272222Z 33016G27KT 300V010 2500 TSRA FEW011 SCT017CB BKN023 07/05 Q1011 TEMPO 6000 NSW,LEVX,2025-01-27T22:22:00Z,42.239,-8.624,7,5,330,16,27,1.55,29.85,,,,,,,,,,TSRA,FEW,1100,SCT,1700,BKN,2300,,,IFR,,,,,,,,,,,,SPECI,253
KRND 272222Z AUTO 02006KT 10SM OVC020 11/06 A3013 RMK AO2 DZE2156DZB10E22 SLP204,KRND,2025-01-27T22:22:00Z,29.537,-98.268,11,6,20,6,,10+,30.13,1020.4,,TRUE,TRUE,,,,,,,OVC,2000,,,,,,,MVFR,,,,,,,,,,,,SPECI,224
KLBX 272222Z AUTO 05007KT 10SM BKN015 OVC030 14/11 A3015 RMK AO2 T01440106,KLBX,2025-01-27T22:22:00Z,29.1154,-95.4632,14.4,10.6,50,7,,10+,30.15,,,TRUE,TRUE,,,,,,,BKN,1500,OVC,3000,,,,,MVFR,,,,,,,,,,,,SPECI,4
KCIU 272222Z AUTO 31014KT 1/4SM SN FZFG BKN016 OVC024 M02/M03 A2929 RMK AO2 P0000 FZRANO,KCIU,2025-01-27T22:22:00Z,46.2531,-84.4773,-2,-3,310,14,,0.25,29.29,,,TRUE,TRUE,,,,TRUE,,SN FZFG,BKN,1600,OVC,2400,,,,,LIFR,,,,,,0.005,,,,,,SPECI,242
KATL 272222Z 28007KT 4SM -DZ BR OVC004 10/09 A3005 RMK AO2 CIG 003V005 P0000 T01000089,KATL,2025-01-27T22:22:00Z,33.6297,-84.4422,10,8.9,280,7,,4,30.05,,,,TRUE,,,,,,-DZ BR,OVC,400,,,,,,,LIFR,,,,,,0.005,,,,,,SPECI,309
CYXR 272222Z AUTO 31018G25KT 2 1/2SM -SN OVC034 M08/M11 A2914 RMK VIS VRB 1 1/2-3 PRESRR SLP885,CYXR,2025-01-27T22:22:00Z,47.698,-79.852,-8,-11,310,18,25,2.5,29.14,988.5,,TRUE,,,,,,,-SN,OVC,3400,,,,,,,IFR,,,,,,,,,,,,SPECI,244
CYVM 272222Z AUTO 00000KT 1 1/2SM -SN OVC017 M20/M22 A2942 RMK SLP966,CYVM,2025-01-27T22:22:00Z,67.552,-64.026,-20,-22,0,0,,1.5,29.42,996.6,,TRUE,,,,,,,-SN,OVC,1700,,,,,,,IFR,,,,,,,,,,,,SPECI,3
URMN 272221Z 24001MPS 2000 BR OVC005 00/M00 Q1024 R24/////// TEMPO 0500 FG OVC001 RMK MT OBSC OBST OBSC QFE731,URMN,2025-01-27T22:21:00Z,43.514,43.646,0,0,240,2,,1.24,30.24,,,,,,,,,,BR,OVC,500,,,,,,,IFR,,,,,,,,,,,,SPECI,424
PFZK 272221Z AUTO 23009KT 10SM BKN029 M20/M23 A3004 RMK AO2 FZRANO,PFZK,2025-01-27T22:21:00Z,60.9156,-161.488,-20,-23,230,9,,10+,30.04,,,TRUE,TRUE,,,,TRUE,,,BKN,2900,,,,,,,MVFR,,,,,,,,,,,,SPECI,16
PAHN 272221Z AUTO 09013G20KT 10SM SCT017 BKN060 06/02 A3013 RMK AO2 T00560022 TSNO,PAHN,2025-01-27T22:21:00Z,59.243,-135.511,5.6,2.2,90,13,20,10+,30.13,,,TRUE,TRUE,,,TRUE,,,,SCT,1700,BKN,6000,,,,,VFR,,,,,,,,,,,,SPECI,15
PADU 272221Z 31010KT 1 3/4SM -SN FEW021 SCT025 BKN035 M02/M06 A3024 RMK AO2 SNB18 VIS NE-E 2 W 1/2 NW 1/2 P0000,PADU,2025-01-27T22:21:00Z,53.896,-166.543,-2,-6,310,10,,1.75,30.24,,,,TRUE,,,,,,-SN,FEW,2100,SCT,2500,BKN,3500,,,IFR,,,,,,0.005,,,,,,SPECI,4
KWRB 272221Z AUTO 21003KT 10SM -DZ OVC006 11/09 A3005 RMK AO2 DZE2155DZB12 SLP179,KWRB,2025-01-27T22:21:00Z,32.639,-83.593,11,9,210,3,,10+,30.05,1017.9,,TRUE,TRUE,,,,,,-DZ,OVC,600,,,,,,,IFR,,,,,,,,,,,,SPECI,82
KRYY 272221Z 29008KT 2SM BR OVC007 09/08 A3006 RMK AO2 $,KRYY,2025-01-27T22:21:00Z,34.0146,-84.5964,9,8,290,8,,2,30.06,,,,TRUE,TRUE,,,,,BR,OVC,700,,,,,,,IFR,,,,,,,,,,,,SPECI,306
KCUB 272221Z AUTO 23006KT 10SM OVC009 10/08 A3002 RMK AO2 T01000083,KCUB,2025-01-27T22:21:00Z,33.972,-80.9939,10,8.3,230,6,,10+,30.02,,,TRUE,TRUE,,,,,,,OVC,900,,,,,,,IFR,,,,,,,,,,,,SPECI,55
KAHN 272221Z 25004KT 3SM BR OVC003 09/08 A3002 RMK AO2 T00890078,KAHN,2025-01-27T22:21:00Z,33.9477,-83.3274,8.9,7.8,250,4,,3,30.02,,,,TRUE,,,,,,BR,OVC,300,,,,,,,LIFR,,,,,,,,,,,,SPECI,241
CYSM 272221Z 15008G15KT 15SM OVC008 M04/M06 A2934 RMK ST8 PRESFR SLP952,CYSM,2025-01-27T22:21:00Z,60.026,-111.929,-4,-6,150,8,15,15,29.34,995.2,,,,,,,,,,OVC,800,,,,,,,IFR,,,,,,,,,,,,SPECI,203
CYRQ 272221Z AUTO 23026G40KT 2 1/2SM -SN -UP OVC048 00/M06 A2918 RMK VIS VRB 1 1/4-3 SLP886,CYRQ,2025-01-27T22:21:00Z,46.358,-72.68,0,-6,230,26,40,2.5,29.18,988.6,,TRUE,,,,,,,-SN UP,OVC,4800,,,,,,,IFR,,,,,,,,,,,,SPECI,58
CYNA 272221Z AUTO 20019G28KT 2 1/2SM -SNRA BKN022 BKN250 M05/M09 A2933 RMK VIS VRB 1 1/4-3 SLP935,CYNA,2025-01-27T22:21:00Z,50.19,-61.789,-5,-9,200,19,28,2.5,29.33,993.5,,TRUE,,,,,,,-SN -RA,BKN,2200,BKN,25000,,,,,IFR,,,,,,,,,,,,SPECI,9
UWKE 272220Z 24008MPS 4400 -DZ BR OVC003 01/01 Q1014 R21/520240 NOSIG RMK OBST OBSC QFE744/0992,UWKE,2025-01-27T22:20:00Z,55.566,52.1,1,1,240,16,,2.73,29.94,,,,,,TRUE,,,,-DZ BR,OVC,300,,,,,,,LIFR,,,,,,,,,,,,SPECI,193
SBSJ 272220Z 19004KT 130V210 2000 RA BKN015 BKN020 22/21 Q1015,SBSJ,2025-01-27T22:20:00Z,-23.229,-45.861,22,21,190,4,,1.24,29.97,,,,,,,,,,RA,BKN,1500,BKN,2000,,,,,IFR,,,,,,,,,,,,SPECI,640
PKWA 272220Z AUTO 06011G19KT 10SM SCT022 SCT030 SCT050 29/23 A2987 RMK AO2 T02870234,PKWA,2025-01-27T22:20:00Z,8.72,167.724,28.7,23.4,60,11,19,10+,29.87,,,TRUE,TRUE,,,,,,,SCT,2200,SCT,3000,SCT,5000,,,VFR,,,,,,,,,,,,METAR,6
PAVC 272220Z AUTO 23007KT 3SM -SN SCT005 BKN036 OVC049 M03/M06 A3014 RMK AO2 FZRANO PNO $,PAVC,2025-01-27T22:20:00Z,55.115,-162.271,-3,-6,230,7,,3,30.14,,,TRUE,TRUE,TRUE,,,TRUE,,-SN,SCT,500,BKN,3600,OVC,4900,,,MVFR,,,,,,,,,,,,SPECI,48
PAHX 272220Z AUTO 21010KT 8SM -SN BKN025 BKN046 M18/M21 A2985 RMK AO2 SNB14 P0000 FZRANO,PAHX,2025-01-27T22:20:00Z,62.688,-159.566,-18,-21,210,10,,8,29.85,,,TRUE,TRUE,,,,TRUE,,-SN,BKN,2500,BKN,4600,,,,,MVFR,,,,,,0.005,,,,,,SPECI,20
PACD 272220Z 30015KT 3/4SM -SN SCT009 BKN021 M04/M07 A3013 RMK AO2 SNE04B14 P0001 T10391067,PACD,2025-01-27T22:20:00Z,55.2207,-162.732,-3.9,-6.7,300,15,,0.75,30.13,,,,TRUE,,,,,,-SN,SCT,900,BKN,2100,,,,,LIFR,,,,,,0.01,,,,,,SPECI,23
NFNL 272220Z 14003KT 8000 -RA SCT025TCU BKN046 OVC100 26/25 Q1011,NFNL,2025-01-27T22:20:00Z,-16.467,179.339,26,25,140,3,,4.97,29.85,,,,,,,,,,-RA,SCT,2500,BKN,4600,OVC,10000,,,MVFR,,,,,,,,,,,,SPECI,17
LWSK 272220Z 03005KT CAVOK 03/01 Q1020 NOSIG,LWSK,2025-01-27T22:20:00Z,41.952,21.627,3,1,30,5,,6+,30.12,,,,,,TRUE,,,,,CAVOK,,,,,,,,VFR,,,,,,,,,,,,METAR,232
LSZS 272220Z AUTO VRB02KT 7000 -SN OVC009 01/00 Q1002,LSZS,2025-01-27T22:20:00Z,46.526,9.879,1,0,VRB,2,,4.35,29.59,,,TRUE,,,,,,,-SN,OVC,900,,,,,,,IFR,,,,,,,,,,,,METAR,1708
LSZR 272220Z AUTO VRB06KT 9999 FEW100 08/04 Q1003,LSZR,2025-01-27T22:20:00Z,47.485,9.561,8,4,VRB,6,,6+,29.62,,,TRUE,,,,,,,,FEW,10000,,,,,,,VFR,,,,,,,,,,,,METAR,396
LSZL 272220Z AUTO VRB02KT 7000NDV RA FEW005 BKN032 BKN043 03/03 Q1006 RMK,LSZL,2025-01-27T22:20:00Z,46.164,8.878,3,3,VRB,2,,,29.70,,,TRUE,,,,,,,RA,FEW,500,BKN,3200,BKN,4300,,,,,,,,,,,,,,,METAR,198
LSZH 272220Z 16012KT 9999 -RA FEW020 SCT040 BKN065 05/04 Q1002 TEMPO RA,LSZH,2025-01-27T22:20:00Z,47.48,8.536,5,4,160,12,,6+,29.59,,,,,,,,,,-RA,FEW,2000,SCT,4000,BKN,6500,,,VFR,,,,,,,,,,,,METAR,424
LSZG 272220Z AUTO 00000KT 9999 -RA BKN022 BKN027 05/05 Q1002,LSZG,2025-01-27T22:20:00Z,47.179,7.415,5,5,0,0,,6+,29.59,,,TRUE,,,,,,,-RA,BKN,2200,BKN,2700,,,,,MVFR,,,,,,,,,,,,METAR,428
LSZC 272220Z AUTO 20004KT 170V230 9999 -RA BKN046 05/04 Q1003,LSZC,2025-01-27T22:20:00Z,46.972,8.392,5,4,200,4,,6+,29.62,,,TRUE,,,,,,,-RA,BKN,4600,,,,,,,VFR,,,,,,,,,,,,METAR,445
LSZB 272220Z AUTO 16006KT 9999 FEW039 SCT044 BKN050 05/03 Q1002,LSZB,2025-01-27T22:20:00Z,46.914,7.497,5,3,160,6,,6+,29.59,,,TRUE,,,,,,,,FEW,3900,SCT,4400,BKN,5000,,,VFR,,,,,,,,,,,,METAR,510
LSZA 272220Z AUTO VRB02KT 4600 -RA SCT003 SCT005 BKN007 05/05 Q1005,LSZA,2025-01-27T22:20:00Z,46.004,8.91,5,5,VRB,2,,2.86,29.68,,,TRUE,,,,,,,-RA,SCT,300,SCT,500,BKN,700,,,IFR,,,,,,,,,,,,METAR,276
LSME 272220Z AUTO 16003KT 120V210 9999NDV SHRA FEW038 BKN045 BKN052 06/05 Q1003 RMK,LSME,2025-01-27T22:20:00Z,47.092,8.305,6,5,160,3,,,29.62,,,TRUE,,,,,,,SHRA,FEW,3800,BKN,4500,BKN,5200,,,,,,,,,,,,,,,METAR,427
LSMD 272220Z AUTO 21005KT 160V250 9999NDV -SHRA SCT032 BKN037 OVC048 06/04 Q1003 RMK,LSMD,2025-01-27T22:20:00Z,47.399,8.648,6,4,210,5,,,29.62,,,TRUE,,,,,,,-SHRA,SCT,3200,BKN,3700,OVC,4800,,,,,,,,,,,,,,,METAR,436
LSMA 272220Z AUTO VRB02KT 9000NDV SHRA FEW028 BKN043 05/05 Q1003 RMK,LSMA,2025-01-27T22:20:00Z,46.943,8.286,5,5,VRB,2,,,29.62,,,TRUE,,,,,,,SHRA,FEW,2800,BKN,4300,,,,,,,,,,,,,,,,,METAR,441
LSGS 272220Z AUTO VRB02KT 4700 RA BR BKN/// 05/04 Q1004,LSGS,2025-01-27T22:20:00Z,46.219,7.33,5,4,VRB,2,,2.92,29.65,,,TRUE,,,,,,,RA BR,,,,,,,,,IFR,,,,,,,,,,,,METAR,482
LSGG 272220Z AUTO 04006KT 350V080 9999 -RA SCT007 BKN038 07/06 Q1001 NOSIG,LSGG,2025-01-27T22:20:00Z,46.248,6.128,7,6,40,6,,6+,29.56,,,TRUE,,,TRUE,,,,-RA,SCT,700,BKN,3800,,,,,VFR,,,,,,,,,,,,METAR,411
LSGC 272220Z AUTO 26003KT 160V290 9999 BKN036 04/02 Q1000,LSGC,2025-01-27T22:20:00Z,47.083,6.792,4,2,260,3,,6+,29.53,,,TRUE,,,,,,,,BKN,3600,,,,,,,VFR,,,,,,,,,,,,METAR,1018
LLBG 272220Z VRB03KT CAVOK 10/08 Q1020 NOSIG,LLBG,2025-01-27T22:20:00Z,32.011,34.887,10,8,VRB,3,,6+,30.12,,,,,,TRUE,,,,,CAVOK,,,,,,,,VFR,,,,,,,,,,,,METAR,35
LGRP 272220Z 21005KT 9999 FEW018 14/11 Q1021 NOSIG,LGRP,2025-01-27T22:20:00Z,36.405,28.086,14,11,210,5,,6+,30.15,,,,,,TRUE,,,,,FEW,1800,,,,,,,VFR,,,,,,,,,,,,METAR,3
LGKR 272220Z 00000KT 9999 FEW015 10/09 Q1021 NOSIG,LGKR,2025-01-27T22:20:00Z,39.61,19.913,10,9,0,0,,6+,30.15,,,,,,TRUE,,,,,FEW,1500,,,,,,,VFR,,,,,,,,,,,,METAR,2
LGIR 272220Z 18007KT 9999 FEW020 11/08 Q1022 NOSIG,LGIR,2025-01-27T22:20:00Z,35.337,25.173,11,8,180,7,,6+,30.18,,,,,,TRUE,,,,,FEW,2000,,,,,,,VFR,,,,,,,,,,,,METAR,37
LGAV 272220Z 00000KT 9999 FEW005 08/06 Q1021 NOSIG,LGAV,2025-01-27T22:20:00Z,37.936,23.945,8,6,0,0,,6+,30.15,,,,,,TRUE,,,,,FEW,500,,,,,,,VFR,,,,,,,,,,,,METAR,83
LATI 272220Z VRB02KT 6000 NSC 07/05 Q1020 NOSIG,LATI,2025-01-27T22:20:00Z,41.419,19.716,7,5,VRB,2,,3.73,30.12,,,,,,TRUE,,,,,CLR,,,,,,,,MVFR,,,,,,,,,,,,METAR,32
KVCV 272220Z AUTO 29003KT 10SM OVC065 06/M01 A3010 RMK AO2,KVCV,2025-01-27T22:20:00Z,34.5933,-117.389,6,-1,290,3,,10+,30.10,,,TRUE,TRUE,,,,,,,OVC,6500,,,,,,,VFR,,,,,,,,,,,,METAR,871
KQFX 272220Z AUTO 24003G11KT 1600 -SN OVC012 M03/M05 A2992 RMK A02 TSNO,KQFX,2025-01-27T22:20:00Z,-99.99,-99.99,-3,-5,240,3,11,0.99,29.92,,,TRUE,TRUE,,,TRUE,,,-SN,OVC,1200,,,,,,,LIFR,,,,,,,,,,,,METAR,9999
KQFV 272220Z AUTO 26003G10KT 1600 HZ OVC023 M07/M11 A2986 RMK A02 TSNO,KQFV,2025-01-27T22:20:00Z,-99.99,-99.99,-7,-11,260,3,10,0.99,29.86,,,TRUE,TRUE,,,TRUE,,,HZ,OVC,2300,,,,,,,LIFR,,,,,,,,,,,,METAR,9999
KQFU 272220Z AUTO 23003KT 6000 HZ BKN027 OVC049 M06/M10 A2996 RMK A02 TSNO,KQFU,2025-01-27T22:20:00Z,-99.99,-99.99,-6,-10,230,3,,3.73,29.96,,,TRUE,TRUE,,,TRUE,,,HZ,BKN,2700,OVC,4900,,,,,MVFR,,,,,,,,,,,,METAR,9999
KQFT 272220Z AUTO 25003KT 3200 HZ OVC022 M04/M08 A2993 RMK A02 TSNO,KQFT,2025-01-27T22:20:00Z,-99.99,-99.99,-4,-8,250,3,,1.99,29.93,,,TRUE,TRUE,,,TRUE,,,HZ,OVC,2200,,,,,,,IFR,,,,,,,,,,,,METAR,9999
KQFB 272220Z AUTO 28003KT 9999 CLR M02/M09 A3004 RMK A02 TSNO,KQFB,2025-01-27T22:20:00Z,-99.99,-99.99,-2,-9,280,3,,6+,30.04,,,TRUE,TRUE,,,TRUE,,,,CLR,,,,,,,,VFR,,,,,,,,,,,,METAR,9999
KQEX 272220Z AUTO 04002KT 8000 HZ OVC027 M02/M05 A2989 RMK A02 TSNO,KQEX,2025-01-27T22:20:00Z,-99.99,-99.99,-2,-5,40,2,,4.97,29.89,,,TRUE,TRUE,,,TRUE,,,HZ,OVC,2700,,,,,,,MVFR,,,,,,,,,,,,METAR,9999
KQEW 272220Z AUTO 22003KT 0800 FZFG OVC018 M03/M05 A2995 RMK A02 TSNO,KQEW,2025-01-27T22:20:00Z,-99.99,-99.99,-3,-5,220,3,,0.5,29.95,,,TRUE,TRUE,,,TRUE,,,FZFG,OVC,1800,,,,,,,LIFR,,,,,,,,,,,,METAR,9999
KQEV 272220Z AUTO 26004KT 6000 -SN OVC018 M03/M04 A2996 RMK A02 TSNO,KQEV,2025-01-27T22:20:00Z,-99.99,-99.99,-3,-4,260,4,,3.73,29.96,,,TRUE,TRUE,,,TRUE,,,-SN,OVC,1800,,,,,,,MVFR,,,,,,,,,,,,METAR,9999
KQEQ 272220Z AUTO 24002KT 9999 OVC048 M05/M09 A2997 RMK A02 TSNO,KQEQ,2025-01-27T22:20:00Z,-99.99,-99.99,-5,-9,240,2,,6+,29.97,,,TRUE,TRUE,,,TRUE,,,,OVC,4800,,,,,,,VFR,,,,,,,,,,,,METAR,9999
KQEP 272220Z AUTO 28005KT 1600 -SN OVC016 M05/M05 A2995 RMK A02 TSNO,KQEP,2025-01-27T22:20:00Z,-99.99,-99.99,-5,-5,280,5,,0.99,29.95,,,TRUE,TRUE,,,TRUE,,,-SN,OVC,1600,,,,,,,LIFR,,,,,,,,,,,,METAR,9999
KQEJ 272220Z AUTO 26009G14KT 9999 OVC029 M06/M12 A2980 RMK A02 TSNO,KQEJ,2025-01-27T22:20:00Z,-99.99,-99.99,-6,-12,260,9,14,6+,29.80,,,TRUE,TRUE,,,TRUE,,,,OVC,2900,,,,,,,MVFR,,,,,,,,,,,,METAR,9999
KQEI 272220Z AUTO 20005G12KT 2000 HZ OVC021 M06/M10 A2981 RMK A02 TSNO,KQEI,2025-01-27T22:20:00Z,-99.99,-99.99,-6,-10,200,5,12,1.24,29.81,,,TRUE,TRUE,,,TRUE,,,HZ,OVC,2100,,,,,,,IFR,,,,,,,,,,,,METAR,9999
KPLN 272220Z AUTO 26014G24KT 2 1/2SM -SN FEW010 SCT016 OVC050 01/M02 A2935 RMK AO2 P0000 T00061022,KPLN,2025-01-27T22:20:00Z,45.5644,-84.7929,0.6,-2.2,260,14,24,2.5,29.35,,,TRUE,TRUE,,,,,,-SN,FEW,1000,SCT,1600,OVC,5000,,,IFR,,,,,,0.005,,,,,,SPECI,215
KMCC 272220Z AUTO 30008KT 10SM CLR 17/M02 A3010 RMK AO2 PWINO,KMCC,2025-01-27T22:20:00Z,38.678,-121.403,17,-2,300,8,,10+,30.10,,,TRUE,TRUE,,,,,TRUE,,CLR,,,,,,,,VFR,,,,,,,,,,,,METAR,21
KJSL 272220Z AUTO 00000KT 10SM CLR 26/15 A3010 RMK A01,KJSL,2025-01-27T22:20:00Z,26.2367,-91.2567,26,15,0,0,,10+,30.10,,,TRUE,TRUE,,,,,,,CLR,,,,,,,,VFR,,,,,,,,,,,,METAR,45
KIXA 272220Z AUTO 22005KT 10SM OVC070 08/04 A2995 RMK AO2,KIXA,2025-01-27T22:20:00Z,36.331,-77.6333,8,4,220,5,,10+,29.95,,,TRUE,TRUE,,,,,,,OVC,7000,,,,,,,VFR,,,,,,,,,,,,METAR,43
KFHM 272220Z 14004G07KT 15/05 ,KFHM,2025-01-27T22:20:00Z,34.0677,-118.242,15,5,140,4,7,,0.00,,,,,,,,,,,,,,,,,,,,,,,,,,,,,,,METAR,126
KFBG 272220Z AUTO 23005KT 4SM BR OVC005 09/08 A2996 RMK AO2 SLP149 $,KFBG,2025-01-27T22:20:00Z,35.131,-78.932,9,8,230,5,,4,29.96,1014.9,,TRUE,TRUE,TRUE,,,,,BR,OVC,500,,,,,,,IFR,,,,,,,,,,,,SPECI,69
KEQY 272220Z AUTO 23006KT 2 1/2SM BR OVC003 09/08 A2996 RMK AO2 T00890083,KEQY,2025-01-27T22:20:00Z,35.0147,-80.6242,8.9,8.3,230,6,,2.5,29.96,,,TRUE,TRUE,,,,,,BR,OVC,300,,,,,,,LIFR,,,,,,,,,,,,SPECI,205
KDSF 272220Z AUTO 22009KT 10SM SCT041 22/17 A3011 RMK A01,KDSF,2025-01-27T22:20:00Z,28.3426,-88.2649,22,17,220,9,,10+,30.11,,,TRUE,TRUE,,,,,,,SCT,4100,,,,,,,VFR,,,,,,,,,,,,METAR,40
KALI 272220Z AUTO 01008KT 1 1/4SM BR OVC003 11/11 A3014 RMK AO2 RAE15 P0000 T01110111,KALI,2025-01-27T22:20:00Z,27.7413,-98.0251,11.1,11.1,10,8,,1.25,30.14,,,TRUE,TRUE,,,,,,BR,OVC,300,,,,,,,LIFR,,,,,,0.005,,,,,,SPECI,52
EYVI 272220Z 17012KT CAVOK 06/03 Q1005 NOSIG,EYVI,2025-01-27T22:20:00Z,54.634,25.286,6,3,170,12,,6+,29.68,,,,,,TRUE,,,,,CAVOK,,,,,,,,VFR,,,,,,,,,,,,METAR,180
EYSA 272220Z 17010KT CAVOK 06/04 Q1003 NOSIG,EYSA,2025-01-27T22:20:00Z,55.894,23.395,6,4,170,10,,6+,29.62,,,,,,TRUE,,,,,CAVOK,,,,,,,,VFR,,,,,,,,,,,,METAR,135
EYPA 272220Z 18013KT 4900 -RA BR BKN017 08/06 Q1001,EYPA,2025-01-27T22:20:00Z,55.973,21.092,8,6,180,13,,3.04,29.56,,,,,,,,,,-RA BR,BKN,1700,,,,,,,MVFR,,,,,,,,,,,,METAR,15
EYKA 272220Z 18005KT 140V220 CAVOK 06/03 Q1004,EYKA,2025-01-27T22:20:00Z,54.962,24.069,6,3,180,5,,6+,29.65,,,,,,,,,,,CAVOK,,,,,,,,VFR,,,,,,,,,,,,METAR,68
EVVA 272220Z AUTO 17006KT 7000 OVC010 06/06 Q1000,EVVA,2025-01-27T22:20:00Z,57.361,21.545,6,6,170,6,,4.35,29.53,,,TRUE,,,,,,,,OVC,1000,,,,,,,MVFR,,,,,,,,,,,,METAR,1
EVRA 272220Z 18010KT 9999 FEW019 06/03 Q1003 NOSIG,EVRA,2025-01-27T22:20:00Z,56.924,23.968,6,3,180,10,,6+,29.62,,,,,,TRUE,,,,,FEW,1900,,,,,,,VFR,,,,,,,,,,,,METAR,7
EVLA 272220Z AUTO 20009KT 6000 -RA OVC009/// 07/06 Q1000 RERA,EVLA,2025-01-27T22:20:00Z,56.517,21.097,7,6,200,9,,3.73,29.53,,,TRUE,,,,,,,-RA,OVC,900,,,,,,,IFR,,,,,,,,,,,,METAR,5
EVGA 272220Z AUTO 16006KT CAVOK 05/03 Q1004,EVGA,2025-01-27T22:20:00Z,56.778,24.854,5,3,160,6,,6+,29.65,,,TRUE,,,,,,,,CAVOK,,,,,,,,VFR,,,,,,,,,,,,METAR,61
ESUT 272220Z AUTO 16015KT 9999 SCT098/// BKN150/// M03/M08 Q0991,ESUT,2025-01-27T22:20:00Z,65.806,15.083,-3,-8,160,15,,6+,29.26,,,TRUE,,,,,,,,SCT,9800,BKN,15000,,,,,VFR,,,,,,,,,,,,METAR,457
ESTL 272220Z AUTO 08005KT 050V110 6000 FEW093/// 05/05 Q0994 RESHUP,ESTL,2025-01-27T22:20:00Z,56.083,13.213,5,5,80,5,,3.73,29.35,,,TRUE,,,,,,,,FEW,9300,,,,,,,MVFR,,,,,,,,,,,,METAR,39
ESTA 272220Z AUTO 15006KT 9999 R14/P1500N R32///// BKN140/// 04/04 Q0994,ESTA,2025-01-27T22:20:00Z,56.294,12.848,4,4,150,6,,6+,29.35,,,TRUE,,,,,,,,BKN,14000,,,,,,,VFR,,,,,,,,,,,,METAR,19
ESSV 272220Z AUTO 19010KT 9999 FEW007/// BKN094/// 05/04 Q0996,ESSV,2025-01-27T22:20:00Z,57.662,18.348,5,4,190,10,,6+,29.41,,,TRUE,,,,,,,,FEW,700,BKN,9400,,,,,VFR,,,,,,,,,,,,METAR,38
ESSP 272220Z AUTO 17005KT 9999 OVC018/// 05/04 Q0994,ESSP,2025-01-27T22:20:00Z,58.584,16.255,5,4,170,5,,6+,29.35,,,TRUE,,,,,,,,OVC,1800,,,,,,,MVFR,,,,,,,,,,,,METAR,3
ESSL 272220Z AUTO 15006KT 9999 OVC015/// 04/03 Q0994,ESSL,2025-01-27T22:20:00Z,58.406,15.681,4,3,150,6,,6+,29.35,,,TRUE,,,,,,,,OVC,1500,,,,,,,MVFR,,,,,,,,,,,,METAR,51
ESSD 272220Z AUTO 15006KT 9999 OVC006/// 01/00 Q0991,ESSD,2025-01-27T22:20:00Z,60.422,15.515,1,0,150,6,,6+,29.26,,,TRUE,,,,,,,,OVC,600,,,,,,,IFR,,,,,,,,,,,,METAR,151
ESSB 272220Z AUTO 18007KT 150V210 9999 OVC004/// 04/03 Q0994 RERA,ESSB,2025-01-27T22:20:00Z,59.356,17.933,4,3,180,7,,6+,29.35,,,TRUE,,,,,,,,OVC,400,,,,,,,LIFR,,,,,,,,,,,,METAR,14
ESSA 272220Z 17009KT 9999 OVC004 03/02 Q0993 NOSIG,ESSA,2025-01-27T22:20:00Z,59.664,17.92,3,2,170,9,,6+,29.32,,,,,,TRUE,,,,,OVC,400,,,,,,,LIFR,,,,,,,,,,,,METAR,36
ESPE 272220Z AUTO VRB02KT 9999 BKN007/// OVC009/// M11/M12 Q1000,ESPE,2025-01-27T22:20:00Z,65.875,20.144,-11,-12,VRB,2,,6+,29.53,,,TRUE,,,,,,,,BKN,700,OVC,900,,,,,IFR,,,,,,,,,,,,METAR,182
ESPA 272220Z 17007KT 9000 3500E -SN BKN006 OVC012 M02/M03 Q1002,ESPA,2025-01-27T22:20:00Z,65.541,22.126,-2,-3,170,7,,5.59,29.59,,,,,,,,,,-SN,BKN,600,OVC,1200,,,,,IFR,,,,,,,,,,,,METAR,12
ESOW 272220Z AUTO 17007KT 8000 BR OVC006/// 02/01 Q0994 RESHUP RERA,ESOW,2025-01-27T22:20:00Z,59.595,16.638,2,1,170,7,,4.97,29.35,,,TRUE,,,,,,,BR RA,OVC,600,,,,,,,IFR,,,,,,,,,,,,METAR,7
ESOK 272220Z AUTO 22008KT 6000 OVC003/// 02/02 Q0991,ESOK,2025-01-27T22:20:00Z,59.442,13.342,2,2,220,8,,3.73,29.26,,,TRUE,,,,,,,,OVC,300,,,,,,,LIFR,,,,,,,,,,,,METAR,101
ESOH 272220Z AUTO VRB02KT 9999 OVC003/// 00/00 Q0991 REDZ,ESOH,2025-01-27T22:20:00Z,60.02,13.579,0,0,VRB,2,,6+,29.26,,,TRUE,,,,,,,,OVC,300,,,,,,,LIFR,,,,,,,,,,,,METAR,145
ESOE 272220Z 17004KT 9999 SCT006 OVC009 01/01 Q0993,ESOE,2025-01-27T22:20:00Z,59.229,15.046,1,1,170,4,,6+,29.32,,,,,,,,,,,SCT,600,OVC,900,,,,,IFR,,,,,,,,,,,,METAR,57
ESNZ 272220Z AUTO 10009KT 1700 -SN VV009 M05/M06 Q0991,ESNZ,2025-01-27T22:20:00Z,63.199,14.489,-5,-6,100,9,,1.06,29.26,,,TRUE,,,,,,,-SN,OVX,0,,,,,,,IFR,,,,,,,,,,,900,METAR,360
ESNU 272220Z 13007KT 3000 -SN OVC004 M00/M01 Q1000,ESNU,2025-01-27T22:20:00Z,63.789,20.285,0,-1,130,7,,1.86,29.53,,,,,,,,,,-SN,OVC,400,,,,,,,LIFR,,,,,,,,,,,,METAR,8
ESNS 272220Z AUTO 11006KT 9999 SCT015/// OVC020/// M02/M02 Q1000,ESNS,2025-01-27T22:20:00Z,64.625,21.077,-2,-2,110,6,,6+,29.53,,,TRUE,,,,,,,,SCT,1500,OVC,2000,,,,,MVFR,,,,,,,,,,,,METAR,41
ESNQ 272220Z AUTO 19011KT 9999 BKN170/// M08/M09 Q0996,ESNQ,2025-01-27T22:20:00Z,67.823,20.34,-8,-9,190,11,,6+,29.41,,,TRUE,,,,,,,,BKN,17000,,,,,,,VFR,,,,,,,,,,,,METAR,447
ESNO 272220Z AUTO 13005KT 9999 -SN OVC003/// M01/M01 Q0998,ESNO,2025-01-27T22:20:00Z,63.412,18.98,-1,-1,130,5,,6+,29.47,,,TRUE,,,,,,,-SN,OVC,300,,,,,,,LIFR,,,,,,,,,,,,METAR,100
ESNN 272220Z 09006KT 060V130 0900 R16/P2000N R34/P2000N -SN VV012 M00/M00 Q0995,ESNN,2025-01-27T22:20:00Z,62.532,17.436,0,0,90,6,,0.56,29.38,,,,,,,,,,-SN,OVX,0,,,,,,,LIFR,,,,,,,,,,,1200,METAR,4
ESNK 272220Z AUTO VRB01KT 1600 -SN VV013 M01/M01 Q0996,ESNK,2025-01-27T22:20:00Z,63.047,17.766,-1,-1,VRB,1,,0.99,29.41,,,TRUE,,,,,,,-SN,OVX,0,,,,,,,LIFR,,,,,,,,,,,1300,METAR,4
ESNG 272220Z AUTO VRB02KT 9999 OVC003/// M14/M15 Q0998,ESNG,2025-01-27T22:20:00Z,67.133,20.81,-14,-15,VRB,2,,6+,29.47,,,TRUE,,,,,,,,OVC,300,,,,,,,LIFR,,,,,,,,,,,,METAR,300
ESMX 272220Z 18005KT 7000 BKN003 05/05 Q0995,ESMX,2025-01-27T22:20:00Z,56.927,14.73,5,5,180,5,,4.35,29.38,,,,,,,,,,,BKN,300,,,,,,,LIFR,,,,,,,,,,,,METAR,176
ESMV 272220Z AUTO 18004KT 150V220 9999 SCT004/// OVC007/// 05/05 Q0994,ESMV,2025-01-27T22:20:00Z,57.29,14.134,5,5,180,4,,6+,29.35,,,TRUE,,,,,,,,SCT,400,OVC,700,,,,,IFR,,,,,,,,,,,,METAR,167
ESMT 272220Z AUTO 13006KT 9999 BKN030/// BKN042/// 06/04 Q0994,ESMT,2025-01-27T22:20:00Z,56.691,12.82,6,4,130,6,,6+,29.35,,,TRUE,,,,,,,,BKN,3000,BKN,4200,,,,,MVFR,,,,,,,,,,,,METAR,24
ESMS 272220Z 23003KT 9999 FEW008 SCT070 06/06 Q0995,ESMS,2025-01-27T22:20:00Z,55.539,13.373,6,6,230,3,,6+,29.38,,,,,,,,,,,FEW,800,SCT,7000,,,,,VFR,,,,,,,,,,,,METAR,68
ESMQ 272220Z 18006KT 9999 OVC003 04/04 Q0996,ESMQ,2025-01-27T22:20:00Z,56.685,16.284,4,4,180,6,,6+,29.41,,,,,,,,,,,OVC,300,,,,,,,LIFR,,,,,,,,,,,,METAR,3
ESMK 272220Z AUTO 17005KT 0250 R01/1700D R19/0900N FG BKN053/// OVC068/// 02/02 Q0996,ESMK,2025-01-27T22:20:00Z,55.922,14.085,2,2,170,5,,0.16,29.41,,,TRUE,,,,,,,FG,BKN,5300,OVC,6800,,,,,LIFR,,,,,,,,,,,,METAR,20
ESKS 272220Z AUTO 14007KT 7000 -SN FEW010/// BKN016/// OVC020/// M03/M05 Q0989 RESN,ESKS,2025-01-27T22:20:00Z,61.165,12.834,-3,-5,140,7,,4.35,29.20,,,TRUE,,,,,,,-SN,FEW,1000,BKN,1600,OVC,2000,,,MVFR,,,,,,,,,,,,METAR,503
ESKN 272220Z 18006KT 9999 BKN007 04/03 Q0994,ESKN,2025-01-27T22:20:00Z,58.786,16.918,4,3,180,6,,6+,29.35,,,,,,,,,,,BKN,700,,,,,,,IFR,,,,,,,,,,,,METAR,41
ESIB 272220Z AUTO 18006KT 9999 SCT009/// BKN012/// 03/03 Q0991,ESIB,2025-01-27T22:20:00Z,58.431,12.71,3,3,180,6,,6+,29.26,,,TRUE,,,,,,,,SCT,900,BKN,1200,,,,,MVFR,,,,,,,,,,,,METAR,51
ESIA 272220Z AUTO 21003KT 180V240 9999 OVC022/// 04/03 Q0993,ESIA,2025-01-27T22:20:00Z,58.514,14.507,4,3,210,3,,6+,29.32,,,TRUE,,,,,,,,OVC,2200,,,,,,,MVFR,,,,,,,,,,,,METAR,94
ESGT 272220Z AUTO 17006KT 9000 BKN007/// OVC010/// 02/02 Q0992,ESGT,2025-01-27T22:20:00Z,58.314,12.347,2,2,170,6,,5.59,29.29,,,TRUE,,,,,,,,BKN,700,OVC,1000,,,,,IFR,,,,,,,,,,,,METAR,40
ESGP 272220Z AUTO 18010KT 9999 NCD 05/04 Q0991,ESGP,2025-01-27T22:20:00Z,57.781,11.869,5,4,180,10,,6+,29.26,,,TRUE,,,,,,,,CLR,,,,,,,,VFR,,,,,,,,,,,,METAR,15
ESGJ 272220Z 21009KT 9999 FEW011 BKN016 04/03 Q0993,ESGJ,2025-01-27T22:20:00Z,57.752,14.069,4,3,210,9,,6+,29.32,,,,,,,,,,,FEW,1100,BKN,1600,,,,,MVFR,,,,,,,,,,,,METAR,224
ESGG 272220Z 18009KT 9999 FEW007 04/03 Q0991,ESGG,2025-01-27T22:20:00Z,57.667,12.285,4,3,180,9,,6+,29.26,,,,,,,,,,,FEW,700,,,,,,,VFR,,,,,,,,,,,,METAR,152
ESDF 272220Z AUTO 16004KT 0750 0600// R01/1700D R19/1400VP2000N FG FEW005/// 04/04 Q0996,ESDF,2025-01-27T22:20:00Z,56.266,15.267,4,4,160,4,,0.47,29.41,,,TRUE,,,,,,,FG,FEW,500,,,,,,,LIFR,,,,,,,,,,,,METAR,52
ESCM 272220Z AUTO 15007KT 9999 -DZ OVC004/// 02/02 Q0993,ESCM,2025-01-27T22:20:00Z,59.899,17.589,2,2,150,7,,6+,29.32,,,TRUE,,,,,,,-DZ,OVC,400,,,,,,,LIFR,,,,,,,,,,,,METAR,21
ESCF 272220Z AUTO 17004KT 9999 OVC015/// 04/03 Q0994,ESCF,2025-01-27T22:20:00Z,58.398,15.526,4,3,170,4,,6+,29.35,,,TRUE,,,,,,,,OVC,1500,,,,,,,MVFR,,,,,,,,,,,,METAR,86
ENZV 272220Z 15017KT 9999 FEW018 SCT039 BKN049 06/03 Q0981 RERA,ENZV,2025-01-27T22:20:00Z,58.884,5.637,6,3,150,17,,6+,28.97,,,,,,,,,,,FEW,1800,SCT,3900,BKN,4900,,,VFR,,,,,,,,,,,,METAR,7
ENVA 272220Z 11015KT CAVOK 03/M05 Q0987 RMK WIND 670FT 14022KT,ENVA,2025-01-27T22:20:00Z,63.46,10.931,3,-5,110,15,,6+,29.14,,,,,,,,,,,CAVOK,,,,,,,,VFR,,,,,,,,,,,,METAR,12
ENTO 272220Z 01006KT 6000 -DZ OVC002 00/00 Q0989,ENTO,2025-01-27T22:20:00Z,59.184,10.255,0,0,10,6,,3.73,29.20,,,,,,,,,,-DZ,OVC,200,,,,,,,LIFR,,,,,,,,,,,,METAR,84
ENTC 272220Z VRB02KT CAVOK M03/M06 Q0993 RMK WIND 2600FT 18027KT,ENTC,2025-01-27T22:20:00Z,69.675,18.916,-3,-6,VRB,2,,6+,29.32,,,,,,,,,,,CAVOK,,,,,,,,VFR,,,,,,,,,,,,METAR,9
ENSB 272220Z 12030KT 9999 DRSN FEW025 BKN085 M00/M05 Q0999 RMK WIND 1400FT 11032KT,ENSB,2025-01-27T22:20:00Z,78.246,15.466,0,-5,120,30,,6+,29.50,,,,,,,,,,DRSN,FEW,2500,BKN,8500,,,,,VFR,,-3.2,,,,,,,,,,METAR,30
ENRY 272220Z AUTO VRB03KT 2200 -RA VV003 00/M00 Q0989,ENRY,2025-01-27T22:20:00Z,59.381,10.783,0,0,VRB,3,,1.37,29.20,,,TRUE,,,,,,,-RA,OVX,0,,,,,,,LIFR,,,,,,,,,,,300,METAR,45
ENRO 272220Z AUTO VRB03KT 9999 -SN BKN013/// BKN016/// OVC034/// M04/M07 Q0986,ENRO,2025-01-27T22:20:00Z,62.578,11.342,-4,-7,VRB,3,,6+,29.11,,,TRUE,,,,,,,-SN,BKN,1300,BKN,1600,OVC,3400,,,MVFR,,,,,,,,,,,,METAR,624
ENOL 272220Z 14022KT CAVOK 03/M05 Q0984,ENOL,2025-01-27T22:20:00Z,63.703,9.609,3,-5,140,22,,6+,29.06,,,,,,,,,,,CAVOK,,,,,,,,VFR,,,,,,,,,,,,METAR,9
ENHD 272220Z AUTO 11018KT 9999 BKN018/// OVC022/// 05/02 Q0980,ENHD,2025-01-27T22:20:00Z,59.341,5.22,5,2,110,18,,6+,28.94,,,TRUE,,,,,,,,BKN,1800,OVC,2200,,,,,MVFR,,,,,,,,,,,,METAR,22
ENGM 272220Z 01003KT 7000 -SN FEW006 BKN013 M01/M02 Q0989,ENGM,2025-01-27T22:20:00Z,60.201,11.08,-1,-2,10,3,,4.35,29.20,,,,,,,,,,-SN,FEW,600,BKN,1300,,,,,MVFR,,,,,,,,,,,,METAR,204
ENDU 272220Z VRB02KT CAVOK M09/M10 Q0993 RMK WIND 1100FT 13007KT WIND 2200FT 16016KT,ENDU,2025-01-27T22:20:00Z,69.058,18.544,-9,-10,VRB,2,,6+,29.32,,,,,,,,,,,CAVOK,,,,,,,,VFR,,,,,,,,,,,,METAR,65
ENCN 272220Z AUTO 16010KT 9999 FEW010/// BKN013/// BKN016/// 06/04 Q0986 REDZ,ENCN,2025-01-27T22:20:00Z,58.2,8.077,6,4,160,10,,6+,29.11,,,TRUE,,,,,,,,FEW,1000,BKN,1300,BKN,1600,,,MVFR,,,,,,,,,,,,METAR,17
ENBR 272220Z 10009KT 9999 FEW048 SCT058 BKN140 06/M03 Q0982 RMK WIND 1200FT 11019KT,ENBR,2025-01-27T22:20:00Z,60.29,5.222,6,-3,100,9,,6+,29.00,,,,,,,,,,,FEW,4800,SCT,5800,BKN,14000,,,VFR,,-1.9,,,,,,,,,,METAR,49
ENBO 272220Z 09015KT CAVOK 02/M08 Q0991,ENBO,2025-01-27T22:20:00Z,67.267,14.359,2,-8,90,15,,6+,29.26,,,,,,,,,,,CAVOK,,,,,,,,VFR,,,,,,,,,,,,METAR,13
ENAL 272220Z 21003KT CAVOK 02/M02 Q0984,ENAL,2025-01-27T22:20:00Z,62.562,6.115,2,-2,210,3,,6+,29.06,,,,,,,,,,,CAVOK,,,,,,,,VFR,,,,,,,,,,,,METAR,21
EKYT 272220Z AUTO 15012KT 9999 FEW076/// BKN180/// 05/03 Q0990,EKYT,2025-01-27T22:20:00Z,57.093,9.879,5,3,150,12,,6+,29.23,,,TRUE,,,,,,,,FEW,7600,BKN,18000,,,,,VFR,,,,,,,,,,,,METAR,2
EKVJ 272220Z AUTO 16008KT 140V220 9999 FEW026/// SCT042/// BKN140/// 05/03 Q0989 UNMONITORED,EKVJ,2025-01-27T22:20:00Z,55.991,8.354,5,3,160,8,,6+,29.20,,,TRUE,,,,,,,,FEW,2600,SCT,4200,BKN,14000,,,VFR,,,,,,,,,,,,METAR,5
EKVG 272220Z AUTO 34006KT 9999 NCD 01/M05 Q0988 RMK NCD WIND SKEID 04013KT,EKVG,2025-01-27T22:20:00Z,62.065,-7.282,1,-5,340,6,,6+,29.17,,,TRUE,,,,,,,,CLR,,,,,,,,VFR,,,,,,,,,,,,METAR,89
EKVD 272220Z AUTO 16007KT //// ///////// 05/04 Q0991,EKVD,2025-01-27T22:20:00Z,55.436,9.329,5,4,160,7,,,29.26,,,TRUE,,,,,,,,,,,,,,,,,,,,,,,,,,,,METAR,41
EKSP 272220Z 15006KT 9999 FEW035 03/03 Q0991,EKSP,2025-01-27T22:20:00Z,55.225,9.263,3,3,150,6,,6+,29.26,,,,,,,,,,,FEW,3500,,,,,,,VFR,,,,,,,,,,,,METAR,40
EKSB 272220Z AUTO 14004KT 9999 NCD 05/04 Q0992,EKSB,2025-01-27T22:20:00Z,54.962,9.787,5,4,140,4,,6+,29.29,,,TRUE,,,,,,,,CLR,,,,,,,,VFR,,,,,,,,,,,,METAR,23
EKRS 272220Z AUTO 17003KT 150V210 9999 NCD 04/04 Q0993,EKRS,2025-01-27T22:20:00Z,55.426,11.807,4,4,170,3,,6+,29.32,,,TRUE,,,,,,,,CLR,,,,,,,,VFR,,,,,,,,,,,,METAR,34
EKRN 272220Z AUTO 19010KT 9999 BKN041/// OVC170/// 06/05 Q0996,EKRN,2025-01-27T22:20:00Z,55.068,14.749,6,5,190,10,,6+,29.41,,,TRUE,,,,,,,,BKN,4100,OVC,17000,,,,,VFR,,,,,,,,,,,,METAR,14
EKRK 272220Z AUTO 15006KT 9999 FEW067/// 03/02 Q0994,EKRK,2025-01-27T22:20:00Z,55.587,12.136,3,2,150,6,,6+,29.35,,,TRUE,,,,,,,,FEW,6700,,,,,,,VFR,,,,,,,,,,,,METAR,40
EKKA 272220Z AUTO 15008KT 9999 NCD 04/03 Q0990 NOSIG,EKKA,2025-01-27T22:20:00Z,56.293,9.114,4,3,150,8,,6+,29.23,,,TRUE,,,TRUE,,,,,CLR,,,,,,,,VFR,,,,,,,,,,,,METAR,50
EKEB 272220Z AUTO 17011KT 9999 SCT120/// 05/04 Q0990,EKEB,2025-01-27T22:20:00Z,55.528,8.563,5,4,170,11,,6+,29.23,,,TRUE,,,,,,,,SCT,12000,,,,,,,VFR,,,,,,,,,,,,METAR,29
EKCH 272220Z AUTO 15006KT 9999 SCT045/// 06/04 Q0994 NOSIG,EKCH,2025-01-27T22:20:00Z,55.618,12.656,6,4,150,6,,6+,29.35,,,TRUE,,,TRUE,,,,,SCT,4500,,,,,,,VFR,,,,,,,,,,,,METAR,4
EKBI 272220Z AUTO 16007KT 120V180 9999 FEW160/// 05/03 Q0991,EKBI,2025-01-27T22:20:00Z,55.74,9.152,5,3,160,7,,6+,29.26,,,TRUE,,,,,,,,FEW,16000,,,,,,,VFR,,,,,,,,,,,,METAR,67
EKAH 272220Z AUTO 17006KT 140V210 9999 BKN200/// 05/04 Q0992,EKAH,2025-01-27T22:20:00Z,56.3,10.619,5,4,170,6,,6+,29.29,,,TRUE,,,,,,,,BKN,20000,,,,,,,VFR,,,,,,,,,,,,METAR,25
EGTK 272220Z 18018KT 9999 -RA SCT016 BKN022 07/05 Q0978,EGTK,2025-01-27T22:20:00Z,51.838,-1.317,7,5,180,18,,6+,28.88,,,,,,,,,,-RA,SCT,1600,BKN,2200,,,,,MVFR,,,,,,,,,,,,METAR,78
EGTE 272220Z 19019G29KT 9999 -DZ BKN020 09/06 Q0975,EGTE,2025-01-27T22:20:00Z,50.737,-3.406,9,6,190,19,29,6+,28.79,,,,,,,,,,-DZ,BKN,2000,,,,,,,MVFR,,,,,,,,,,,,METAR,30
EGSY 272220Z AUTO 17012KT 9999 -DZ OVC024/// 08/06 Q0974,EGSY,2025-01-27T22:20:00Z,51.406,-3.434,8,6,170,12,,6+,28.76,,,TRUE,,,,,,,-DZ,OVC,2400,,,,,,,MVFR,,,,,,,,,,,,METAR,46
EGSS 272220Z AUTO 19017KT 9999 BKN027 OVC044 07/04 Q0981,EGSS,2025-01-27T22:20:00Z,51.881,0.223,7,4,190,17,,6+,28.97,,,TRUE,,,,,,,,BKN,2700,OVC,4400,,,,,MVFR,,,,,,,,,,,,METAR,101
EGSH 272220Z AUTO 19008KT 140V230 9999 -RA NCD 07/05 Q0982,EGSH,2025-01-27T22:20:00Z,52.676,1.283,7,5,190,8,,6+,29.00,,,TRUE,,,,,,,-RA,CLR,,,,,,,,VFR,,,,,,,,,,,,METAR,21
EGPU 272220Z AUTO 03009KT 9999 SCT032/// 05/03 Q0974,EGPU,2025-01-27T22:20:00Z,56.499,-6.872,5,3,30,9,,6+,28.76,,,TRUE,,,,,,,,SCT,3200,,,,,,,VFR,,,,,,,,,,,,METAR,12
EGPO 272220Z 06015KT 9999 VCSH FEW018CB 08/05 Q0978,EGPO,2025-01-27T22:20:00Z,58.215,-6.329,8,5,60,15,,6+,28.88,,,,,,,,,,VCSH,FEW,1800,,,,,,,VFR,,,,,,,,,,,,METAR,10
EGPL 272220Z AUTO 07018KT 9999 SCT006/// BKN019/// 07/05 Q0977,EGPL,2025-01-27T22:20:00Z,57.475,-7.364,7,5,70,18,,6+,28.85,,,TRUE,,,,,,,,SCT,600,BKN,1900,,,,,MVFR,,,,,,,,,,,,METAR,3
EGPK 272220Z 08010KT 9999 BKN020 06/04 Q0973,EGPK,2025-01-27T22:20:00Z,55.509,-4.587,6,4,80,10,,6+,28.73,,,,,,,,,,,BKN,2000,,,,,,,MVFR,,,,,,,,,,,,METAR,14
EGPI 272220Z AUTO 10015KT 3600 HZ OVC014/// 06/05 Q0972,EGPI,2025-01-27T22:20:00Z,55.681,-6.25,6,5,100,15,,2.24,28.70,,,TRUE,,,,,,,HZ,OVC,1400,,,,,,,IFR,,,,,,,,,,,,METAR,17
EGPH 272220Z 12004KT 090V160 9999 FEW018 OVC028 04/04 Q0975,EGPH,2025-01-27T22:20:00Z,55.952,-3.36,4,4,120,4,,6+,28.79,,,,,,,,,,,FEW,1800,OVC,2800,,,,,MVFR,,,,,,,,,,,,METAR,29
EGPF 272220Z AUTO 07010KT 9999 OVC023 05/04 Q0974,EGPF,2025-01-27T22:20:00Z,55.867,-4.433,5,4,70,10,,6+,28.76,,,TRUE,,,,,,,,OVC,2300,,,,,,,MVFR,,,,,,,,,,,,METAR,8
EGPE 272220Z AUTO 06013KT 9999 -RA BKN005/// BKN015/// BKN028/// 06/05 Q0977 RERA,EGPE,2025-01-27T22:20:00Z,57.538,-4.053,6,5,60,13,,6+,28.85,,,TRUE,,,,,,,-RA,BKN,500,BKN,1500,BKN,2800,,,IFR,,,,,,,,,,,,METAR,7
EGPD 272220Z AUTO 19002KT 9999 BKN013 OVC028 03/03 Q0976 TEMPO BKN008,EGPD,2025-01-27T22:20:00Z,57.205,-2.205,3,3,190,2,,6+,28.82,,,TRUE,,,,,,,,BKN,1300,OVC,2800,,,,,MVFR,,,,,,,,,,,,METAR,65
EGPC 272220Z AUTO 04015KT 9999 FEW017/// BKN021/// BKN032/// 06/04 Q0979,EGPC,2025-01-27T22:20:00Z,58.459,-3.093,6,4,40,15,,6+,28.91,,,TRUE,,,,,,,,FEW,1700,BKN,2100,BKN,3200,,,MVFR,,,,,,,,,,,,METAR,38
EGPB 272220Z 04023KT 9999 VCSH BKN017 06/03 Q0979 RERA,EGPB,2025-01-27T22:20:00Z,59.88,-1.296,6,3,40,23,,6+,28.91,,,,,,,,,,VCSH,BKN,1700,,,,,,,MVFR,,,,,,,,,,,,METAR,2
EGPA 272220Z AUTO 03011KT 9999 FEW022/// SCT028/// BKN034/// 06/03 Q0979,EGPA,2025-01-27T22:20:00Z,58.958,-2.905,6,3,30,11,,6+,28.91,,,TRUE,,,,,,,,FEW,2200,SCT,2800,BKN,3400,,,VFR,,,,,,,,,,,,METAR,15
EGNX 272220Z 18019KT 9999 FEW021 BKN031 07/04 Q0975,EGNX,2025-01-27T22:20:00Z,52.833,-1.333,7,4,180,19,,6+,28.79,,,,,,,,,,,FEW,2100,BKN,3100,,,,,VFR,,,,,,,,,,,,METAR,91
EGNV 272220Z AUTO 16012KT 9999 SCT047/// 06/04 Q0975,EGNV,2025-01-27T22:20:00Z,54.511,-1.418,6,4,160,12,,6+,28.79,,,TRUE,,,,,,,,SCT,4700,,,,,,,VFR,,,,,,,,,,,,METAR,36
EGNT 272220Z 18004KT 130V240 CAVOK 05/02 Q0975,EGNT,2025-01-27T22:20:00Z,55.037,-1.702,5,2,180,4,,6+,28.79,,,,,,,,,,,CAVOK,,,,,,,,VFR,,,,,,,,,,,,METAR,77
EGNJ 272220Z AUTO 17020G31KT 3500 SHGR BKN020/// OVC034/// 06/04 Q0978 RERA,EGNJ,2025-01-27T22:20:00Z,53.58,-0.341,6,4,170,20,31,2.17,28.88,,,TRUE,,,,,,,SHGR,BKN,2000,OVC,3400,,,,,IFR,,,,,,,,,,,,METAR,23
EGMD 272220Z AUTO 21029G39KT 9999 SCT026/// BKN031/// 09/05 Q0985,EGMD,2025-01-27T22:20:00Z,50.956,0.939,9,5,210,29,39,6+,29.08,,,TRUE,,,,,,,,SCT,2600,BKN,3100,,,,,VFR,,,,,,,,,,,,METAR,4
EGLL 272220Z AUTO 19015KT 9999 BKN027 BKN046 08/04 Q0981 NOSIG,EGLL,2025-01-27T22:20:00Z,51.477,-0.461,8,4,190,15,,6+,28.97,,,TRUE,,,TRUE,,,,,BKN,2700,BKN,4600,,,,,MVFR,,,,,,,,,,,,METAR,26
EGLF 272220Z AUTO 19016KT 9999 SCT029/// BKN041/// 08/05 Q0980,EGLF,2025-01-27T22:20:00Z,51.28,-0.773,8,5,190,16,,6+,28.94,,,TRUE,,,,,,,,SCT,2900,BKN,4100,,,,,VFR,,,,,,,,,,,,METAR,65
EGLC 272220Z AUTO 19015G26KT 160V230 9999 SCT028 BKN033 09/04 Q0982,EGLC,2025-01-27T22:20:00Z,51.505,0.055,9,4,190,15,26,6+,29.00,,,TRUE,,,,,,,,SCT,2800,BKN,3300,,,,,VFR,,,,,,,,,,,,METAR,10
EGKK 272220Z 20017KT 170V230 9999 BKN024 08/04 Q0982,EGKK,2025-01-27T22:20:00Z,51.148,-0.19,8,4,200,17,,6+,29.00,,,,,,,,,,,BKN,2400,,,,,,,MVFR,,,,,,,,,,,,METAR,58
EGKB 272220Z 19025KT 9999 BKN025 07/03 Q0982,EGKB,2025-01-27T22:20:00Z,51.33,0.033,7,3,190,25,,6+,29.00,,,,,,,,,,,BKN,2500,,,,,,,MVFR,,,,,,,,,,,,METAR,183
EGJJ 272220Z AUTO 20025G37KT 9999 SCT023/// BKN027/// BKN034/// 08/05 Q0984,EGJJ,2025-01-27T22:20:00Z,49.21,-2.194,8,5,200,25,37,6+,29.06,,,TRUE,,,,,,,,SCT,2300,BKN,2700,BKN,3400,,,MVFR,,,,,,,,,,,,METAR,84
EGHQ 272220Z AUTO 21015KT 9999 BKN013/// 09/07 Q0973 RERA,EGHQ,2025-01-27T22:20:00Z,50.438,-4.998,9,7,210,15,,6+,28.73,,,TRUE,,,,,,,,BKN,1300,,,,,,,MVFR,,,,,,,,,,,,METAR,101
EGGW 272220Z AUTO 19012KT 150V220 9999 BKN021 OVC028 06/04 Q0980,EGGW,2025-01-27T22:20:00Z,51.875,-0.368,6,4,190,12,,6+,28.94,,,TRUE,,,,,,,,BKN,2100,OVC,2800,,,,,MVFR,,,,,,,,,,,,METAR,159
EGGP 272220Z 15011KT 9999 SCT015 BKN047 06/04 Q0973,EGGP,2025-01-27T22:20:00Z,53.334,-2.85,6,4,150,11,,6+,28.73,,,,,,,,,,,SCT,1500,BKN,4700,,,,,VFR,,,,,,,,,,,,METAR,23
EGGD 272220Z AUTO 19017G30KT 9999 BKN010 BKN016 OVC020 07/07 Q0975,EGGD,2025-01-27T22:20:00Z,51.383,-2.719,7,7,190,17,30,6+,28.79,,,TRUE,,,,,,,,BKN,1000,BKN,1600,OVC,2000,,,MVFR,,,,,,,,,,,,METAR,182
EGFF 272220Z AUTO 18012KT 9999 BKN025 BKN031 BKN039 08/06 Q0974,EGFF,2025-01-27T22:20:00Z,51.397,-3.343,8,6,180,12,,6+,28.76,,,TRUE,,,,,,,,BKN,2500,BKN,3100,BKN,3900,,,MVFR,,,,,,,,,,,,METAR,65
EGCK 272220Z AUTO 17016G26KT 9999 -RA SCT009/// BKN019/// BKN031/// 08/07 Q0969 RERA,EGCK,2025-01-27T22:20:00Z,53.104,-4.34,8,7,170,16,26,6+,28.61,,,TRUE,,,,,,,-RA,SCT,900,BKN,1900,BKN,3100,,,MVFR,,,,,,,,,,,,METAR,6
EGCC 272220Z AUTO 16006KT 110V250 9999 BKN015/// BKN026/// OVC031/// //////TCU 07/04 Q0974 TEMPO BKN014,EGCC,2025-01-27T22:20:00Z,53.354,-2.275,7,4,160,6,,6+,28.76,,,TRUE,,,,,,,,BKN,1500,BKN,2600,OVC,3100,,,MVFR,,,,,,,,,,,,METAR,78
EGBB 272220Z 17011KT 9999 BKN026 07/06 Q0976,EGBB,2025-01-27T22:20:00Z,52.46,-1.758,7,6,170,11,,6+,28.82,,,,,,,,,,,BKN,2600,,,,,,,MVFR,,,,,,,,,,,,METAR,91
EGAE 272220Z 03013KT 9999 FEW008 BKN032 08/07 Q0970,EGAE,2025-01-27T22:20:00Z,55.043,-7.161,8,7,30,13,,6+,28.64,,,,,,,,,,,FEW,800,BKN,3200,,,,,VFR,,,,,,,,,,,,METAR,9
EGAC 272220Z AUTO VRB02KT 4200 RA FEW007/// OVC042/// //////CB 08/07 Q0969,EGAC,2025-01-27T22:20:00Z,54.614,-5.873,8,7,VRB,2,,2.61,28.61,,,TRUE,,,,,,,RA,FEW,700,OVC,4200,,,,,IFR,,,,,,,,,,,,METAR,2
EGAA 272220Z AUTO 07004KT 6000 FEW003/// SCT026/// //////TCU 06/06 Q0969,EGAA,2025-01-27T22:20:00Z,54.654,-6.225,6,6,70,4,,3.73,28.61,,,TRUE,,,,,,,,FEW,300,SCT,2600,,,,,MVFR,,,,,,,,,,,,METAR,65
EFVA 272220Z AUTO 13007KT 9999 OVC026 M01/M01 Q1001,EFVA,2025-01-27T22:20:00Z,63.051,21.762,-1,-1,130,7,,6+,29.56,,,TRUE,,,,,,,,OVC,2600,,,,,,,MVFR,,,,,,,,,,,,METAR,4
EFUT 272220Z AUTO 15006KT 4500 -FZDZ OVC001 M00/M00 Q1005,EFUT,2025-01-27T22:20:00Z,60.896,26.938,0,0,150,6,,2.8,29.68,,,TRUE,,,,,,,-FZDZ,OVC,100,,,,,,,LIFR,,,,,,,,,,,,METAR,104
EFTU 272220Z AUTO 14010KT 9999 -SHRA OVC006 01/00 Q1000,EFTU,2025-01-27T22:20:00Z,60.514,22.263,1,0,140,10,,6+,29.53,,,TRUE,,,,,,,-SHRA,OVC,600,,,,,,,IFR,,,,,,,,,,,,METAR,47
EFTP 272220Z AUTO 12010KT 9999 BKN006 OVC035 00/M01 Q1001,EFTP,2025-01-27T22:20:00Z,61.419,23.616,0,-1,120,10,,6+,29.56,,,TRUE,,,,,,,,BKN,600,OVC,3500,,,,,IFR,,,,,,,,,,,,METAR,111
EFSI 272220Z AUTO 15010KT 9999 -SN BKN008 M01/M01 Q1002 REFZRA,EFSI,2025-01-27T22:20:00Z,62.693,22.83,-1,-1,150,10,,6+,29.59,,,TRUE,,,,,,,-SN,BKN,800,,,,,,,IFR,,,,,,,,,,,,METAR,90
EFSA 272220Z AUTO 15005KT 120V180 9999 OVC003 M01/M01 Q1006,EFSA,2025-01-27T22:20:00Z,61.943,28.945,-1,-1,150,5,,6+,29.70,,,TRUE,,,,,,,,OVC,300,,,,,,,LIFR,,,,,,,,,,,,METAR,90
EFRO 272220Z AUTO 19007KT 4100 -FZDZ OVC002 M07/M08 Q1002,EFRO,2025-01-27T22:20:00Z,66.562,25.829,-7,-8,190,7,,2.55,29.59,,,TRUE,,,,,,,-FZDZ,OVC,200,,,,,,,LIFR,,,,,,,,,,,,METAR,201
EFPO 272220Z AUTO 12013KT 9999 -SHSN OVC012 01/M01 Q0999,EFPO,2025-01-27T22:20:00Z,61.462,21.8,1,-1,120,13,,6+,29.50,,,TRUE,,,,,,,-SHSN,OVC,1200,,,,,,,MVFR,,,,,,,,,,,,METAR,10
EFOU 272220Z AUTO 15009KT 9999 -SN OVC013 M02/M02 Q1003,EFOU,2025-01-27T22:20:00Z,64.93,25.355,-2,-2,150,9,,6+,29.62,,,TRUE,,,,,,,-SN,OVC,1300,,,,,,,MVFR,,,,,,,,,,,,METAR,15
EFMI 272220Z AUTO 14005KT 110V170 5000 -FZDZ OVC001 M01/M02 Q1006,EFMI,2025-01-27T22:20:00Z,61.687,27.201,-1,-2,140,5,,3.11,29.70,,,TRUE,,,,,,,-FZDZ,OVC,100,,,,,,,LIFR,,,,,,,,,,,,METAR,99
EFMA 272220Z AUTO 14014KT 7000 -RA OVC006 03/02 Q0996,EFMA,2025-01-27T22:20:00Z,60.125,19.903,3,2,140,14,,4.35,29.41,,,TRUE,,,,,,,-RA,OVC,600,,,,,,,IFR,,,,,,,,,,,,METAR,6
EFLP 272220Z AUTO 15004KT 120V180 9999 OVC003 00/M00 Q1006,EFLP,2025-01-27T22:20:00Z,61.044,28.151,0,0,150,4,,6+,29.70,,,TRUE,,,,,,,,OVC,300,,,,,,,LIFR,,,,,,,,,,,,METAR,102
EFKU 272220Z AUTO 14003KT 9999 -SHSN OVC011 M02/M02 Q1006 REFZRA,EFKU,2025-01-27T22:20:00Z,63.008,27.799,-2,-2,140,3,,6+,29.70,,,TRUE,,,,,,,-SHSN,OVC,1100,,,,,,,MVFR,,,,,,,,,,,,METAR,92
EFKT 272220Z AUTO 16010KT 9999 OVC003 M05/M06 Q1000,EFKT,2025-01-27T22:20:00Z,67.701,24.847,-5,-6,160,10,,6+,29.53,,,TRUE,,,,,,,,OVC,300,,,,,,,LIFR,,,,,,,,,,,,METAR,190
EFKS 272220Z AUTO 11003KT 9999 OVC001 M13/M14 Q1004 REFZDZ,EFKS,2025-01-27T22:20:00Z,65.992,29.236,-13,-14,110,3,,6+,29.65,,,TRUE,,,,,,,,OVC,100,,,,,,,LIFR,,,,,,,,,,,,METAR,270
EFKK 272220Z AUTO 16008KT 9999 OVC012 M01/M02 Q1002,EFKK,2025-01-27T22:20:00Z,63.721,23.143,-1,-2,160,8,,6+,29.59,,,TRUE,,,,,,,,OVC,1200,,,,,,,MVFR,,,,,,,,,,,,METAR,25
EFKI 272220Z AUTO 14003KT 110V180 6000 -SN OVC007 M02/M03 Q1005,EFKI,2025-01-27T22:20:00Z,64.283,27.673,-2,-3,140,3,,3.73,29.68,,,TRUE,,,,,,,-SN,OVC,700,,,,,,,IFR,,,,,,,,,,,,METAR,132
EFKE 272220Z AUTO 15005KT 9000 -SN OVC015 M03/M03 Q1003,EFKE,2025-01-27T22:20:00Z,65.784,24.579,-3,-3,150,5,,5.59,29.62,,,TRUE,,,,,,,-SN,OVC,1500,,,,,,,MVFR,,,,,,,,,,,,METAR,15
EFJY 272220Z AUTO 15007KT 9999 BKN004 M02/M02 Q1004,EFJY,2025-01-27T22:20:00Z,62.404,25.675,-2,-2,150,7,,6+,29.65,,,TRUE,,,,,,,,BKN,400,,,,,,,LIFR,,,,,,,,,,,,METAR,139
EFJO 272220Z AUTO 15003KT 100V210 6000 -SN OVC002 M01/M02 Q1006 REFZRA REFZDZ,EFJO,2025-01-27T22:20:00Z,62.66,29.611,-1,-2,150,3,,3.73,29.70,,,TRUE,,,,,,,-SN FZDZ,OVC,200,,,,,,,LIFR,,,,,,,,,,,,METAR,118
EFIV 272220Z AUTO 21007KT 180V240 9999 OVC010 M06/M07 Q1000,EFIV,2025-01-27T22:20:00Z,68.607,27.405,-6,-7,210,7,,6+,29.53,,,TRUE,,,,,,,,OVC,1000,,,,,,,MVFR,,,,,,,,,,,,METAR,145
EFHK 272220Z 14012KT 9999 SCT004 BKN007 02/01 Q1003 TEMPO BKN010,EFHK,2025-01-27T22:20:00Z,60.327,24.957,2,1,140,12,,6+,29.62,,,,,,,,,,,SCT,400,BKN,700,,,,,IFR,,,,,,,,,,,,METAR,56
EFHA 272220Z AUTO 12005KT 9999 -SN OVC004 M02/M02 Q1003,EFHA,2025-01-27T22:20:00Z,61.855,24.805,-2,-2,120,5,,6+,29.62,,,TRUE,,,,,,,-SN,OVC,400,,,,,,,LIFR,,,,,,,,,,,,METAR,144
EFET 272220Z AUTO 19007KT 9999 OVC006 M05/M06 Q0998,EFET,2025-01-27T22:20:00Z,68.363,23.424,-5,-6,190,7,,6+,29.47,,,TRUE,,,,,,,,OVC,600,,,,,,,IFR,,,,,,,,,,,,METAR,300
EETU 272220Z AUTO 11004KT 080V140 4800 BR BKN002/// OVC005/// 01/01 Q1005,EETU,2025-01-27T22:20:00Z,58.307,26.691,1,1,110,4,,2.98,29.68,,,TRUE,,,,,,,BR,BKN,200,OVC,500,,,,,LIFR,,,,,,,,,,,,METAR,67
EETN 272220Z 12011KT 9999 OVC006 01/M01 Q1002,EETN,2025-01-27T22:20:00Z,59.413,24.801,1,-1,120,11,,6+,29.59,,,,,,,,,,,OVC,600,,,,,,,IFR,,,,,,,,,,,,METAR,41
EEPU 272220Z AUTO 11007KT 9999 FEW004/// BKN066/// OVC140/// 02/01 Q1002,EEPU,2025-01-27T22:20:00Z,58.419,24.473,2,1,110,7,,6+,29.59,,,TRUE,,,,,,,,FEW,400,BKN,6600,OVC,14000,,,VFR,,,,,,,,,,,,METAR,13
EEKA 272220Z AUTO 16010KT 9999 -RA BKN006/// OVC013/// 02/01 Q1000,EEKA,2025-01-27T22:20:00Z,58.991,22.831,2,1,160,10,,6+,29.53,,,TRUE,,,,,,,-RA,BKN,600,OVC,1300,,,,,IFR,,,,,,,,,,,,METAR,6
EDDW 272220Z AUTO 16008KT CAVOK 07/04 Q0993,EDDW,2025-01-27T22:20:00Z,53.047,8.787,7,4,160,8,,6+,29.32,,,TRUE,,,,,,,,CAVOK,,,,,,,,VFR,,,,,,,,,,,,METAR,5
EDDV 272220Z AUTO 20010KT CAVOK 10/04 Q0995,EDDV,2025-01-27T22:20:00Z,52.466,9.68,10,4,200,10,,6+,29.38,,,TRUE,,,,,,,,CAVOK,,,,,,,,VFR,,,,,,,,,,,,METAR,53
EDDS 272220Z AUTO 17005KT 140V200 CAVOK 08/03 Q1000,EDDS,2025-01-27T22:20:00Z,48.69,9.222,8,3,170,5,,6+,29.53,,,TRUE,,,,,,,,CAVOK,,,,,,,,VFR,,,,,,,,,,,,METAR,374
EDDR 272220Z AUTO 21009KT 9999 FEW036 08/04 Q0999,EDDR,2025-01-27T22:20:00Z,49.213,7.108,8,4,210,9,,6+,29.50,,,TRUE,,,,,,,,FEW,3600,,,,,,,VFR,,,,,,,,,,,,METAR,317
EDDP 272220Z AUTO 19012KT 9999 SCT039 10/05 Q0999 NOSIG,EDDP,2025-01-27T22:20:00Z,51.435,12.24,10,5,190,12,,6+,29.50,,,TRUE,,,TRUE,,,,,SCT,3900,,,,,,,VFR,,,,,,,,,,,,METAR,129
EDDN 272220Z AUTO 16009KT CAVOK 08/05 Q1002 NOSIG,EDDN,2025-01-27T22:20:00Z,49.503,11.055,8,5,160,9,,6+,29.59,,,TRUE,,,TRUE,,,,,CAVOK,,,,,,,,VFR,,,,,,,,,,,,METAR,312
EDDM 272220Z AUTO 18010KT 9999 -RA FEW030 BKN047 06/05 Q1005 RERA NOSIG,EDDM,2025-01-27T22:20:00Z,48.348,11.813,6,5,180,10,,6+,29.68,,,TRUE,,,TRUE,,,,-RA,FEW,3000,BKN,4700,,,,,VFR,,,,,,,,,,,,METAR,445
EDDL 272220Z AUTO 18012KT CAVOK 08/04 Q0994 NOSIG,EDDL,2025-01-27T22:20:00Z,51.296,6.769,8,4,180,12,,6+,29.35,,,TRUE,,,TRUE,,,,,CAVOK,,,,,,,,VFR,,,,,,,,,,,,METAR,37
EDDK 272220Z AUTO 18010KT CAVOK 08/03 Q0995 NOSIG,EDDK,2025-01-27T22:20:00Z,50.865,7.157,8,3,180,10,,6+,29.38,,,TRUE,,,TRUE,,,,,CAVOK,,,,,,,,VFR,,,,,,,,,,,,METAR,92
EDDH 272220Z AUTO 16008KT CAVOK 07/05 Q0994 NOSIG,EDDH,2025-01-27T22:20:00Z,53.633,9.988,7,5,160,8,,6+,29.35,,,TRUE,,,TRUE,,,,,CAVOK,,,,,,,,VFR,,,,,,,,,,,,METAR,8
EDDG 272220Z AUTO 17009KT 140V210 CAVOK 08/05 Q0993 NOSIG,EDDG,2025-01-27T22:20:00Z,52.135,7.697,8,5,170,9,,6+,29.32,,,TRUE,,,TRUE,,,,,CAVOK,,,,,,,,VFR,,,,,,,,,,,,METAR,46
EDDF 272220Z AUTO 18011KT 9999 SCT038 09/05 Q0998 NOSIG,EDDF,2025-01-27T22:20:00Z,50.045,8.598,9,5,180,11,,6+,29.47,,,TRUE,,,TRUE,,,,,SCT,3800,,,,,,,VFR,,,,,,,,,,,,METAR,113
EDDE 272220Z AUTO 20015KT CAVOK 08/04 Q0998,EDDE,2025-01-27T22:20:00Z,50.983,10.961,8,4,200,15,,6+,29.47,,,TRUE,,,,,,,,CAVOK,,,,,,,,VFR,,,,,,,,,,,,METAR,314
EDDC 272220Z AUTO 15008KT CAVOK 08/04 Q1000,EDDC,2025-01-27T22:20:00Z,51.128,13.7543,8,4,150,8,,6+,29.53,,,TRUE,,,,,,,,CAVOK,,,,,,,,VFR,,,,,,,,,,,,METAR,227
EDDB 272220Z AUTO 16007KT CAVOK 08/05 Q0999 NOSIG,EDDB,2025-01-27T22:20:00Z,52.3807,13.5306,8,5,160,7,,6+,29.50,,,TRUE,,,TRUE,,,,,CAVOK,,,,,,,,VFR,,,,,,,,,,,,METAR,48
CYTS 272220Z 33012G19KT 1 1/2SM R03/4000VP6000FT/U -SN BLSN BKN020 M13/M15 A2921 RMK SN5SC2 VIS VRB 1-3 VIS N-E 9 PRESRR SLP914,CYTS,2025-01-27T22:20:00Z,48.568,-81.378,-13,-15,330,12,19,1.5,29.21,991.4,,,,,,,,,BLSN -SN,BKN,2000,,,,,,,IFR,,,,,,,,,,,,SPECI,290
CYHY 272220Z 31028G33KT 14SM DRSN BKN098 BKN110 BKN240 02/M05 A2934 RMK AC5AC1CI1 SLP947,CYHY,2025-01-27T22:20:00Z,60.839,-115.781,2,-5,310,28,33,14,29.34,994.7,,,,,,,,,DRSN,BKN,9800,BKN,11000,BKN,24000,,,VFR,,,,,,,,,,,,SPECI,159
BGSF 272220Z AUTO 04007KT 9999NDV NCD M27/M30 Q0995,BGSF,2025-01-27T22:20:00Z,67.013,-50.718,-27,-30,40,7,,,29.38,,,TRUE,,,,,,,,CLR,,,,,,,,,,,,,,,,,,,,METAR,75
BGKK 272220Z AUTO 24004KT 170V300 9999NDV NCD M12/M18 Q0993,BGKK,2025-01-27T22:20:00Z,65.575,-37.133,-12,-18,240,4,,,29.32,,,TRUE,,,,,,,,CLR,,,,,,,,,,,,,,,,,,,,METAR,37
BGGH 272220Z VRB02KT 9999 BKN088 BKN180 M06/M17 Q0990,BGGH,2025-01-27T22:20:00Z,64.191,-51.677,-6,-17,VRB,2,,6+,29.23,,,,,,,,,,,BKN,8800,BKN,18000,,,,,VFR,,,,,,,,,,,,METAR,76
BGBW 272220Z AUTO 00000KT 9999NDV BKN130/// M15/M21 Q0994,BGBW,2025-01-27T22:20:00Z,61.164,-45.42,-15,-21,0,0,,,29.35,,,TRUE,,,,,,,,BKN,13000,,,,,,,,,,,,,,,,,,,METAR,49
PAPG 272219Z 26003KT 1 3/4SM -RA BR SCT004 OVC021 01/01 A3040 RMK AO2 P0000,PAPG,2025-01-27T22:19:00Z,56.805,-132.935,1,1,260,3,,1.75,30.40,,,,TRUE,,,,,,-RA BR,SCT,400,OVC,2100,,,,,IFR,,,,,,0.005,,,,,,SPECI,24
PAOM 272219Z 30014KT 7SM BKN032 OVC049 M19/M22 A2970 RMK AO2 T11891222 $,PAOM,2025-01-27T22:19:00Z,64.5111,-165.44,-18.9,-22.2,300,14,,7,29.70,,,,TRUE,TRUE,,,,,,BKN,3200,OVC,4900,,,,,VFR,,,,,,,,,,,,SPECI,6
NZWD 272219Z 07006KT 4800 BR FEW000 SCT001 BKN120 M15/M16 A2941 RMK AO2A VIS GRID NE-E 0800 FG FEW000 GRID24006KT SDF/HDF HDP GRID NE-E,NZWD,2025-01-27T22:19:00Z,-77.867,166.967,-15,-16,70,6,,2.98,29.41,,,,TRUE,,,,,,BR,FEW,0,SCT,100,BKN,12000,,,IFR,,,,,,,,,,,,METAR,21
KMBL 272219Z AUTO 25016G22KT 3/4SM -SN BR BKN008 OVC015 01/M01 A2949 RMK AO2 PK WND 23027/2200 CIG 006V012 P0000 FZRANO,KMBL,2025-01-27T22:19:00Z,44.2714,-86.2377,1,-1,250,16,22,0.75,29.49,,,TRUE,TRUE,,,,TRUE,,-SN BR,BKN,800,OVC,1500,,,,,LIFR,,,,,,0.005,,,,,,SPECI,187
KLCH 272219Z 02008KT 10SM BKN014 OVC060 14/11 A3016 RMK AO2 T01390106,KLCH,2025-01-27T22:19:00Z,30.1255,-93.2277,13.9,10.6,20,8,,10+,30.16,,,,TRUE,,,,,,,BKN,1400,OVC,6000,,,,,MVFR,,,,,,,,,,,,SPECI,2
KISW 272219Z AUTO 27013G19KT 10SM SCT024 BKN095 01/M04 A2959 RMK AO2 T00061039,KISW,2025-01-27T22:19:00Z,44.3591,-89.837,0.6,-3.9,270,13,19,10+,29.59,,,TRUE,TRUE,,,,,,,SCT,2400,BKN,9500,,,,,VFR,,,,,,,,,,,,SPECI,311
KGZH 272219Z AUTO 00000KT 7SM SCT008 BKN011 OVC020 15/14 A3009 RMK AO2 T01500139,KGZH,2025-01-27T22:19:00Z,31.4191,-87.0484,15,13.9,0,0,,7,30.09,,,TRUE,TRUE,,,,,,,SCT,800,BKN,1100,OVC,2000,,,MVFR,,,,,,,,,,,,SPECI,77
KCMX 272219Z AUTO 34017G28KT 1 3/4SM -SN BKN030 OVC038 M04/M09 A2944 RMK AO2 PK WND 35031/2206 VIS 1V5 P0000 T10391094 $,KCMX,2025-01-27T22:19:00Z,47.1705,-88.4854,-3.9,-9.4,340,17,28,1.75,29.44,,,TRUE,TRUE,TRUE,,,,,-SN,BKN,3000,OVC,3800,,,,,IFR,,,,,,0.005,,,,,,SPECI,326
K2V6 272219Z AUTO 29009KT 10SM CLR 09/M08 A3004 RMK AO2,K2V6,2025-01-27T22:19:00Z,40.1047,-102.713,9,-8,290,9,,10+,30.04,,,TRUE,TRUE,,,,,,,CLR,,,,,,,,VFR,,,,,,,,,,,,METAR,1257
CYPR 272219Z AUTO 20003KT 140V240 9SM -RA BKN006 OVC014 02/01 A3044 RMK SLP311,CYPR,2025-01-27T22:19:00Z,54.291,-130.451,2,1,200,3,,9,30.44,1031.1,,TRUE,,,,,,,-RA,BKN,600,OVC,1400,,,,,IFR,,,,,,,,,,,,SPECI,30
CYPL 272219Z AUTO 31006G16KT 270V010 9SM BKN039 M16/M21 A2955 RMK SLP047,CYPL,2025-01-27T22:19:00Z,51.449,-90.218,-16,-21,310,6,16,9,29.55,1004.7,,TRUE,,,,,,,,BKN,3900,,,,,,,VFR,,,,,,,,,,,,SPECI,390
CYNM 272219Z AUTO 30022G30KT 1 3/4SM -SN BLSN FEW026 SCT032 BKN041 M16/M21 A2902 RMK VIS VRB 1/2-3 SLP855,CYNM,2025-01-27T22:19:00Z,49.759,-77.793,-16,-21,300,22,30,1.75,29.02,985.5,,TRUE,,,,,,,-SN BLSN,FEW,2600,SCT,3200,BKN,4100,,,IFR,,,,,,,,,,,,SPECI,276
CYCO 272219Z 21004KT 10SM FEW020 BKN140 OVC260 M26/M29 A2980 RMK SC2AS5CS1 SLP097,CYCO,2025-01-27T22:19:00Z,67.817,-115.135,-26,-29,210,4,,10+,29.80,1009.7,,,,,,,,,,FEW,2000,BKN,14000,OVC,26000,,,VFR,,,,,,,,,,,,SPECI,20
YBCS 272218Z AUTO 17006KT 6000 +RA ////// 25/24 Q1008,YBCS,2025-01-27T22:18:00Z,-16.874,145.745,25,24,170,6,,3.73,29.76,,,TRUE,,,,,,,+RA,,,,,,,,,MVFR,,,,,,,,,,,,SPECI,2
PANN 272218Z AUTO 24008KT 3/4SM -SN BR FEW010 OVC020 M02/M04 A2957 RMK AO2 P0001 T10221039 TSNO,PANN,2025-01-27T22:18:00Z,64.547,-149.087,-2.2,-3.9,240,8,,0.75,29.57,,,TRUE,TRUE,,,TRUE,,,-SN BR,FEW,1000,OVC,2000,,,,,LIFR,,,,,,0.01,,,,,,SPECI,110
OMAL 272218Z 01007KT 0500 R01/1300D FG VV001 17/16 Q1015 TEMPO 0150 FG VV///,OMAL,2025-01-27T22:18:00Z,24.262,55.609,17,16,10,7,,0.31,29.97,,,,,,,,,,FG,OVX,0,,,,,,,LIFR,,,,,,,,,,,100,SPECI,247
KLOR 272218Z AUTO 00000KT 5SM -RA BR FEW003 SCT007 OVC016 14/14 A3007 RMK AO2 RAE16RAB18 CIG 012V018 SLP167,KLOR,2025-01-27T22:18:00Z,31.36,-85.749,14,14,0,0,,5,30.07,1016.7,,TRUE,TRUE,,,,,,-RA BR,FEW,300,SCT,700,OVC,1600,,,MVFR,,,,,,,,,,,,SPECI,92
KHEY 272218Z AUTO 00000KT 4SM RA BR FEW003 SCT008 BKN013 OVC020 14/14 A3003 RMK AO2 RAE06RAB09 CIG 006V013 SLP171,KHEY,2025-01-27T22:18:00Z,31.348,-85.655,14,14,0,0,,4,30.03,1017.1,,TRUE,TRUE,,,,,,RA BR,FEW,300,SCT,800,BKN,1300,OVC,2000,MVFR,,,,,,,,,,,,SPECI,95
KAEX 272218Z 02006KT 10SM OVC015 11/08 A3018 RMK AO2 T01060078,KAEX,2025-01-27T22:18:00Z,31.3346,-92.5585,10.6,7.8,20,6,,10+,30.18,,,,TRUE,,,,,,,OVC,1500,,,,,,,MVFR,,,,,,,,,,,,SPECI,25
CYYU 272218Z 33014G25KT 15SM DRSN FEW032 M16/M21 A2929 RMK SC2 PRESRR SLP938,CYYU,2025-01-27T22:18:00Z,49.416,-82.47,-16,-21,330,14,25,15,29.29,993.8,,,,,,,,,DRSN,FEW,3200,,,,,,,VFR,,,,,,,,,,,,SPECI,228
CYAW 272218Z 22015G25KT 15SM SCT050 01/M05 A2964 RMK SC3 DENSITY ALT -1186FT SLP041,CYAW,2025-01-27T22:18:00Z,44.636,-63.507,1,-5,220,15,25,15,29.64,1004.1,,,,,,,,,,SCT,5000,,,,,,,VFR,,,,,,,,,,,,SPECI,50
PASA 272217Z AUTO 33015KT 1 3/4SM -SN SCT025 BKN032 M22/M25 A3005 RMK AO2 VIS 1 1/4V4 P0000 FZRANO,PASA,2025-01-27T22:17:00Z,63.689,-170.49,-22,-25,330,15,,1.75,30.05,,,TRUE,TRUE,,,,TRUE,,-SN,SCT,2500,BKN,3200,,,,,IFR,,,,,,0.005,,,,,,SPECI,9
PAMO 272217Z AUTO 1 3/4SM -SN BR OVC020 M20/M22 A2990 RMK AO2 P0000 FZRANO $,PAMO,2025-01-27T22:17:00Z,62.095,-163.686,-20,-22,,,,1.75,29.90,,,TRUE,TRUE,TRUE,,,TRUE,,-SN BR,OVC,2000,,,,,,,IFR,,,,,,0.005,,,,,,SPECI,93
MMRX 272217Z 02009KT 3SM BR BKN003 OVC004 15/15 A3007 RMK 8/5// OCNL DROPS DZE15,MMRX,2025-01-27T22:17:00Z,26.01,-98.232,15,15,20,9,,3,30.07,,,,,,,,,,BR,BKN,300,OVC,400,,,,,LIFR,,,,,,,,,,,,METAR,45
KVIS 272217Z AUTO VRB04KT 10SM BKN024 12/05 A3016 RMK AO2 $,KVIS,2025-01-27T22:17:00Z,36.3135,-119.388,12,5,VRB,4,,10+,30.16,,,TRUE,TRUE,TRUE,,,,,,BKN,2400,,,,,,,MVFR,,,,,,,,,,,,SPECI,92
KFLG 272217Z 22010KT 1SM -SN BR BKN009 OVC012 M02/M03 A2998 RMK AO2 P0001 T10171033,KFLG,2025-01-27T22:17:00Z,35.1443,-111.666,-1.7,-3.3,220,10,,1,29.98,,,,TRUE,,,,,,-SN BR,BKN,900,OVC,1200,,,,,IFR,,,,,,0.01,,,,,,SPECI,2134
KBTR 272217Z 35007KT 10SM SCT015 15/11 A3015 RMK AO2 T01500106,KBTR,2025-01-27T22:17:00Z,30.5378,-91.1468,15,10.6,350,7,,10+,30.15,,,,TRUE,,,,,,,SCT,1500,,,,,,,VFR,,,,,,,,,,,,SPECI,20
K1DN 272217Z AUTO 28015KT 10SM CLR M01/M04 A2984 RMK AO2 WSHFT 14 SLP138 $,K1DN,2025-01-27T22:17:00Z,47.8,-101.3,-1,-4,280,15,,10+,29.84,1013.8,,TRUE,TRUE,TRUE,,,,,,CLR,,,,,,,,VFR,,,,,,,,,,,,SPECI,632
GMAD 272217Z 16006KT 8000 BKN010 15/14 Q1027 NOSIG,GMAD,2025-01-27T22:17:00Z,30.325,-9.413,15,14,160,6,,4.97,30.32,,,,,,TRUE,,,,,BKN,1000,,,,,,,MVFR,,,,,,,,,,,,SPECI,66
CYQA 272217Z AUTO 22013G22KT 4SM -SN OVC028 M02/M07 A2929 RMK SLP933,CYQA,2025-01-27T22:17:00Z,44.971,-79.303,-2,-7,220,13,22,4,29.29,993.3,,TRUE,,,,,,,-SN,OVC,2800,,,,,,,MVFR,,,,,,,,,,,,SPECI,277
KSLH 272216Z AUTO 25013G18KT 3SM -SN SCT012 BKN019 OVC050 00/M01 A2932 RMK AO2,KSLH,2025-01-27T22:16:00Z,45.6523,-84.5202,0,-1,250,13,18,3,29.32,,,TRUE,TRUE,,,,,,-SN,SCT,1200,BKN,1900,OVC,5000,,,MVFR,,,,,,,,,,,,METAR,193
KOVL 272216Z AUTO 30007G20KT 10SM CLR 03/M05 A2975 RMK AO2,KOVL,2025-01-27T22:16:00Z,44.7792,-95.0304,3,-5,300,7,20,10+,29.75,,,TRUE,TRUE,,,,,,,CLR,,,,,,,,VFR,,,,,,,,,,,,METAR,329
KOCH 272216Z AUTO 00000KT 10SM SCT014 11/08 A3020 RMK AO2,KOCH,2025-01-27T22:16:00Z,31.5809,-94.7081,11,8,0,0,,10+,30.20,,,TRUE,TRUE,,,,,,,SCT,1400,,,,,,,VFR,,,,,,,,,,,,SPECI,105
KMRH 272216Z AUTO 23011KT 5SM BR FEW005 BKN023 OVC065 09/08 A3003 RMK AO2 I1000 T00890078,KMRH,2025-01-27T22:16:00Z,34.7326,-76.6566,8.9,7.8,230,11,,5,30.03,,,TRUE,TRUE,,,,,,BR,FEW,500,BKN,2300,OVC,6500,,,MVFR,,,,,,,,,,,,SPECI,2
KI69 272216Z AUTO 24013G21KT 10SM CLR 02/M11 A2996 RMK AO1 T00221113,KI69,2025-01-27T22:16:00Z,39.078,-84.21,2.2,-11.3,240,13,21,10+,29.96,,,TRUE,TRUE,,,,,,,CLR,,,,,,,,VFR,,,,,,,,,,,,METAR,238
KHTL 272216Z AUTO 25019G31KT 3/4SM -SN BR M02/M03 A2939 RMK AO2 PK WND 23035/2155 P0000 T10171033 $,KHTL,2025-01-27T22:16:00Z,44.359,-84.6739,-1.7,-3.3,250,19,31,0.75,29.39,,,TRUE,TRUE,TRUE,,,,,-SN BR,,,,,,,,,LIFR,,,,,,0.005,,,,,,SPECI,350
K40B 272216Z AUTO 20015G24KT 170V280 M02/M06 A2920 RMK AO1 PK WND 20029/2155 WSHFT 2155 SLP913 T10191064 56036,K40B,2025-01-27T22:16:00Z,46.616,-69.533,-1.9,-6.4,200,15,24,,29.20,991.3,,TRUE,TRUE,,,,,,,,,,,,,,,,-0.36,,,,,,,,,,,METAR,344
CYSB 272216Z 25013G21KT 3SM -SN DRSN OVC011 M03/M05 A2911 RMK SC8 SLP877,CYSB,2025-01-27T22:16:00Z,46.622,-80.799,-3,-5,250,13,21,3,29.11,987.7,,,,,,,,,-SN DRSN,OVC,1100,,,,,,,MVFR,,,,,,,,,,,,SPECI,349
RKSG 272215Z 28012KT 1SM R32/4000VP6000FT -SN BR OVC012 M02/M04 A2995 RMK AO2A VIS 1V2 1/2 OVC V BKN SLP146 $,RKSG,2025-01-27T22:15:00Z,36.962,127.031,-2,-4,280,12,,1,29.95,1014.6,,,TRUE,TRUE,,,,,-SN BR,OVC,1200,,,,,,,IFR,,,,,,,,,,,,SPECI,12
PHSF 272215Z AUTO 27011G17KT 10SM SCT019 BKN028 BKN037 17/11 A3031 RMK AO2 CIG 028V037 BKN028 V SCT SLP159 $,PHSF,2025-01-27T22:15:00Z,19.758,-155.557,17,11,270,11,17,10+,30.31,1015.9,,TRUE,TRUE,TRUE,,,,,,SCT,1900,BKN,2800,BKN,3700,,,MVFR,,,,,,,,,,,,SPECI,1863
PHHI 272215Z AUTO 02008G18KT 10SM SCT020 BKN034 BKN041 OVC070 23/19 A3005 RMK AO2 SLP167 $,PHHI,2025-01-27T22:15:00Z,21.478,-158.044,23,19,20,8,18,10+,30.05,1016.7,,TRUE,TRUE,TRUE,,,,,,SCT,2000,BKN,3400,BKN,4100,OVC,7000,VFR,,,,,,,,,,,,SPECI,246
PASD 272215Z 27006KT 10SM FEW025 SCT043 BKN080 M02/M06 A3012 RMK AO2 SNE03 P0000 $,PASD,2025-01-27T22:15:00Z,55.318,-160.525,-2,-6,270,6,,10+,30.12,,,,TRUE,TRUE,,,,,,FEW,2500,SCT,4300,BKN,8000,,,VFR,,,,,,0.005,,,,,,SPECI,6
PAKX 272215Z AUTO 22007KT 10SM M07/M12 A2995 RMK AO2,PAKX,2025-01-27T22:15:00Z,60.198,-154.323,-7,-12,220,7,,10+,29.95,,,TRUE,TRUE,,,,,,,,,,,,,,,VFR,,,,,,,,,,,,METAR,88
PAAD 272215Z AUTO 10009KT 10SM OVC018 M19/M22 A2963 RMK AO2 T11951221,PAAD,2025-01-27T22:15:00Z,70.136,-146.29,-19.5,-22.1,100,9,,10+,29.63,,,TRUE,TRUE,,,,,,,OVC,1800,,,,,,,MVFR,,,,,,,,,,,,METAR,8
NFNA 272215Z 08010KT 9999 -RA SCT016 SCT040 BKN100 24/24 Q1011,NFNA,2025-01-27T22:15:00Z,-18.043,178.559,24,24,80,10,,6+,29.85,,,,,,,,,,-RA,SCT,1600,SCT,4000,BKN,10000,,,VFR,,,,,,,,,,,,SPECI,6
LMML 272215Z 20006KT 160V230 CAVOK 15/14 Q1022 NOSIG,LMML,2025-01-27T22:15:00Z,35.858,14.477,15,14,200,6,,6+,30.18,,,,,,TRUE,,,,,CAVOK,,,,,,,,VFR,,,,,,,,,,,,METAR,78
LHSN 272215Z 17008KT CAVOK 08/05 Q1010 NOSIG RMK BLU,LHSN,2025-01-27T22:15:00Z,47.123,20.235,8,5,170,8,,6+,29.82,,,,,,TRUE,,,,,CAVOK,,,,,,,,VFR,,,,,,,,,,,,METAR,89
LHKE 272215Z 18005KT CAVOK 07/04 Q1011 NOSIG RMK BLU,LHKE,2025-01-27T22:15:00Z,46.917,19.749,7,4,180,5,,6+,29.85,,,,,,TRUE,,,,,CAVOK,,,,,,,,VFR,,,,,,,,,,,,METAR,113
KZPH 272215Z AUTO 29011KT 10SM CLR 21/11 A3014 RMK A02 T02070108,KZPH,2025-01-27T22:15:00Z,28.2268,-82.1564,20.7,10.8,290,11,,10+,30.14,,,TRUE,TRUE,,,,,,,CLR,,,,,,,,VFR,,,,,,,,,,,,METAR,26
KZER 272215Z AUTO 21008KT 10SM CLR 00/M13 A2974 RMK AO2,KZER,2025-01-27T22:15:00Z,40.7072,-76.371,0,-13,210,8,,10+,29.74,,,TRUE,TRUE,,,,,,,CLR,,,,,,,,VFR,,,,,,,,,,,,METAR,518
KY70 272215Z AUTO 24023G28KT 10SM FEW070 SCT100 00/M08 A2958 RMK AO2 PK WND 24031/16,KY70,2025-01-27T22:15:00Z,42.9398,-85.0653,0,-8,240,23,28,10+,29.58,,,TRUE,TRUE,,,,,,,FEW,7000,SCT,10000,,,,,VFR,,,,,,,,,,,,METAR,247
KY63 272215Z AUTO 32011KT 10SM CLR 01/M03 A2977 RMK AO2 T00081031,KY63,2025-01-27T22:15:00Z,45.9891,-95.9946,0.8,-3.1,320,11,,10+,29.77,,,TRUE,TRUE,,,,,,,CLR,,,,,,,,VFR,,,,,,,,,,,,METAR,367
KY50 272215Z AUTO 26017G28KT 10SM BKN026 OVC031 RMK AO2 PK WND 25029/2159 RAE12 P0000 FZRANO $,KY50,2025-01-27T22:15:00Z,44.0435,-89.304,,,260,17,28,10+,0.00,,,TRUE,TRUE,TRUE,,,TRUE,,,BKN,2600,OVC,3100,,,,,MVFR,,,,,,0.005,,,,,,SPECI,261
KY49 272215Z AUTO 32015G21KT 10SM BKN033 OVC038 00/M06 A2969 RMK AO2 T10011060,KY49,2025-01-27T22:15:00Z,47.1599,-94.6433,-0.1,-6,320,15,21,10+,29.69,,,TRUE,TRUE,,,,,,,BKN,3300,OVC,3800,,,,,VFR,,,,,,,,,,,,METAR,413
KY31 272215Z AUTO 25026G36KT 7SM BKN033 OVC042 01/M06 A2939 RMK AO2 T00061060,KY31,2025-01-27T22:15:00Z,44.2434,-84.18,0.6,-6,250,26,36,7,29.39,,,TRUE,TRUE,,,,,,,BKN,3300,OVC,4200,,,,,VFR,,,,,,,,,,,,METAR,264
KY23 272215Z AUTO 29006KT 10SM CLR 01/M06 A2963 RMK AO2 T00051063,KY23,2025-01-27T22:15:00Z,45.311,-91.638,0.5,-6.3,290,6,,10+,29.63,,,TRUE,TRUE,,,,,,,CLR,,,,,,,,VFR,,,,,,,,,,,,METAR,322
KY19 272215Z AUTO 31011G16KT 10SM CLR 03/M03 A2990 RMK AO2,KY19,2025-01-27T22:15:00Z,46.7648,-100.894,3,-3,310,11,16,10+,29.90,,,TRUE,TRUE,,,,,,,CLR,,,,,,,,VFR,,,,,,,,,,,,METAR,591
KXSA 272215Z AUTO 24006KT 10SM CLR 11/M04 A2989 RMK AO2 T01051040,KXSA,2025-01-27T22:15:00Z,37.8606,-76.9016,10.5,-4,240,6,,10+,29.89,,,TRUE,TRUE,,,,,,,CLR,,,,,,,,VFR,,,,,,,,,,,,METAR,41
KXNX 272215Z AUTO 00000KT 10SM CLR 08/M11 A3010 RMK A01,KXNX,2025-01-27T22:15:00Z,36.3745,-86.41,8,-11,0,0,,10+,30.10,,,TRUE,TRUE,,,,,,,CLR,,,,,,,,VFR,,,,,,,,,,,,METAR,178
KX60 272215Z AUTO 25008KT 10SM CLR 19/11 A3013 RMK AO2 T01880113,KX60,2025-01-27T22:15:00Z,29.3524,-82.4743,18.8,11.3,250,8,,10+,30.13,,,TRUE,TRUE,,,,,,,CLR,,,,,,,,VFR,,,,,,,,,,,,METAR,21
KX26 272215Z AUTO 10004KT 10SM CLR 19/14 A3012 RMK AO2 T01930135,KX26,2025-01-27T22:15:00Z,27.813,-80.497,19.3,13.5,100,4,,10+,30.12,,,TRUE,TRUE,,,,,,,CLR,,,,,,,,VFR,,,,,,,,,,,,METAR,5
KX21 272215Z AUTO 13007KT 10SM BKN050 21/12 A3010 RMK AO2,KX21,2025-01-27T22:15:00Z,28.6195,-80.835,21,12,130,7,,10+,30.10,,,TRUE,TRUE,,,,,,,BKN,5000,,,,,,,VFR,,,,,,,,,,,,METAR,9
KWWR 272215Z AUTO 21012KT 10SM CLR 11/M06 A3012 RMK AO2,KWWR,2025-01-27T22:15:00Z,36.4374,-99.5234,11,-6,210,12,,10+,30.12,,,TRUE,TRUE,,,,,,,CLR,,,,,,,,VFR,,,,,,,,,,,,METAR,664
KWDR 272215Z AUTO 00000KT 1 1/2SM BR OVC004 08/08 A3004 RMK AO2,KWDR,2025-01-27T22:15:00Z,33.981,-83.667,8,8,0,0,,1.5,30.04,,,TRUE,TRUE,,,,,,BR,OVC,400,,,,,,,LIFR,,,,,,,,,,,,METAR,280
KW99 272215Z AUTO VRB06KT 9SM CLR 07/M15 A2985 RMK AO2 T00661152 $,KW99,2025-01-27T22:15:00Z,38.9947,-79.1421,6.6,-15.2,VRB,6,,9,29.85,,,TRUE,TRUE,TRUE,,,,,,CLR,,,,,,,,VFR,,,,,,,,,,,,METAR,288
KW96 272215Z AUTO 24005KT 10SM CLR 12/M01 A2989 RMK AO1 T01201015,KW96,2025-01-27T22:15:00Z,37.5027,-77.126,12,-1.5,240,5,,10+,29.89,,,TRUE,TRUE,,,,,,,CLR,,,,,,,,VFR,,,,,,,,,,,,METAR,35
KW81 272215Z AUTO 24003KT 10SM CLR 11/M03 A2990 RMK AO1 T01061026,KW81,2025-01-27T22:15:00Z,37.1813,-78.0977,10.6,-2.6,240,3,,10+,29.90,,,TRUE,TRUE,,,,,,,CLR,,,,,,,,VFR,,,,,,,,,,,,METAR,121
KW78 272215Z AUTO 21003KT 10SM SCT090 09/M01 A2992 RMK AO1 T00921010,KW78,2025-01-27T22:15:00Z,36.7087,-78.846,9.2,-1,210,3,,10+,29.92,,,TRUE,TRUE,,,,,,,SCT,9000,,,,,,,VFR,,,,,,,,,,,,METAR,120
KW63 272215Z AUTO 18004KT 10SM OVC090 10/00 A2992 RMK AO1,KW63,2025-01-27T22:15:00Z,36.6008,-78.5559,10,0,180,4,,10+,29.92,,,TRUE,TRUE,,,,,,,OVC,9000,,,,,,,VFR,,,,,,,,,,,,METAR,126
KW31 272215Z AUTO 22004KT 10SM BKN065 12/01 A2990 RMK AO1 T01150008,KW31,2025-01-27T22:15:00Z,36.9599,-78.1838,11.5,0.8,220,4,,10+,29.90,,,TRUE,TRUE,,,,,,,BKN,6500,,,,,,,VFR,,,,,,,,,,,,METAR,159
KW22 272215Z AUTO 24008KT CLR 03/M12 A2988 RMK AO2,KW22,2025-01-27T22:15:00Z,39.001,-80.2712,3,-12,240,8,,,29.88,,,TRUE,TRUE,,,,,,,CLR,,,,,,,,,,,,,,,,,,,,METAR,497
KW13 272215Z AUTO 23006KT 10SM CLR 07/M08 A2987 RMK AO1 T00651085,KW13,2025-01-27T22:15:00Z,38.077,-78.944,6.5,-8.5,230,6,,10+,29.87,,,TRUE,TRUE,,,,,,,CLR,,,,,,,,VFR,,,,,,,,,,,,METAR,440
KVYS 272215Z AUTO 24016G24KT 10SM CLR 07/M09 A2978 RMK AO2 T00651088,KVYS,2025-01-27T22:15:00Z,41.3517,-89.1496,6.5,-8.8,240,16,24,10+,29.78,,,TRUE,TRUE,,,,,,,CLR,,,,,,,,VFR,,,,,,,,,,,,METAR,198
KVVV 272215Z AUTO 32010G17KT 10SM CLR 03/M03 A2979 RMK AO2,KVVV,2025-01-27T22:15:00Z,45.2994,-96.4256,3,-3,320,10,17,10+,29.79,,,TRUE,TRUE,,,,,,,CLR,,,,,,,,VFR,,,,,,,,,,,,METAR,334
KVVS 272215Z AUTO 24009G17KT 10SM CLR 02/M12 A2984 RMK AO2 T00211122,KVVS,2025-01-27T22:15:00Z,39.9581,-79.6575,2.1,-12.2,240,9,17,10+,29.84,,,TRUE,TRUE,,,,,,,CLR,,,,,,,,VFR,,,,,,,,,,,,METAR,386
KVTP 272215Z AUTO 26006KT 10SM CLR 00/M16 A3018 RMK AO2,KVTP,2025-01-27T22:15:00Z,37.512,-105.171,0,-16,260,6,,10+,30.18,,,TRUE,TRUE,,,,,,,CLR,,,,,,,,VFR,,,,,,,,,,,,METAR,3086
KVTI 272215Z AUTO 26014G19KT 10SM SCT080 OVC090 08/M12 A2976 RMK AO2 T00801123,KVTI,2025-01-27T22:15:00Z,42.2176,-92.0248,8,-12.3,260,14,19,10+,29.76,,,TRUE,TRUE,,,,,,,SCT,8000,OVC,9000,,,,,VFR,,,,,,,,,,,,METAR,256
KVPC 272215Z AUTO 28004KT 09/08 A3007 RMK AO2 PWINO,KVPC,2025-01-27T22:15:00Z,34.1158,-84.8507,9,8,280,4,,,30.07,,,TRUE,TRUE,,,,,TRUE,,,,,,,,,,,,,,,,,,,,,,METAR,234
KVNW 272215Z AUTO 25018G29KT 10SM CLR 01/M07 A2980 RMK AO2,KVNW,2025-01-27T22:15:00Z,40.8633,-84.613,1,-7,250,18,29,10+,29.80,,,TRUE,TRUE,,,,,,,CLR,,,,,,,,VFR,,,,,,,,,,,,METAR,238
KVNC 272215Z AUTO 34007KT 10SM CLR A3013 RMK AO2,KVNC,2025-01-27T22:15:00Z,27.0728,-82.44,,,340,7,,10+,30.13,,,TRUE,TRUE,,,,,,,CLR,,,,,,,,VFR,,,,,,,,,,,,METAR,4
KVMR 272215Z AUTO 32018KT 10SM CLR 09/M10 A2984 RMK AO2,KVMR,2025-01-27T22:15:00Z,42.765,-96.93,9,-10,320,18,,10+,29.84,,,TRUE,TRUE,,,,,,,CLR,,,,,,,,VFR,,,,,,,,,,,,METAR,349
KVLL 272215Z AUTO 24013G27KT 10SM CLR 02/M10 A2959 RMK AO2 PK WND 22028/00,KVLL,2025-01-27T22:15:00Z,42.543,-83.178,2,-10,240,13,27,10+,29.59,,,TRUE,TRUE,,,,,,,CLR,,,,,,,,VFR,,,,,,,,,,,,METAR,214
KVKS 272215Z AUTO 36009KT 10SM OVC017 10/08 A3018 RMK A01,KVKS,2025-01-27T22:15:00Z,32.2359,-90.9269,10,8,360,9,,10+,30.18,,,TRUE,TRUE,,,,,,,OVC,1700,,,,,,,MVFR,,,,,,,,,,,,METAR,31
KVJI 272215Z AUTO 27006KT 10SM OVC009 05/04 A2998 RMK AO2 T00470040,KVJI,2025-01-27T22:15:00Z,36.6871,-82.037,4.7,4,270,6,,10+,29.98,,,TRUE,TRUE,,,,,,,OVC,900,,,,,,,IFR,,,,,,,,,,,,METAR,636
KVHN 272215Z AUTO 09007KT 10SM CLR 12/M04 A3011 RMK AO2 T01241045,KVHN,2025-01-27T22:15:00Z,31.0602,-104.783,12.4,-4.5,90,7,,10+,30.11,,,TRUE,TRUE,,,,,,,CLR,,,,,,,,VFR,,,,,,,,,,,,METAR,1200
KVGC 272215Z AUTO 19009G19KT 160V220 10SM 00/M15 A2956 RMK AO2,KVGC,2025-01-27T22:15:00Z,42.8444,-75.5637,0,-15,190,9,19,10+,29.56,,,TRUE,TRUE,,,,,,,,,,,,,,,VFR,,,,,,,,,,,,METAR,346
KVER 272215Z AUTO 23012G16KT 10SM CLR 07/M03 A3003 RMK AO2 T00721035,KVER,2025-01-27T22:15:00Z,38.9496,-92.6842,7.2,-3.5,230,12,16,10+,30.03,,,TRUE,TRUE,,,,,,,CLR,,,,,,,,VFR,,,,,,,,,,,,METAR,209
KVDI 272215Z AUTO 22006KT 10SM SCT042 BKN050 OVC085 12/11 A3007 RMK AO2,KVDI,2025-01-27T22:15:00Z,32.1933,-82.3642,12,11,220,6,,10+,30.07,,,TRUE,TRUE,,,,,,,SCT,4200,BKN,5000,OVC,8500,,,VFR,,,,,,,,,,,,METAR,81
KVDF 272215Z AUTO 30006KT 10SM CLR 21/12 A3013 RMK AO2,KVDF,2025-01-27T22:15:00Z,28.0198,-82.3415,21,12,300,6,,10+,30.13,,,TRUE,TRUE,,,,,,,CLR,,,,,,,,VFR,,,,,,,,,,,,METAR,5
KVBW 272215Z AUTO 20005KT 10SM CLR 05/M06 A2985 RMK AO1 T00501061,KVBW,2025-01-27T22:15:00Z,38.366,-78.968,5,-6.1,200,5,,10+,29.85,,,TRUE,TRUE,,,,,,,CLR,,,,,,,,VFR,,,,,,,,,,,,METAR,362
KVAF 272215Z 00000KT 4SM HZ CLR 21/18 A3009 RMK A01 WINDS UN-RELIABLE 350 TO 45 DEGREES,KVAF,2025-01-27T22:15:00Z,27.3536,-94.6253,21,18,0,0,,4,30.09,,,,TRUE,,,,,,HZ,CLR,,,,,,,,MVFR,,,,,,,,,,,,METAR,38
KUYF 272215Z AUTO 23009KT 10SM CLR M01/M11 A2989 RMK AO2,KUYF,2025-01-27T22:15:00Z,39.9312,-83.465,-1,-11,230,9,,10+,29.89,,,TRUE,TRUE,,,,,,,CLR,,,,,,,,VFR,,,,,,,,,,,,METAR,326
KUWL 272215Z AUTO 23013G19KT 10SM CLR M00/M09 A2989 RMK A01,KUWL,2025-01-27T22:15:00Z,39.8752,-85.3313,0,-9,230,13,19,10+,29.89,,,TRUE,TRUE,,,,,,,CLR,,,,,,,,VFR,,,,,,,,,,,,METAR,332
KUVA 272215Z AUTO 01004KT 10SM OVC018 10/10 A3019 RMK AO2 T00990099,KUVA,2025-01-27T22:15:00Z,29.2135,-99.743,9.9,9.9,10,4,,10+,30.19,,,TRUE,TRUE,,,,,,,OVC,1800,,,,,,,MVFR,,,,,,,,,,,,METAR,285
KUUV 272215Z AUTO 26013KT 10SM CLR 07/M06 A3005 RMK AO2,KUUV,2025-01-27T22:15:00Z,38.2335,-91.1609,7,-6,260,13,,10+,30.05,,,TRUE,TRUE,,,,,,,CLR,,,,,,,,VFR,,,,,,,,,,,,METAR,284
KUTA 272215Z AUTO 00000KT 8SM CLR 10/M04 A3018 RMK AO2 T00971036 $,KUTA,2025-01-27T22:15:00Z,34.6766,-90.344,9.7,-3.6,0,0,,8,30.18,,,TRUE,TRUE,TRUE,,,,,,CLR,,,,,,,,VFR,,,,,,,,,,,,METAR,58
KUSE 272215Z AUTO 23018G26KT 10SM CLR 03/M09 A2969 RMK AO2,KUSE,2025-01-27T22:15:00Z,41.6118,-84.1275,3,-9,230,18,26,10+,29.69,,,TRUE,TRUE,,,,,,,CLR,,,,,,,,VFR,,,,,,,,,,,,METAR,237
KUOX 272215Z AUTO 28008KT 10SM CLR 10/M05 A3017 RMK AO2 PWINO,KUOX,2025-01-27T22:15:00Z,34.3851,-89.5435,10,-5,280,8,,10+,30.17,,,TRUE,TRUE,,,,,TRUE,,CLR,,,,,,,,VFR,,,,,,,,,,,,METAR,123
KUNU 272215Z AUTO 25021G31KT 10SM BKN050 BKN065 OVC075 05/M13 A2959 RMK AO2 T00451130,KUNU,2025-01-27T22:15:00Z,43.4285,-88.7017,4.5,-13,250,21,31,10+,29.59,,,TRUE,TRUE,,,,,,,BKN,5000,BKN,6500,OVC,7500,,,VFR,,,,,,,,,,,,METAR,281
KUNI 272215Z AUTO 24007KT 10SM CLR 03/M11 A2994 RMK AO2 T00301111 TSNO,KUNI,2025-01-27T22:15:00Z,39.2129,-82.2204,3,-11.1,240,7,,10+,29.94,,,TRUE,TRUE,,,TRUE,,,,CLR,,,,,,,,VFR,,,,,,,,,,,,METAR,232
KUMP 272215Z AUTO 23009G19KT 10SM CLR 02/M09 A2991 RMK AO2 T00181088 $,KUMP,2025-01-27T22:15:00Z,39.936,-86.0478,1.8,-8.8,230,9,19,10+,29.91,,,TRUE,TRUE,TRUE,,,,,,CLR,,,,,,,,VFR,,,,,,,,,,,,METAR,247
KULS 272215Z AUTO 29008KT 10SM CLR 13/M04 A3002 RMK AO2,KULS,2025-01-27T22:15:00Z,37.6037,-101.377,13,-4,290,8,,10+,30.02,,,TRUE,TRUE,,,,,,,CLR,,,,,,,,VFR,,,,,,,,,,,,METAR,934
KULM 272215Z AUTO 29013G17KT 10SM CLR 03/M08 A2975 RMK AO2,KULM,2025-01-27T22:15:00Z,44.3228,-94.5024,3,-8,290,13,17,10+,29.75,,,TRUE,TRUE,,,,,,,CLR,,,,,,,,VFR,,,,,,,,,,,,METAR,305
KUKT 272215Z AUTO 00000KT 10SM CLR 03/M13 A2980 RMK AO2,KUKT,2025-01-27T22:15:00Z,40.4368,-75.3802,3,-13,0,0,,10+,29.80,,,TRUE,TRUE,,,,,,,CLR,,,,,,,,VFR,,,,,,,,,,,,METAR,156
KUKL 272215Z AUTO 24015KT 10SM CLR 08/M06 A3008 RMK AO2 T00771059,KUKL,2025-01-27T22:15:00Z,38.3041,-95.7217,7.7,-5.9,240,15,,10+,30.08,,,TRUE,TRUE,,,,,,,CLR,,,,,,,,VFR,,,,,,,,,,,,METAR,357
KUCY 272215Z AUTO 23007KT 10SM CLR 07/M08 A3011 RMK A01,KUCY,2025-01-27T22:15:00Z,36.3778,-88.9878,7,-8,230,7,,10+,30.11,,,TRUE,TRUE,,,,,,,CLR,,,,,,,,VFR,,,,,,,,,,,,METAR,97
KUBE 272215Z AUTO 29010KT 10SM CLR 01/M06 A2961 RMK AO2,KUBE,2025-01-27T22:15:00Z,45.5046,-91.978,1,-6,290,10,,10+,29.61,,,TRUE,TRUE,,,,,,,CLR,,,,,,,,VFR,,,,,,,,,,,,METAR,376
KU69 272215Z AUTO 11004KT 10SM CLR M06/M10 A3015 RMK A01,KU69,2025-01-27T22:15:00Z,40.198,-110.387,-6,-10,110,4,,10+,30.15,,,TRUE,TRUE,,,,,,,CLR,,,,,,,,VFR,,,,,,,,,,,,METAR,1776
KU68 272215Z AUTO 00000KT 10SM CLR M01/M15 A3016 RMK AO2,KU68,2025-01-27T22:15:00Z,44.9113,-108.447,-1,-15,0,0,,10+,30.16,,,TRUE,TRUE,,,,,,,CLR,,,,,,,,VFR,,,,,,,,,,,,METAR,1244
KU64 272215Z AUTO 33009KT 10SM OVC095 05/M14 A3003 RMK AO2 T00511137 $,KU64,2025-01-27T22:15:00Z,37.9333,-109.34,5.1,-13.7,330,9,,10+,30.03,,,TRUE,TRUE,TRUE,,,,,,OVC,9500,,,,,,,VFR,,,,,,,,,,,,METAR,2123
KU52 272215Z AUTO VRB04KT 10SM SCT075 BKN090 02/M09 A3004 RMK AO2,KU52,2025-01-27T22:15:00Z,38.232,-112.672,2,-9,VRB,4,,10+,30.04,,,TRUE,TRUE,,,,,,,SCT,7500,BKN,9000,,,,,VFR,,,,,,,,,,,,METAR,1787
KU42 272215Z AUTO 33006KT 10SM CLR 01/M09 A3016 RMK AO1 T00101094,KU42,2025-01-27T22:15:00Z,40.6196,-111.99,1,-9.4,330,6,,10+,30.16,,,TRUE,TRUE,,,,,,,CLR,,,,,,,,VFR,,,,,,,,,,,,METAR,1399
KTYQ 272215Z AUTO 24014G21KT 10SM CLR 01/M07 A2989 RMK AO2 T00101072,KTYQ,2025-01-27T22:15:00Z,40.0345,-86.2488,1,-7.2,240,14,21,10+,29.89,,,TRUE,TRUE,,,,,,,CLR,,,,,,,,VFR,,,,,,,,,,,,METAR,279
KTYL 272215Z AUTO 20013G25KT 160V220 10SM CLR 09/M12 A2998 RMK AO2,KTYL,2025-01-27T22:15:00Z,34.4577,-110.112,9,-12,200,13,25,10+,29.98,,,TRUE,TRUE,,,,,,,CLR,,,,,,,,VFR,,,,,,,,,,,,METAR,1748
KTXW 272215Z AUTO 35011KT 10SM OVC004 16/14 A3010 RMK AO2 T01570138,KTXW,2025-01-27T22:15:00Z,26.1824,-97.9742,15.7,13.8,350,11,,10+,30.10,,,TRUE,TRUE,,,,,,,OVC,400,,,,,,,LIFR,,,,,,,,,,,,METAR,21
KTWT 272215Z AUTO 22008G15KT 10SM CLR 07/M10 A3008 RMK AO2,KTWT,2025-01-27T22:15:00Z,37.5432,-87.9568,7,-10,220,8,15,10+,30.08,,,TRUE,TRUE,,,,,,,CLR,,,,,,,,VFR,,,,,,,,,,,,METAR,113
KTWM 272215Z AUTO 28011G17KT 251V321 10SM SCT044 OVC050 02/M05 A2954 RMK AO2,KTWM,2025-01-27T22:15:00Z,47.0192,-91.7447,2,-5,280,11,17,10+,29.54,,,TRUE,TRUE,,,,,,,SCT,4400,OVC,5000,,,,,VFR,,,,,,,,,,,,METAR,331
KTVK 272215Z AUTO 23017G22KT 10SM CLR 06/M12 A2988 RMK AO2,KTVK,2025-01-27T22:15:00Z,40.6832,-92.8984,6,-12,230,17,22,10+,29.88,,,TRUE,TRUE,,,,,,,CLR,,,,,,,,VFR,,,,,,,,,,,,METAR,311
KTVI 272215Z AUTO 20003KT 5SM +RA SCT050 BKN055 OVC070 12/11 A3010 RMK AO2 P0002,KTVI,2025-01-27T22:15:00Z,30.9026,-83.8826,12,11,200,3,,5,30.10,,,TRUE,TRUE,,,,,,+RA,SCT,5000,BKN,5500,OVC,7000,,,MVFR,,,,,,0.02,,,,,,METAR,74
KTTF 272215Z AUTO 24019G26KT 10SM CLR 02/M10 A2965 RMK AO2 PK WND 23031/15,KTTF,2025-01-27T22:15:00Z,41.9371,-83.4332,2,-10,240,19,26,10+,29.65,,,TRUE,TRUE,,,,,,,CLR,,,,,,,,VFR,,,,,,,,,,,,METAR,186
KTSP 272215Z AUTO 29009KT 10SM FEW022 SCT026 03/03 A3010 RMK AO2,KTSP,2025-01-27T22:15:00Z,35.1387,-118.442,3,3,290,9,,10+,30.10,,,TRUE,TRUE,,,,,,,FEW,2200,SCT,2600,,,,,VFR,,,,,,,,,,,,METAR,1209
KTQK 272215Z AUTO 27007KT 10SM CLR 13/M07 A3003 RMK AO2 T01331068,KTQK,2025-01-27T22:15:00Z,38.4782,-100.882,13.3,-6.8,270,7,,10+,30.03,,,TRUE,TRUE,,,,,,,CLR,,,,,,,,VFR,,,,,,,,,,,,METAR,906
KTQH 272215Z AUTO 26004KT 10SM CLR 09/M07 A3018 RMK AO2,KTQH,2025-01-27T22:15:00Z,35.9304,-95.0025,9,-7,260,4,,10+,30.18,,,TRUE,TRUE,,,,,,,CLR,,,,,,,,VFR,,,,,,,,,,,,METAR,265
KTOC 272215Z AUTO 23011G16KT 10SM OVC011 09/08 A3000 RMK AO2 T00940076,KTOC,2025-01-27T22:15:00Z,34.588,-83.2974,9.4,7.6,230,11,16,10+,30.00,,,TRUE,TRUE,,,,,,,OVC,1100,,,,,,,MVFR,,,,,,,,,,,,METAR,292
KTOB 272215Z AUTO 27012G21KT 10SM BKN090 02/M09 RMK AO2,KTOB,2025-01-27T22:15:00Z,44.0202,-92.8295,2,-9,270,12,21,10+,0.00,,,TRUE,TRUE,,,,,,,BKN,9000,,,,,,,VFR,,,,,,,,,,,,METAR,394
KTNU 272215Z AUTO 25021G27KT 10SM CLR 09/M16 A2979 RMK A01,KTNU,2025-01-27T22:15:00Z,41.6701,-93.019,9,-16,250,21,27,10+,29.79,,,TRUE,TRUE,,,,,,,CLR,,,,,,,,VFR,,,,,,,,,,,,METAR,287
KTNB 272215Z AUTO 28010G16KT 10SM SCT007 OVC016 02/02 A2976 RMK AO2 T00210021,KTNB,2025-01-27T22:15:00Z,36.1988,-81.6515,2.1,2.1,280,10,16,10+,29.76,,,TRUE,TRUE,,,,,,,SCT,700,OVC,1600,,,,,MVFR,,,,,,,,,,,,METAR,958
KTMK 272215Z AUTO 31007KT 10SM CLR 12/M05 A3026 RMK AO2,KTMK,2025-01-27T22:15:00Z,45.421,-123.814,12,-5,310,7,,10+,30.26,,,TRUE,TRUE,,,,,,,CLR,,,,,,,,VFR,,,,,,,,,,,,METAR,8
KTME 272215Z AUTO 05008KT 6SM BR OVC011 11/11 A3018 RMK AO2,KTME,2025-01-27T22:15:00Z,29.806,-95.903,11,11,50,8,,6,30.18,,,TRUE,TRUE,,,,,,BR,OVC,1100,,,,,,,MVFR,,,,,,,,,,,,METAR,49
KTMA 272215Z AUTO 29003KT 2 1/2SM -RA BR OVC090 12/11 A3009 RMK AO2 P0000 T01160114,KTMA,2025-01-27T22:15:00Z,31.4229,-83.4859,11.6,11.4,290,3,,2.5,30.09,,,TRUE,TRUE,,,,,,-RA BR,OVC,9000,,,,,,,IFR,,,,,,0.005,,,,,,METAR,105
KTKX 272215Z AUTO 23010KT 10SM CLR 08/M08 A3012 RMK AO2,KTKX,2025-01-27T22:15:00Z,36.2226,-90.0367,8,-8,230,10,,10+,30.12,,,TRUE,TRUE,,,,,,,CLR,,,,,,,,VFR,,,,,,,,,,,,METAR,73
KTKV 272215Z 10SM OVC034 M01/M09 A2953 RMK AO2 T10121095 PWINO,KTKV,2025-01-27T22:15:00Z,45.469,-89.805,-1.2,-9.5,,,,10+,29.53,,,,TRUE,,,,,TRUE,,OVC,3400,,,,,,,VFR,,,,,,,,,,,,METAR,449
KTKC 272215Z AUTO 31015G20KT 10SM OVC080 04/M07 A2978 RMK AO2,KTKC,2025-01-27T22:15:00Z,44.25,-95.612,4,-7,310,15,20,10+,29.78,,,TRUE,TRUE,,,,,,,OVC,8000,,,,,,,VFR,,,,,,,,,,,,METAR,408
KTIP 272215Z AUTO 24016G22KT 10SM CLR 03/M06 A2990 RMK AO2 T00281057,KTIP,2025-01-27T22:15:00Z,40.291,-88.146,2.8,-5.7,240,16,22,10+,29.90,,,TRUE,TRUE,,,,,,,CLR,,,,,,,,VFR,,,,,,,,,,,,METAR,224
KTIF 272215Z AUTO 31015G19KT 10SM CLR 11/M09 A2994 RMK AO2 T01061094,KTIF,2025-01-27T22:15:00Z,41.9646,-100.569,10.6,-9.4,310,15,19,10+,29.94,,,TRUE,TRUE,,,,,,,CLR,,,,,,,,VFR,,,,,,,,,,,,METAR,888
KTGI 272215Z AUTO 00000KT 10SM CLR 05/M01 A2991 RMK AO1 T00451007,KTGI,2025-01-27T22:15:00Z,37.8279,-75.9964,4.5,-0.7,0,0,,10+,29.91,,,TRUE,TRUE,,,,,,,CLR,,,,,,,,VFR,,,,,,,,,,,,METAR,1
KTEX 272215Z AUTO 12011G14KT 10SM SCT070 OVC090 02/M18 A3001 RMK AO2,KTEX,2025-01-27T22:15:00Z,37.954,-107.909,2,-18,120,11,14,10+,30.01,,,TRUE,TRUE,,,,,,,SCT,7000,OVC,9000,,,,,VFR,,,,,,,,,,,,METAR,2760
KTEW 272215Z AUTO 24012G20KT 10SM CLR 02/M10 A2960 RMK AO2 T00181096,KTEW,2025-01-27T22:15:00Z,42.5636,-84.4222,1.8,-9.6,240,12,20,10+,29.60,,,TRUE,TRUE,,,,,,,CLR,,,,,,,,VFR,,,,,,,,,,,,METAR,281
KTBX 272215Z AUTO 31011KT 10SM CLR 00/M18 A3016 RMK AO2,KTBX,2025-01-27T22:15:00Z,43.4644,-108.238,0,-18,310,11,,10+,30.16,,,TRUE,TRUE,,,,,,,CLR,,,,,,,,VFR,,,,,,,,,,,,METAR,2230
KTBR 272215Z AUTO 00000KT 10SM -RA SCT022 BKN034 OVC055 09/08 A3006 RMK AO2 T00890077,KTBR,2025-01-27T22:15:00Z,32.48,-81.738,8.9,7.7,0,0,,10+,30.06,,,TRUE,TRUE,,,,,,-RA,SCT,2200,BKN,3400,OVC,5500,,,VFR,,,,,,,,,,,,METAR,54
KTAZ 272215Z AUTO 22015KT 10SM CLR 03/M04 A2995 RMK AO2 T00251045,KTAZ,2025-01-27T22:15:00Z,39.535,-89.3294,2.5,-4.5,220,15,,10+,29.95,,,TRUE,TRUE,,,,,,,CLR,,,,,,,,VFR,,,,,,,,,,,,METAR,188
KT82 272215Z AUTO 05005KT 10SM OVC020 10/03 A3018 RMK AO2 T00950025,KT82,2025-01-27T22:15:00Z,30.239,-98.904,9.5,2.5,50,5,,10+,30.18,,,TRUE,TRUE,,,,,,,OVC,2000,,,,,,,MVFR,,,,,,,,,,,,METAR,509
KT78 272215Z AUTO 04008KT 10SM BKN015 OVC038 14/10 A3015 RMK AO2,KT78,2025-01-27T22:15:00Z,30.0754,-94.6996,14,10,40,8,,10+,30.15,,,TRUE,TRUE,,,,,,,BKN,1500,OVC,3800,,,,,MVFR,,,,,,,,,,,,METAR,21
KT74 272215Z AUTO 02005KT 10SM OVC033 12/05 A3018 RMK AO2 T01180049,KT74,2025-01-27T22:15:00Z,30.5704,-97.4447,11.8,4.9,20,5,,10+,30.18,,,TRUE,TRUE,,,,,,,OVC,3300,,,,,,,VFR,,,,,,,,,,,,METAR,169
KT69 272215Z AUTO 02007KT 8SM OVC007 13/12 A3014 RMK A01,KT69,2025-01-27T22:15:00Z,28.0418,-97.541,13,12,20,7,,8,30.14,,,TRUE,TRUE,,,,,,,OVC,700,,,,,,,IFR,,,,,,,,,,,,METAR,15
KT41 272215Z AUTO 36007KT 10SM SCT014 OVC032 14/11 A3016 RMK AO2 T01380108,KT41,2025-01-27T22:15:00Z,29.6709,-95.0644,13.8,10.8,360,7,,10+,30.16,,,TRUE,TRUE,,,,,,,SCT,1400,OVC,3200,,,,,VFR,,,,,,,,,,,,METAR,8
KT35 272215Z AUTO 36004KT 10SM SCT035 OVC080 12/06 A3019 RMK AO2 T01180056,KT35,2025-01-27T22:15:00Z,30.8789,-96.9704,11.8,5.6,360,4,,10+,30.19,,,TRUE,TRUE,,,,,,,SCT,3500,OVC,8000,,,,,VFR,,,,,,,,,,,,METAR,122
KT20 272215Z AUTO 02005KT 10SM SCT006 OVC018 10/09 A3017 RMK AO2 T00970088,KT20,2025-01-27T22:15:00Z,29.5301,-97.463,9.7,8.8,20,5,,10+,30.17,,,TRUE,TRUE,,,,,,,SCT,600,OVC,1800,,,,,MVFR,,,,,,,,,,,,METAR,107
KSYN 272215Z AUTO 27012G16KT 10SM CLR 03/M06 A2969 RMK AO2 T00301065,KSYN,2025-01-27T22:15:00Z,44.474,-93.014,3,-6.5,270,12,16,10+,29.69,,,TRUE,TRUE,,,,,,,CLR,,,,,,,,VFR,,,,,,,,,,,,METAR,280
KSYM 272215Z AUTO 25006KT 10SM CLR 04/M11 A2999 RMK AO2,KSYM,2025-01-27T22:15:00Z,38.2199,-83.5835,4,-11,250,6,,10+,29.99,,,TRUE,TRUE,,,,,,,CLR,,,,,,,,VFR,,,,,,,,,,,,METAR,307
KSYF 272215Z AUTO 30011KT 10SM CLR 14/M15 A3000 RMK AO2,KSYF,2025-01-27T22:15:00Z,39.7583,-101.793,14,-15,300,11,,10+,30.00,,,TRUE,TRUE,,,,,,,CLR,,,,,,,,VFR,,,,,,,,,,,,METAR,1041
KSXU 272215Z AUTO 16010KT 10SM CLR 09/M06 A3005 RMK AO2,KSXU,2025-01-27T22:15:00Z,34.9355,-104.637,9,-6,160,10,,10+,30.05,,,TRUE,TRUE,,,,,,,CLR,,,,,,,,VFR,,,,,,,,,,,,METAR,1465
KSXK 272215Z AUTO 30021G27KT 10SM CLR 08/M12 A2980 RMK AO2,KSXK,2025-01-27T22:15:00Z,42.9895,-96.1645,8,-12,300,21,27,10+,29.80,,,TRUE,TRUE,,,,,,,CLR,,,,,,,,VFR,,,,,,,,,,,,METAR,430
KSWW 272215Z AUTO 00000KT 10SM 09/M08 A3019 RMK AO2 T00931079,KSWW,2025-01-27T22:15:00Z,32.4688,-100.467,9.3,-7.9,0,0,,10+,30.19,,,TRUE,TRUE,,,,,,,,,,,,,,,VFR,,,,,,,,,,,,METAR,718
KSVC 272215Z AUTO 21021G24KT 10SM CLR 16/M16 A2998 RMK AO2 T01561156,KSVC,2025-01-27T22:15:00Z,32.631,-108.147,15.6,-15.6,210,21,24,10+,29.98,,,TRUE,TRUE,,,,,,,CLR,,,,,,,,VFR,,,,,,,,,,,,METAR,1638
KSUZ 272215Z AUTO VRB04KT 9SM CLR 12/M01 A3016 RMK A01,KSUZ,2025-01-27T22:15:00Z,34.5862,-92.4802,12,-1,VRB,4,,9,30.16,,,TRUE,TRUE,,,,,,,CLR,,,,,,,,VFR,,,,,,,,,,,,METAR,114
KSUW 272215Z AUTO 27007KT 10SM BKN041 OVC049 01/M06 A2962 RMK AO2 T00131061,KSUW,2025-01-27T22:15:00Z,46.6833,-92.0926,1.3,-6.1,270,7,,10+,29.62,,,TRUE,TRUE,,,,,,,BKN,4100,OVC,4900,,,,,VFR,,,,,,,,,,,,METAR,205
KSTK 272215Z AUTO 31012KT 10SM CLR 10/M10 A3003 RMK AO2,KSTK,2025-01-27T22:15:00Z,40.6133,-103.261,10,-10,310,12,,10+,30.03,,,TRUE,TRUE,,,,,,,CLR,,,,,,,,VFR,,,,,,,,,,,,METAR,1228
KSTF 272215Z AUTO 21003KT 10SM CLR 10/08 A3013 RMK AO2,KSTF,2025-01-27T22:15:00Z,33.4326,-88.8506,10,8,210,3,,10+,30.13,,,TRUE,TRUE,,,,,,,CLR,,,,,,,,VFR,,,,,,,,,,,,METAR,99
KSTE 272215Z AUTO 26012G18KT 10SM SCT034 BKN050 02/M05 A2955 RMK AO2 T00161050,KSTE,2025-01-27T22:15:00Z,44.5437,-89.5347,1.6,-5,260,12,18,10+,29.55,,,TRUE,TRUE,,,,,,,SCT,3400,BKN,5000,,,,,VFR,,,,,,,,,,,,METAR,335
KSSI 272215Z AUTO 00000KT 10SM 13/07 A3008 RMK AO2,KSSI,2025-01-27T22:15:00Z,31.1527,-81.3905,13,7,0,0,,10+,30.08,,,TRUE,TRUE,,,,,,,,,,,,,,,VFR,,,,,,,,,,,,METAR,6
KSRR 272215Z AUTO 13010KT 10SM CLR 08/M08 A3007 RMK AO2,KSRR,2025-01-27T22:15:00Z,33.4667,-105.528,8,-8,130,10,,10+,30.07,,,TRUE,TRUE,,,,,,,CLR,,,,,,,,VFR,,,,,,,,,,,,METAR,2063
KSPF 272215Z AUTO 30017G25KT 10SM CLR 03/M06 A3001 RMK AO2,KSPF,2025-01-27T22:15:00Z,44.4811,-103.788,3,-6,300,17,25,10+,30.01,,,TRUE,TRUE,,,,,,,CLR,,,,,,,,VFR,,,,,,,,,,,,METAR,1191
KSPA 272215Z AUTO 23005KT 10SM OVC011 09/07 A2997 RMK AO2,KSPA,2025-01-27T22:15:00Z,34.9106,-81.9589,9,7,230,5,,10+,29.97,,,TRUE,TRUE,,,,,,,OVC,1100,,,,,,,MVFR,,,,,,,,,,,,METAR,242
KSOW 272215Z AUTO 20019G26KT 10SM CLR 07/M11 A2998 RMK AO2,KSOW,2025-01-27T22:15:00Z,34.2686,-110.002,7,-11,200,19,26,10+,29.98,,,TRUE,TRUE,,,,,,,CLR,,,,,,,,VFR,,,,,,,,,,,,METAR,1954
KSOA 272215Z AUTO 05005KT 10SM A3021 RMK AO2,KSOA,2025-01-27T22:15:00Z,30.5853,-100.651,,,50,5,,10+,30.21,,,TRUE,TRUE,,,,,,,,,,,,,,,VFR,,,,,,,,,,,,METAR,654
KSNL 272215Z AUTO 25003KT 10SM CLR 11/M12 A3017 RMK AO2 T01121125,KSNL,2025-01-27T22:15:00Z,35.3611,-96.9445,11.2,-12.5,250,3,,10+,30.17,,,TRUE,TRUE,,,,,,,CLR,,,,,,,,VFR,,,,,,,,,,,,METAR,327
KSNK 272215Z AUTO 00000KT 10SM OVC032 08/M09 A3016 RMK AO2 T00771092,KSNK,2025-01-27T22:15:00Z,32.6917,-100.951,7.7,-9.2,0,0,,10+,30.16,,,TRUE,TRUE,,,,,,,OVC,3200,,,,,,,VFR,,,,,,,,,,,,METAR,738
KSNC 272215Z AUTO VRB05G15KT 10SM CLR 01/M10 A2975 RMK AO2,KSNC,2025-01-27T22:15:00Z,41.383,-72.506,1,-10,VRB,5,15,10+,29.75,,,TRUE,TRUE,,,,,,,CLR,,,,,,,,VFR,,,,,,,,,,,,METAR,114
KSME 272215Z AUTO 29007KT 10SM CLR 07/M12 A3000 RMK AO2,KSME,2025-01-27T22:15:00Z,37.0529,-84.6141,7,-12,290,7,,10+,30.00,,,TRUE,TRUE,,,,,,,CLR,,,,,,,,VFR,,,,,,,,,,,,METAR,279
KSMD 272215Z AUTO 24018G23KT 10SM CLR 03/M08 A2976 RMK A01,KSMD,2025-01-27T22:15:00Z,41.144,-85.1492,3,-8,240,18,23,10+,29.76,,,TRUE,TRUE,,,,,,,CLR,,,,,,,,VFR,,,,,,,,,,,,METAR,252
KSLR 272215Z AUTO 00000KT 10SM CLR 10/03 A3022 RMK AO2 T01030026,KSLR,2025-01-27T22:15:00Z,33.1615,-95.6189,10.3,2.6,0,0,,10+,30.22,,,TRUE,TRUE,,,,,,,CLR,,,,,,,,VFR,,,,,,,,,,,,METAR,144
KSLO 272215Z AUTO 24015G21KT 10SM CLR 05/M06 A3001 RMK AO2 T00471056,KSLO,2025-01-27T22:15:00Z,38.6446,-88.9612,4.7,-5.6,240,15,21,10+,30.01,,,TRUE,TRUE,,,,,,,CLR,,,,,,,,VFR,,,,,,,,,,,,METAR,173
KSJX 272215Z AUTO 30009G15KT 10SM SCT037 OVC046 02/M05 A2936 RMK AO2 PRESRR,KSJX,2025-01-27T22:15:00Z,45.6928,-85.5662,2,-5,300,9,15,10+,29.36,,,TRUE,TRUE,,,,,,,SCT,3700,OVC,4600,,,,,VFR,,,,,,,,,,,,METAR,202
KSJS 272215Z AUTO 30003KT 10SM CLR 07/M10 A2996 RMK AO2 T00701103,KSJS,2025-01-27T22:15:00Z,37.7489,-82.6413,7,-10.3,300,3,,10+,29.96,,,TRUE,TRUE,,,,,,,CLR,,,,,,,,VFR,,,,,,,,,,,,METAR,359
KSIK 272215Z AUTO 23008KT 10SM CLR 06/M07 A3012 RMK AO2 T00571070 $,KSIK,2025-01-27T22:15:00Z,36.9027,-89.5577,5.7,-7,230,8,,10+,30.12,,,TRUE,TRUE,TRUE,,,,,,CLR,,,,,,,,VFR,,,,,,,,,,,,METAR,95
KSHL 272215Z AUTO 30010G16KT 10SM CLR 07/M13 A2978 RMK AO2,KSHL,2025-01-27T22:15:00Z,43.2082,-95.8354,7,-13,300,10,16,10+,29.78,,,TRUE,TRUE,,,,,,,CLR,,,,,,,,VFR,,,,,,,,,,,,METAR,430
KSHD 272215Z AUTO 21007KT 10SM CLR 06/M07 A2988 RMK AO2 T00601073,KSHD,2025-01-27T22:15:00Z,38.2601,-78.9013,6,-7.3,210,7,,10+,29.88,,,TRUE,TRUE,,,,,,,CLR,,,,,,,,VFR,,,,,,,,,,,,METAR,360
KSGS 272215Z AUTO 28010G16KT 7SM CLR 03/M06 A2968 RMK AO2 T00301064,KSGS,2025-01-27T22:15:00Z,44.8601,-93.0321,3,-6.4,280,10,16,7,29.68,,,TRUE,TRUE,,,,,,,CLR,,,,,,,,VFR,,,,,,,,,,,,METAR,250
KSFQ 272215Z AUTO 21008KT 10SM SCT070 11/02 A2994 RMK AO2 T01100020,KSFQ,2025-01-27T22:15:00Z,36.6825,-76.6013,11,2,210,8,,10+,29.94,,,TRUE,TRUE,,,,,,,SCT,7000,,,,,,,VFR,,,,,,,,,,,,METAR,19
KSEZ 272215Z AUTO 00000KT 6SM -RA BR SCT005 BKN009 BKN015 02/02 A3003 RMK AO2,KSEZ,2025-01-27T22:15:00Z,34.8467,-111.788,2,2,0,0,,6,30.03,,,TRUE,TRUE,,,,,,-RA BR,SCT,500,BKN,900,BKN,1500,,,IFR,,,,,,,,,,,,METAR,1455
KSEF 272215Z AUTO 10003KT 10SM CLR 23/11 A3011 RMK AO2,KSEF,2025-01-27T22:15:00Z,27.4553,-81.3415,23,11,100,3,,10+,30.11,,,TRUE,TRUE,,,,,,,CLR,,,,,,,,VFR,,,,,,,,,,,,METAR,17
KSDC 272215Z AUTO 23017G25KT 7SM CLR 01/M15 A2954 RMK AO2,KSDC,2025-01-27T22:15:00Z,43.2355,-77.1201,1,-15,230,17,25,7,29.54,,,TRUE,TRUE,,,,,,,CLR,,,,,,,,VFR,,,,,,,,,,,,METAR,127
KSDA 272215Z AUTO 25014G21KT 10SM CLR 12/M12 A2988 RMK AO2,KSDA,2025-01-27T22:15:00Z,40.7533,-95.4112,12,-12,250,14,21,10+,29.88,,,TRUE,TRUE,,,,,,,CLR,,,,,,,,VFR,,,,,,,,,,,,METAR,293
KSCD 272215Z AUTO 29005KT 10SM SCT015 OVC024 11/09 A3010 RMK AO2 T01100091,KSCD,2025-01-27T22:15:00Z,33.1732,-86.2933,11,9.1,290,5,,10+,30.10,,,TRUE,TRUE,,,,,,,SCT,1500,OVC,2400,,,,,MVFR,,,,,,,,,,,,METAR,164
KSBS 272215Z AUTO 00000KT 10SM CLR M07/M14 A3010 RMK AO1 T10661136,KSBS,2025-01-27T22:15:00Z,40.5153,-106.868,-6.6,-13.6,0,0,,10+,30.10,,,TRUE,TRUE,,,,,,,CLR,,,,,,,,VFR,,,,,,,,,,,,METAR,2097
KSBO 272215Z AUTO 00000KT 5SM BR BKN004 OVC009 09/08 A3008 RMK AO2,KSBO,2025-01-27T22:15:00Z,32.6111,-82.3702,9,8,0,0,,5,30.08,,,TRUE,TRUE,,,,,,BR,BKN,400,OVC,900,,,,,LIFR,,,,,,,,,,,,METAR,98
KSAZ 272215Z AUTO 31017G21KT 10SM SCT030 02/M04 A2971 RMK AO2,KSAZ,2025-01-27T22:15:00Z,46.3785,-94.8017,2,-4,310,17,21,10+,29.71,,,TRUE,TRUE,,,,,,,SCT,3000,,,,,,,VFR,,,,,,,,,,,,METAR,391
KSAR 272215Z AUTO 24006KT 10SM CLR 08/M08 A3006 RMK AO2 T00761080,KSAR,2025-01-27T22:15:00Z,38.1463,-89.7025,7.6,-8,240,6,,10+,30.06,,,TRUE,TRUE,,,,,,,CLR,,,,,,,,VFR,,,,,,,,,,,,METAR,162
KSAA 272215Z AUTO 00000KT 10SM CLR M07/M12 A3014 RMK AO2,KSAA,2025-01-27T22:15:00Z,41.447,-106.815,-7,-12,0,0,,10+,30.14,,,TRUE,TRUE,,,,,,,CLR,,,,,,,,VFR,,,,,,,,,,,,METAR,2093
KS52 272215Z AUTO 13004KT 10SM SCT055 M06/M11 A3043 RMK AO2 T10551111,KS52,2025-01-27T22:15:00Z,48.4282,-120.15,-5.5,-11.1,130,4,,10+,30.43,,,TRUE,TRUE,,,,,,,SCT,5500,,,,,,,VFR,,,,,,,,,,,,METAR,517
KS33 272215Z AUTO 36003KT 10SM CLR 03/M08 A3034 RMK AO2,KS33,2025-01-27T22:15:00Z,44.6653,-121.157,3,-8,360,3,,10+,30.34,,,TRUE,TRUE,,,,,,,CLR,,,,,,,,VFR,,,,,,,,,,,,METAR,739
KS32 272215Z AUTO 30011KT 10SM CLR 01/M02 A2983 RMK AO2 TSNO,KS32,2025-01-27T22:15:00Z,47.424,-98.11,1,-2,300,11,,10+,29.83,,,TRUE,TRUE,,,TRUE,,,,CLR,,,,,,,,VFR,,,,,,,,,,,,METAR,435
KS25 272215Z AUTO 24009KT 10SM 01/M03 A2995 RMK AO2,KS25,2025-01-27T22:15:00Z,47.7954,-103.257,1,-3,240,9,,10+,29.95,,,TRUE,TRUE,,,,,,,,,,,,,,,VFR,,,,,,,,,,,,METAR,632
KS24 272215Z AUTO 22023G29KT 10SM CLR M01/M08 A2975 RMK AO2,KS24,2025-01-27T22:15:00Z,41.296,-83.037,-1,-8,220,23,29,10+,29.75,,,TRUE,TRUE,,,,,,,CLR,,,,,,,,VFR,,,,,,,,,,,,METAR,203
KRZT 272215Z AUTO 22010KT 10SM CLR 01/M11 A2995 RMK AO2 PWINO,KRZT,2025-01-27T22:15:00Z,39.4402,-83.0209,1,-11,220,10,,10+,29.95,,,TRUE,TRUE,,,,,TRUE,,CLR,,,,,,,,VFR,,,,,,,,,,,,METAR,217
KRZN 272215Z AUTO 30011KT 10SM CLR 02/M06 A2963 RMK AO2 T00161065,KRZN,2025-01-27T22:15:00Z,45.8229,-92.3706,1.6,-6.5,300,11,,10+,29.63,,,TRUE,TRUE,,,,,,,CLR,,,,,,,,VFR,,,,,,,,,,,,METAR,301
KRZL 272215Z AUTO 23020G33KT 10SM CLR 04/M07 A2983 RMK AO2,KRZL,2025-01-27T22:15:00Z,40.9488,-87.1851,4,-7,230,20,33,10+,29.83,,,TRUE,TRUE,,,,,,,CLR,,,,,,,,VFR,,,,,,,,,,,,METAR,210
KRYW 272215Z AUTO 08005KT 10SM OVC028 11/04 A3020 RMK AO2 T01110041,KRYW,2025-01-27T22:15:00Z,30.498,-97.969,11.1,4.1,80,5,,10+,30.20,,,TRUE,TRUE,,,,,,,OVC,2800,,,,,,,MVFR,,,,,,,,,,,,METAR,370
KRYV 272215Z AUTO 24011G15KT 10SM SCT055 OVC065 05/M13 A2961 RMK AO2 T00451130,KRYV,2025-01-27T22:15:00Z,43.1702,-88.7251,4.5,-13,240,11,15,10+,29.61,,,TRUE,TRUE,,,,,,,SCT,5500,OVC,6500,,,,,VFR,,,,,,,,,,,,METAR,249
KRVL 272215Z AUTO 24010G21KT 10SM CLR 03/M14 A2976 RMK AO2,KRVL,2025-01-27T22:15:00Z,40.6768,-77.6251,3,-14,240,10,21,10+,29.76,,,TRUE,TRUE,,,,,,,CLR,,,,,,,,VFR,,,,,,,,,,,,METAR,250
KRVJ 272215Z AUTO 18007KT 10SM BKN044 BKN055 OVC095 12/11 A3006 RMK AO2 T01220108,KRVJ,2025-01-27T22:15:00Z,32.059,-82.153,12.2,10.8,180,7,,10+,30.06,,,TRUE,TRUE,,,,,,,BKN,4400,BKN,5500,OVC,9500,,,VFR,,,,,,,,,,,,METAR,60
KRUG 272215Z AUTO 30015KT 10SM FEW060 M02/M04 A2983 RMK AO2,KRUG,2025-01-27T22:15:00Z,48.389,-100.025,-2,-4,300,15,,10+,29.83,,,TRUE,TRUE,,,,,,,FEW,6000,,,,,,,VFR,,,,,,,,,,,,METAR,469
KRSN 272215Z AUTO 00000KT 9SM CLR 13/05 A3017 RMK AO2 T01310051 $,KRSN,2025-01-27T22:15:00Z,32.5159,-92.5899,13.1,5.1,0,0,,9,30.17,,,TRUE,TRUE,TRUE,,,,,,CLR,,,,,,,,VFR,,,,,,,,,,,,METAR,86
KRRT 272215Z AUTO 31020G25KT 10SM OVC050 M03/M10 A2972 RMK AO2,KRRT,2025-01-27T22:15:00Z,48.9318,-95.3405,-3,-10,310,20,25,10+,29.72,,,TRUE,TRUE,,,,,,,OVC,5000,,,,,,,VFR,,,,,,,,,,,,METAR,327
KRRL 272215Z AUTO 29014KT 10SM BKN034 M01/M07 A2953 RMK AO2 T10131071 TSNO,KRRL,2025-01-27T22:15:00Z,45.1985,-89.71,-1.3,-7.1,290,14,,10+,29.53,,,TRUE,TRUE,,,TRUE,,,,BKN,3400,,,,,,,VFR,,,,,,,,,,,,METAR,397
KRQO 272215Z AUTO 19009KT 10SM CLR 10/M10 A3015 RMK AO2,KRQO,2025-01-27T22:15:00Z,35.4709,-98.0061,10,-10,190,9,,10+,30.15,,,TRUE,TRUE,,,,,,,CLR,,,,,,,,VFR,,,,,,,,,,,,METAR,431
KRQB 272215Z AUTO 24017G25KT 1/4SM SN OVC014 M01/M02 A2950 RMK AO2 T10061025,KRQB,2025-01-27T22:15:00Z,43.722,-85.498,-0.6,-2.5,240,17,25,0.25,29.50,,,TRUE,TRUE,,,,,,SN,OVC,1400,,,,,,,LIFR,,,,,,,,,,,,METAR,282
KRPJ 272215Z AUTO 24027G33KT 10SM SCT110 06/M13 A2972 RMK AO2 T00601126,KRPJ,2025-01-27T22:15:00Z,41.8906,-89.0817,6,-12.6,240,27,33,10+,29.72,,,TRUE,TRUE,,,,,,,SCT,11000,,,,,,,VFR,,,,,,,,,,,,METAR,234
KRPH 272215Z AUTO 00000KT 10SM CLR 10/M10 A3017 RMK AO2 T01041103,KRPH,2025-01-27T22:15:00Z,33.1096,-98.5537,10.4,-10.3,0,0,,10+,30.17,,,TRUE,TRUE,,,,,,,CLR,,,,,,,,VFR,,,,,,,,,,,,METAR,341
KRPD 272215Z AUTO 28007G14KT 10SM CLR 00/M08 A2963 RMK AO2 T00001077,KRPD,2025-01-27T22:15:00Z,45.4186,-91.7764,0,-7.7,280,7,14,10+,29.63,,,TRUE,TRUE,,,,,,,CLR,,,,,,,,VFR,,,,,,,,,,,,METAR,334
KROX 272215Z 31011KT 10SM M02/M06 A2973 RMK AO2,KROX,2025-01-27T22:15:00Z,48.856,-95.6949,-2,-6,310,11,,10+,29.73,,,,TRUE,,,,,,,,,,,,,,,VFR,,,,,,,,,,,,METAR,320
KROS 272215Z AUTO 27008KT 10SM CLR 01/M04 A2965 RMK AO2,KROS,2025-01-27T22:15:00Z,45.6962,-92.9543,1,-4,270,8,,10+,29.65,,,TRUE,TRUE,,,,,,,CLR,,,,,,,,VFR,,,,,,,,,,,,METAR,282
KRNV 272215Z AUTO 36003KT 10SM CLR 09/M00 A3018 RMK AO2 T00921001 $,KRNV,2025-01-27T22:15:00Z,33.762,-90.759,9.2,-0.1,360,3,,10+,30.18,,,TRUE,TRUE,TRUE,,,,,,CLR,,,,,,,,VFR,,,,,,,,,,,,METAR,42
KRNP 272215Z AUTO 23012G26KT 10SM SCT120 02/M09 A2956 RMK AO2 T00221092,KRNP,2025-01-27T22:15:00Z,42.9937,-84.1347,2.2,-9.2,230,12,26,10+,29.56,,,TRUE,TRUE,,,,,,,SCT,12000,,,,,,,VFR,,,,,,,,,,,,METAR,224
KRNH 272215Z AUTO 26009KT 10SM CLR 01/M06 A2965 RMK AO2 T00091059,KRNH,2025-01-27T22:15:00Z,45.1476,-92.5335,0.9,-5.9,260,9,,10+,29.65,,,TRUE,TRUE,,,,,,,CLR,,,,,,,,VFR,,,,,,,,,,,,METAR,302
KRMY 272215Z AUTO 24012G22KT 10SM CLR 01/M10 A2963 RMK AO2 T00141100,KRMY,2025-01-27T22:15:00Z,42.2524,-84.9526,1.4,-10,240,12,22,10+,29.63,,,TRUE,TRUE,,,,,,,CLR,,,,,,,,VFR,,,,,,,,,,,,METAR,285
KRMN 272215Z AUTO 23004KT 10SM CLR 10/M09 A2986 RMK AO2 T00991093,KRMN,2025-01-27T22:15:00Z,38.3941,-77.4523,9.9,-9.3,230,4,,10+,29.86,,,TRUE,TRUE,,,,,,,CLR,,,,,,,,VFR,,,,,,,,,,,,METAR,50
KRLD 272215Z AUTO 36003KT 10SM CLR 05/M04 A3048 RMK AO2 T00451043,KRLD,2025-01-27T22:15:00Z,46.3086,-119.306,4.5,-4.3,360,3,,10+,30.48,,,TRUE,TRUE,,,,,,,CLR,,,,,,,,VFR,,,,,,,,,,,,METAR,118
KRKR 272215Z AUTO 00000KT 10SM CLR 12/M06 A3018 RMK AO2,KRKR,2025-01-27T22:15:00Z,35.0187,-94.6202,12,-6,0,0,,10+,30.18,,,TRUE,TRUE,,,,,,,CLR,,,,,,,,VFR,,,,,,,,,,,,METAR,136
KRID 272215Z AUTO 22012KT 10SM CLR M01/M09 A2991 RMK AO2,KRID,2025-01-27T22:15:00Z,39.7579,-84.8359,-1,-9,220,12,,10+,29.91,,,TRUE,TRUE,,,,,,,CLR,,,,,,,,VFR,,,,,,,,,,,,METAR,346
KRGK 272215Z AUTO 26012KT 10SM CLR 02/M06 A2967 RMK AO2,KRGK,2025-01-27T22:15:00Z,44.5927,-92.4844,2,-6,260,12,,10+,29.67,,,TRUE,TRUE,,,,,,,CLR,,,,,,,,VFR,,,,,,,,,,,,METAR,238
KRGA 272215Z AUTO 28006KT 10SM CLR 05/M08 A3001 RMK AO2,KRGA,2025-01-27T22:15:00Z,37.6305,-84.329,5,-8,280,6,,10+,30.01,,,TRUE,TRUE,,,,,,,CLR,,,,,,,,VFR,,,,,,,,,,,,METAR,301
KRFI 272215Z AUTO 01005KT 10SM CLR 14/06 A3020 RMK AO2 T01440063 PWINO,KRFI,2025-01-27T22:15:00Z,32.1441,-94.8539,14.4,6.3,10,5,,10+,30.20,,,TRUE,TRUE,,,,,TRUE,,CLR,,,,,,,,VFR,,,,,,,,,,,,METAR,133
KREG 272215Z AUTO 30007KT 10SM SCT018 18/12 A3014 RMK AO2 T01750122,KREG,2025-01-27T22:15:00Z,30.1756,-90.9397,17.5,12.2,300,7,,10+,30.14,,,TRUE,TRUE,,,,,,,SCT,1800,,,,,,,VFR,,,,,,,,,,,,METAR,3
KRDK 272215Z AUTO 26011G20KT 10SM CLR 12/M13 A2987 RMK AO2,KRDK,2025-01-27T22:15:00Z,41.0107,-95.2622,12,-13,260,11,20,10+,29.87,,,TRUE,TRUE,,,,,,,CLR,,,,,,,,VFR,,,,,,,,,,,,METAR,317
KRCX 272215Z AUTO 27011KT 10SM CLR M01/M07 A2960 RMK AO2 T10131071,KRCX,2025-01-27T22:15:00Z,45.4935,-90.9985,-1.3,-7.1,270,11,,10+,29.60,,,TRUE,TRUE,,,,,,,CLR,,,,,,,,VFR,,,,,,,,,,,,METAR,373
KRCR 272215Z AUTO 24018G25KT 10SM CLR 03/M07 A2979 RMK AO2,KRCR,2025-01-27T22:15:00Z,41.0651,-86.1864,3,-7,240,18,25,10+,29.79,,,TRUE,TRUE,,,,,,,CLR,,,,,,,,VFR,,,,,,,,,,,,METAR,240
KRCM 272215Z AUTO 23012G18KT 10SM 07/M04 A3005 RMK AO2,KRCM,2025-01-27T22:15:00Z,38.7855,-93.8058,7,-4,230,12,18,10+,30.05,,,TRUE,TRUE,,,,,,,,,,,,,,,VFR,,,,,,,,,,,,METAR,242
KRCE 272215Z AUTO 20008KT 180V240 10SM CLR 10/M10 A3015 RMK AO2,KRCE,2025-01-27T22:15:00Z,35.4971,-97.8255,10,-10,200,8,,10+,30.15,,,TRUE,TRUE,,,,,,,CLR,,,,,,,,VFR,,,,,,,,,,,,METAR,412
KRBW 272215Z AUTO 18005KT 10SM BKN032 BKN041 OVC048 08/08 A3007 RMK AO2,KRBW,2025-01-27T22:15:00Z,32.921,-80.64,8,8,180,5,,10+,30.07,,,TRUE,TRUE,,,,,,,BKN,3200,BKN,4100,OVC,4800,,,VFR,,,,,,,,,,,,METAR,30
KRBO 272215Z AUTO 04005KT 7SM OVC008 13/12 A3014 RMK AO2 T01280115,KRBO,2025-01-27T22:15:00Z,27.7781,-97.6878,12.8,11.5,40,5,,7,30.14,,,TRUE,TRUE,,,,,,,OVC,800,,,,,,,IFR,,,,,,,,,,,,METAR,24
KRAW 272215Z AUTO 25015G23KT 10SM CLR 07/M08 A3007 RMK AO2,KRAW,2025-01-27T22:15:00Z,38.3484,-93.3436,7,-8,250,15,23,10+,30.07,,,TRUE,TRUE,,,,,,,CLR,,,,,,,,VFR,,,,,,,,,,,,METAR,285
KRAS 272215Z AUTO 03008KT 7SM BR OVC005 13/12 A3015 RMK AO2 T01320118,KRAS,2025-01-27T22:15:00Z,27.8083,-97.0853,13.2,11.8,30,8,,7,30.15,,,TRUE,TRUE,,,,,,BR,OVC,500,,,,,,,IFR,,,,,,,,,,,,METAR,3
KPZZ 272215Z AUTO 34009KT 7SM CLR 22/19 A3012 RMK A01,KPZZ,2025-01-27T22:15:00Z,28.4344,-91.0344,22,19,340,9,,7,30.12,,,TRUE,TRUE,,,,,,,CLR,,,,,,,,VFR,,,,,,,,,,,,METAR,25
KPZQ 272215Z AUTO 26011G19KT 1SM -SN OVC010 M01/M02 A2934 RMK AO2 T10081022,KPZQ,2025-01-27T22:15:00Z,45.4085,-83.812,-0.8,-2.2,260,11,19,1,29.34,,,TRUE,TRUE,,,,,,-SN,OVC,1000,,,,,,,IFR,,,,,,,,,,,,METAR,199
KPYX 272215Z AUTO 21012KT 10SM 12/M05 A3007 RMK AO2 T01181050,KPYX,2025-01-27T22:15:00Z,36.4103,-100.751,11.8,-5,210,12,,10+,30.07,,,TRUE,TRUE,,,,,,,,,,,,,,,VFR,,,,,,,,,,,,METAR,890
KPXE 272215Z AUTO 22003KT 7SM BR OVC004 10/10 A3007 RMK AO2 T01000098,KPXE,2025-01-27T22:15:00Z,32.5072,-83.7656,10,9.8,220,3,,7,30.07,,,TRUE,TRUE,,,,,,BR,OVC,400,,,,,,,LIFR,,,,,,,,,,,,METAR,126
KPWC 272215Z AUTO 31009G16KT 280V340 10SM OVC032 02/M04 A2972 RMK AO2,KPWC,2025-01-27T22:15:00Z,46.7266,-94.3849,2,-4,310,9,16,10+,29.72,,,TRUE,TRUE,,,,,,,OVC,3200,,,,,,,VFR,,,,,,,,,,,,METAR,394
KPVJ 272215Z AUTO 00000KT 10SM CLR 10/M12 A3021 RMK AO2 T01001118,KPVJ,2025-01-27T22:15:00Z,34.7041,-97.2211,10,-11.8,0,0,,10+,30.21,,,TRUE,TRUE,,,,,,,CLR,,,,,,,,VFR,,,,,,,,,,,,METAR,287
KPVF 272215Z AUTO 30007KT 10SM CLR 10/M02 A3010 RMK AO1,KPVF,2025-01-27T22:15:00Z,38.7222,-120.757,10,-2,300,7,,10+,30.10,,,TRUE,TRUE,,,,,,,CLR,,,,,,,,VFR,,,,,,,,,,,,METAR,788
KPVB 272215Z AUTO 26017G27KT 10SM OVC050 06/M11 A2971 RMK AO1 T00601113,KPVB,2025-01-27T22:15:00Z,42.6909,-90.4413,6,-11.3,260,17,27,10+,29.71,,,TRUE,TRUE,,,,,,,OVC,5000,,,,,,,VFR,,,,,,,,,,,,METAR,311
KPUJ 272215Z AUTO 00000KT 10SM OVC007 08/08 A3005 RMK AO2,KPUJ,2025-01-27T22:15:00Z,33.9085,-84.9369,8,8,0,0,,10+,30.05,,,TRUE,TRUE,,,,,,,OVC,700,,,,,,,IFR,,,,,,,,,,,,METAR,385
KPTT 272215Z AUTO 21010KT 10SM CLR 10/M04 A3007 RMK AO2 T01011045,KPTT,2025-01-27T22:15:00Z,37.7069,-98.7453,10.1,-4.5,210,10,,10+,30.07,,,TRUE,TRUE,,,,,,,CLR,,,,,,,,VFR,,,,,,,,,,,,METAR,594
KPTS 272215Z AUTO 24009G16KT 10SM CLR 07/M09 A3011 RMK AO2,KPTS,2025-01-27T22:15:00Z,37.4512,-94.7322,7,-9,240,9,16,10+,30.11,,,TRUE,TRUE,,,,,,,CLR,,,,,,,,VFR,,,,,,,,,,,,METAR,286
KPTD 272215Z AUTO 23023G45KT 10SM BKN080 OVC095 01/M13 A2935 RMK AO2,KPTD,2025-01-27T22:15:00Z,44.6757,-74.9469,1,-13,230,23,45,10+,29.35,,,TRUE,TRUE,,,,,,,BKN,8000,OVC,9500,,,,,VFR,,,,,,,,,,,,METAR,144
KPTB 272215Z AUTO 22003KT 10SM SCT060 12/M01 A2990 RMK AO2 T01151007,KPTB,2025-01-27T22:15:00Z,37.1803,-77.5081,11.5,-0.7,220,3,,10+,29.90,,,TRUE,TRUE,,,,,,,SCT,6000,,,,,,,VFR,,,,,,,,,,,,METAR,56
KPSO 272215Z AUTO 05005KT 10SM FEW090 07/M18 A3002 RMK AO2,KPSO,2025-01-27T22:15:00Z,37.291,-107.056,7,-18,50,5,,10+,30.02,,,TRUE,TRUE,,,,,,,FEW,9000,,,,,,,VFR,,,,,,,,,,,,METAR,2332
KPSN 272215Z AUTO 05003KT 10SM FEW027 12/06 A3016 RMK AO2,KPSN,2025-01-27T22:15:00Z,31.7784,-95.7048,12,6,50,3,,10+,30.16,,,TRUE,TRUE,,,,,,,FEW,2700,,,,,,,VFR,,,,,,,,,,,,METAR,124
KPSK 272215Z AUTO 22010KT 10SM CLR 05/M01 A2990 RMK AO2 T00531006,KPSK,2025-01-27T22:15:00Z,37.1337,-80.6789,5.3,-0.6,220,10,,10+,29.90,,,TRUE,TRUE,,,,,,,CLR,,,,,,,,VFR,,,,,,,,,,,,METAR,629
KPRS 272215Z AUTO 00000KT 10SM CLR 19/00 A3005 RMK AO2 T01930003,KPRS,2025-01-27T22:15:00Z,29.6346,-104.358,19.3,0.3,0,0,,10+,30.05,,,TRUE,TRUE,,,,,,,CLR,,,,,,,,VFR,,,,,,,,,,,,METAR,890
KPRO 272215Z AUTO 26015KT 10SM OVC140 09/M13 A2980 RMK AO2 T00871131,KPRO,2025-01-27T22:15:00Z,41.8278,-94.1637,8.7,-13.1,260,15,,10+,29.80,,,TRUE,TRUE,,,,,,,OVC,14000,,,,,,,VFR,,,,,,,,,,,,METAR,308
KPRG 272215Z 23015G20KT 10SM CLR 02/M05 RMK AO2 T00221052,KPRG,2025-01-27T22:15:00Z,39.6982,-87.6669,2.2,-5.2,230,15,20,10+,0.00,,,,TRUE,,,,,,,CLR,,,,,,,,VFR,,,,,,,,,,,,METAR,197
KPPQ 272215Z AUTO 23015G20KT 10SM CLR 06/M05 A2994 RMK AO2 T00561050,KPPQ,2025-01-27T22:15:00Z,39.6391,-90.7818,5.6,-5,230,15,20,10+,29.94,,,TRUE,TRUE,,,,,,,CLR,,,,,,,,VFR,,,,,,,,,,,,METAR,215
KPPO 272215Z AUTO 23018G25KT 10SM CLR 04/M07 A2973 RMK AO2 PK WND 23030/02 PRESFR,KPPO,2025-01-27T22:15:00Z,41.5705,-86.7333,4,-7,230,18,25,10+,29.73,,,TRUE,TRUE,,,,,,,CLR,,,,,,,,VFR,,,,,,,,,,,,METAR,242
KPPA 272215Z AUTO 21011KT 10SM CLR 12/M04 A3009 RMK AO2 T01201042,KPPA,2025-01-27T22:15:00Z,35.6139,-100.997,12,-4.2,210,11,,10+,30.09,,,TRUE,TRUE,,,,,,,CLR,,,,,,,,VFR,,,,,,,,,,,,METAR,989
KPOY 272215Z AUTO 14009KT 10SM CLR M02/M15 A3009 RMK AO2,KPOY,2025-01-27T22:15:00Z,44.8641,-108.79,-2,-15,140,9,,10+,30.09,,,TRUE,TRUE,,,,,,,CLR,,,,,,,,VFR,,,,,,,,,,,,METAR,1547
KPOV 272215Z AUTO 23009G18KT 200V260 10SM CLR M01/M16 A2975 RMK AO2 T10111163 PWINO,KPOV,2025-01-27T22:15:00Z,41.209,-81.2479,-1.1,-16.3,230,9,18,10+,29.75,,,TRUE,TRUE,,,,,TRUE,,CLR,,,,,,,,VFR,,,,,,,,,,,,METAR,363
KPNT 272215Z 10SM CLR 05/M07 A2982 RMK AO2 T00511074,KPNT,2025-01-27T22:15:00Z,40.9233,-88.6213,5.1,-7.4,,,,10+,29.82,,,,TRUE,,,,,,,CLR,,,,,,,,VFR,,,,,,,,,,,,METAR,199
KPNM 272215Z AUTO 29008G14KT 10SM CLR 03/M04 A2968 RMK AO2,KPNM,2025-01-27T22:15:00Z,45.556,-93.608,3,-4,290,8,14,10+,29.68,,,TRUE,TRUE,,,,,,,CLR,,,,,,,,VFR,,,,,,,,,,,,METAR,298
KPNA 272215Z AUTO 00000KT 10SM CLR M06/M18 A3016 RMK AO2,KPNA,2025-01-27T22:15:00Z,42.7929,-109.805,-6,-18,0,0,,10+,30.16,,,TRUE,TRUE,,,,,,,CLR,,,,,,,,VFR,,,,,,,,,,,,METAR,2158
KPMV 272215Z AUTO 27016KT 10SM CLR 12/M14 A2989 RMK AO2 T01211141,KPMV,2025-01-27T22:15:00Z,40.9446,-95.9124,12.1,-14.1,270,16,,10+,29.89,,,TRUE,TRUE,,,,,,,CLR,,,,,,,,VFR,,,,,,,,,,,,METAR,365
KPMU 272215Z AUTO 29004KT 10SM CLR 10/M05 A3016 RMK AO2,KPMU,2025-01-27T22:15:00Z,34.3656,-89.8904,10,-5,290,4,,10+,30.16,,,TRUE,TRUE,,,,,,,CLR,,,,,,,,VFR,,,,,,,,,,,,METAR,67
KPLU 272215Z AUTO 00000KT 10SM 08/M05 A3032 RMK AO2,KPLU,2025-01-27T22:15:00Z,47.1005,-122.285,8,-5,0,0,,10+,30.32,,,TRUE,TRUE,,,,,,,,,,,,,,,VFR,,,,,,,,,,,,METAR,164
KPLR 272215Z AUTO VRB04KT 10SM OVC025 11/08 A3011 RMK A01,KPLR,2025-01-27T22:15:00Z,33.5608,-86.2463,11,8,VRB,4,,10+,30.11,,,TRUE,TRUE,,,,,,,OVC,2500,,,,,,,MVFR,,,,,,,,,,,,METAR,145
KPLD 272215Z AUTO 25018G25KT 10SM CLR 01/M17 A2984 RMK AO2,KPLD,2025-01-27T22:15:00Z,40.4532,-84.9848,1,-17,250,18,25,10+,29.84,,,TRUE,TRUE,,,,,,,CLR,,,,,,,,VFR,,,,,,,,,,,,METAR,282
KPKV 272215Z AUTO 04009KT 5SM BR OVC007 13/11 A3015 RMK AO2 T01250111,KPKV,2025-01-27T22:15:00Z,28.6499,-96.6799,12.5,11.1,40,9,,5,30.15,,,TRUE,TRUE,,,,,,BR,OVC,700,,,,,,,IFR,,,,,,,,,,,,METAR,8
KPKD 272215Z AUTO 32013G23KT 10SM BKN029 BKN033 01/M05 A2970 RMK AO2 T00061050,KPKD,2025-01-27T22:15:00Z,46.8971,-95.0695,0.6,-5,320,13,23,10+,29.70,,,TRUE,TRUE,,,,,,,BKN,2900,BKN,3300,,,,,MVFR,,,,,,,,,,,,SPECI,439
KPJC 272215Z AUTO 23006KT 10SM CLR 01/M14 A2980 RMK AO2,KPJC,2025-01-27T22:15:00Z,40.8009,-80.1624,1,-14,230,6,,10+,29.80,,,TRUE,TRUE,,,,,,,CLR,,,,,,,,VFR,,,,,,,,,,,,METAR,273
KPIM 272215Z AUTO 26006KT 10SM OVC004 11/11 A3006 RMK AO2,KPIM,2025-01-27T22:15:00Z,32.8421,-84.8766,11,11,260,6,,10+,30.06,,,TRUE,TRUE,,,,,,,OVC,400,,,,,,,LIFR,,,,,,,,,,,,METAR,274
KPHN 272215Z AUTO 21010G19KT 10SM CLR 02/M10 A2955 RMK AO2,KPHN,2025-01-27T22:15:00Z,42.9103,-82.5332,2,-10,210,10,19,10+,29.55,,,TRUE,TRUE,,,,,,,CLR,,,,,,,,VFR,,,,,,,,,,,,METAR,195
KPHG 272215Z AUTO 28015G18KT 10SM CLR 15/M12 A2997 RMK AO2,KPHG,2025-01-27T22:15:00Z,39.7343,-99.3179,15,-12,280,15,18,10+,29.97,,,TRUE,TRUE,,,,,,,CLR,,,,,,,,VFR,,,,,,,,,,,,METAR,579
KPEZ 272215Z AUTO 07005KT 7SM SCT008 OVC013 09/08 A3018 RMK AO2 T00910077,KPEZ,2025-01-27T22:15:00Z,28.9561,-98.5184,9.1,7.7,70,5,,7,30.18,,,TRUE,TRUE,,,,,,,SCT,800,OVC,1300,,,,,MVFR,,,,,,,,,,,,METAR,126
KPEX 272215Z AUTO 29015G22KT 10SM CLR 01/M03 A2972 RMK AO2,KPEX,2025-01-27T22:15:00Z,45.3725,-94.7388,1,-3,290,15,22,10+,29.72,,,TRUE,TRUE,,,,,,,CLR,,,,,,,,VFR,,,,,,,,,,,,METAR,359
KPEQ 272215Z AUTO 09007KT 10SM BKN031 08/00 A3015 RMK AO2 T00760000,KPEQ,2025-01-27T22:15:00Z,31.382,-103.512,7.6,0,90,7,,10+,30.15,,,TRUE,TRUE,,,,,,,BKN,3100,,,,,,,VFR,,,,,,,,,,,,METAR,794
KPEA 272215Z AUTO 25013G21KT 10SM CLR 09/M13 A2983 RMK AO2 T00871127,KPEA,2025-01-27T22:15:00Z,41.3989,-92.9431,8.7,-12.7,250,13,21,10+,29.83,,,TRUE,TRUE,,,,,,,CLR,,,,,,,,VFR,,,,,,,,,,,,METAR,264
KPDC 272215Z AUTO 26017G27KT 10SM SCT025 BKN048 OVC055 05/M09 A2973 RMK AO2 T00511091,KPDC,2025-01-27T22:15:00Z,43.0194,-91.1212,5.1,-9.1,260,17,27,10+,29.73,,,TRUE,TRUE,,,,,,,SCT,2500,BKN,4800,OVC,5500,,,VFR,,,,,,,,,,,,METAR,201
KPCZ 272215Z AUTO 26015G28KT 10SM BKN024 OVC032 03/M03 A2956 RMK AO2 T00271030,KPCZ,2025-01-27T22:15:00Z,44.3342,-89.0203,2.7,-3,260,15,28,10+,29.56,,,TRUE,TRUE,,,,,,,BKN,2400,OVC,3200,,,,,MVFR,,,,,,,,,,,,METAR,248
KPCM 272215Z AUTO 29004KT 10SM CLR 23/08 A3013 RMK AO2,KPCM,2025-01-27T22:15:00Z,28.0013,-82.1593,23,8,290,4,,10+,30.13,,,TRUE,TRUE,,,,,,,CLR,,,,,,,,VFR,,,,,,,,,,,,METAR,43
KPCD 272215Z AUTO 27007KT 10SM CLR 07/M04 A3006 RMK AO2 T00691041 TSNO,KPCD,2025-01-27T22:15:00Z,37.8749,-89.8582,6.9,-4.1,270,7,,10+,30.06,,,TRUE,TRUE,,,TRUE,,,,CLR,,,,,,,,VFR,,,,,,,,,,,,METAR,112
KPBX 272215Z AUTO 23003KT 10SM CLR 07/M09 A2996 RMK AO2 T00691086,KPBX,2025-01-27T22:15:00Z,37.5587,-82.5674,6.9,-8.6,230,3,,10+,29.96,,,TRUE,TRUE,,,,,,,CLR,,,,,,,,VFR,,,,,,,,,,,,METAR,447
KPBH 272215Z AUTO 27006KT 10SM OVC033 M01/M08 A2953 RMK AO2 T10111085,KPBH,2025-01-27T22:15:00Z,45.7064,-90.4052,-1.1,-8.5,270,6,,10+,29.53,,,TRUE,TRUE,,,,,,,OVC,3300,,,,,,,VFR,,,,,,,,,,,,METAR,445
KPAN 272215Z AUTO 28007G14KT 1 1/4SM -SN BR SCT003 BKN016 OVC030 02/01 A3003 RMK AO2 VIS 1/2V5,KPAN,2025-01-27T22:15:00Z,34.2551,-111.338,2,1,280,7,14,1.25,30.03,,,TRUE,TRUE,,,,,,-SN BR,SCT,300,BKN,1600,OVC,3000,,,IFR,,,,,,,,,,,,METAR,1575
KOZW 272215Z AUTO 23019G25KT 10SM CLR 01/M10 A2958 RMK AO2 T00091097,KOZW,2025-01-27T22:15:00Z,42.6327,-83.9854,0.9,-9.7,230,19,25,10+,29.58,,,TRUE,TRUE,,,,,,,CLR,,,,,,,,VFR,,,,,,,,,,,,METAR,288
KOZS 272215Z AUTO 25010G17KT 10SM CLR 07/M09 A3007 RMK AO2,KOZS,2025-01-27T22:15:00Z,37.9745,-92.6897,7,-9,250,10,17,10+,30.07,,,TRUE,TRUE,,,,,,,CLR,,,,,,,,VFR,,,,,,,,,,,,METAR,321
KOZA 272215Z AUTO 07008KT 10SM SCT021 OVC029 06/M01 A3019 RMK AO2,KOZA,2025-01-27T22:15:00Z,30.7312,-101.203,6,-1,70,8,,10+,30.19,,,TRUE,TRUE,,,,,,,SCT,2100,OVC,2900,,,,,MVFR,,,,,,,,,,,,METAR,721
KOYM 272215Z AUTO 24011G19KT 10SM CLR M01/M14 A2972 RMK AO2 PWINO,KOYM,2025-01-27T22:15:00Z,41.4118,-78.5131,-1,-14,240,11,19,10+,29.72,,,TRUE,TRUE,,,,,TRUE,,CLR,,,,,,,,VFR,,,,,,,,,,,,METAR,582
KOYE 272215Z AUTO 23004KT 9SM CLR 18/16 A3010 RMK A01,KOYE,2025-01-27T22:15:00Z,28.8669,-90.4911,18,16,230,4,,9,30.10,,,TRUE,TRUE,,,,,,,CLR,,,,,,,,VFR,,,,,,,,,,,,METAR,30
KOXV 272215Z AUTO 24016G22KT 10SM FEW150 09/M13 A2983 RMK AO2,KOXV,2025-01-27T22:15:00Z,41.2984,-93.1114,9,-13,240,16,22,10+,29.83,,,TRUE,TRUE,,,,,,,FEW,15000,,,,,,,VFR,,,,,,,,,,,,METAR,280
KOXD 272215Z AUTO 24012KT 10SM CLR 02/M11 A2992 RMK AO2 T00151110,KOXD,2025-01-27T22:15:00Z,39.5047,-84.7838,1.5,-11,240,12,,10+,29.92,,,TRUE,TRUE,,,,,,,CLR,,,,,,,,VFR,,,,,,,,,,,,METAR,317
KOWX 272215Z AUTO 22017G26KT 10SM CLR 00/M07 A2978 RMK AO2 PK WND 22028/51,KOWX,2025-01-27T22:15:00Z,41.0341,-83.9862,0,-7,220,17,26,10+,29.78,,,TRUE,TRUE,,,,,,,CLR,,,,,,,,VFR,,,,,,,,,,,,METAR,232
KOWP 272215Z AUTO 27005KT 10SM CLR 11/M12 A3019 RMK AO2 T01061120,KOWP,2025-01-27T22:15:00Z,36.1721,-96.1536,10.6,-12,270,5,,10+,30.19,,,TRUE,TRUE,,,,,,,CLR,,,,,,,,VFR,,,,,,,,,,,,METAR,267
KOWA 272215Z AUTO 28013KT 8SM BKN090 OVC150 02/M08 A2970 RMK AO2 T00221083,KOWA,2025-01-27T22:15:00Z,44.1191,-93.2569,2.2,-8.3,280,13,,8,29.70,,,TRUE,TRUE,,,,,,,BKN,9000,OVC,15000,,,,,VFR,,,,,,,,,,,,METAR,345
KOSC 272215Z AUTO 25022G29KT 10SM FEW045 SCT065 BKN090 02/M05 A2935 RMK AO2 PK WND 25037/55,KOSC,2025-01-27T22:15:00Z,44.453,-83.396,2,-5,250,22,29,10+,29.35,,,TRUE,TRUE,,,,,,,FEW,4500,SCT,6500,BKN,9000,,,VFR,,,,,,,,,,,,METAR,191
KORS 272215Z AUTO VRB03KT 06/04 A3036 RMK AO2,KORS,2025-01-27T22:15:00Z,48.7081,-122.909,6,4,VRB,3,,,30.36,,,TRUE,TRUE,,,,,,,,,,,,,,,,,,,,,,,,,,,METAR,7
KORK 272215Z AUTO 00000G10KT 10SM CLR 11/M05 A3015 RMK AO2,KORK,2025-01-27T22:15:00Z,34.833,-92.2557,11,-5,0,0,10,10+,30.15,,,TRUE,TRUE,,,,,,,CLR,,,,,,,,VFR,,,,,,,,,,,,METAR,166
KORG 272215Z AUTO 01005KT 10SM BKN013 OVC060 14/10 A3017 RMK AO2 T01350101 PWINO,KORG,2025-01-27T22:15:00Z,30.068,-93.8043,13.5,10.1,10,5,,10+,30.17,,,TRUE,TRUE,,,,,TRUE,,BKN,1300,OVC,6000,,,,,MVFR,,,,,,,,,,,,METAR,2
KOQN 272215Z AUTO 22004KT 10SM CLR 04/M11 A2982 RMK AO2,KOQN,2025-01-27T22:15:00Z,39.9889,-75.5803,4,-11,220,4,,10+,29.82,,,TRUE,TRUE,,,,,,,CLR,,,,,,,,VFR,,,,,,,,,,,,METAR,141
KOPN 272215Z AUTO 25003KT 10SM OVC003 10/09 A3006 RMK AO2,KOPN,2025-01-27T22:15:00Z,32.954,-84.2595,10,9,250,3,,10+,30.06,,,TRUE,TRUE,,,,,,,OVC,300,,,,,,,LIFR,,,,,,,,,,,,METAR,241
KOPL 272215Z AUTO 02010KT 10SM OVC012 12/09 A3016 RMK AO2 T01200091,KOPL,2025-01-27T22:15:00Z,30.5643,-92.1021,12,9.1,20,10,,10+,30.16,,,TRUE,TRUE,,,,,,,OVC,1200,,,,,,,MVFR,,,,,,,,,,,,METAR,22
KOOA 272215Z AUTO 25018KT 10SM CLR 09/M11 A2983 RMK AO2 T00901106,KOOA,2025-01-27T22:15:00Z,41.2273,-92.4919,9,-10.6,250,18,,10+,29.83,,,TRUE,TRUE,,,,,,,CLR,,,,,,,,VFR,,,,,,,,,,,,METAR,256
KONZ 272215Z AUTO 23014G26KT 10SM CLR 02/M10 A2963 RMK AO2 PK WND 23029/29,KONZ,2025-01-27T22:15:00Z,42.0991,-83.161,2,-10,230,14,26,10+,29.63,,,TRUE,TRUE,,,,,,,CLR,,,,,,,,VFR,,,,,,,,,,,,METAR,179
KONP 272215Z AUTO 33003KT 10SM CLR 12/M01 A3026 RMK AO2,KONP,2025-01-27T22:15:00Z,44.5825,-124.057,12,-1,330,3,,10+,30.26,,,TRUE,TRUE,,,,,,,CLR,,,,,,,,VFR,,,,,,,,,,,,METAR,43
KONM 272215Z AUTO 19015G20KT 10SM CLR 16/M09 A2996 RMK AO2 T01611092,KONM,2025-01-27T22:15:00Z,34.0263,-106.904,16.1,-9.2,190,15,20,10+,29.96,,,TRUE,TRUE,,,,,,,CLR,,,,,,,,VFR,,,,,,,,,,,,METAR,1467
KONL 272215Z AUTO 32013KT 10SM CLR 08/M06 A2989 RMK AO2 T00811061,KONL,2025-01-27T22:15:00Z,42.4691,-98.6903,8.1,-6.1,320,13,,10+,29.89,,,TRUE,TRUE,,,,,,,CLR,,,,,,,,VFR,,,,,,,,,,,,METAR,619
KOMH 272215Z AUTO 22005KT 10SM CLR 07/M05 A2988 RMK AO2,KOMH,2025-01-27T22:15:00Z,38.2487,-78.0454,7,-5,220,5,,10+,29.88,,,TRUE,TRUE,,,,,,,CLR,,,,,,,,VFR,,,,,,,,,,,,METAR,136
KOLZ 272215Z AUTO 29025G30KT 10SM SCT048 06/M11 A2975 RMK A01,KOLZ,2025-01-27T22:15:00Z,42.6831,-91.976,6,-11,290,25,30,10+,29.75,,,TRUE,TRUE,,,,,,,SCT,4800,,,,,,,VFR,,,,,,,,,,,,METAR,328
KOLG 272215Z AUTO 30009G22KT 10SM BKN035 OVC042 01/M06 A2960 RMK AO1,KOLG,2025-01-27T22:15:00Z,46.3153,-91.8183,1,-6,300,9,22,10+,29.60,,,TRUE,TRUE,,,,,,,BKN,3500,OVC,4200,,,,,VFR,,,,,,,,,,,,METAR,334
KOLE 272215Z AUTO 21012G19KT 10SM CLR M03/M16 A2958 RMK AO2,KOLE,2025-01-27T22:15:00Z,42.2429,-78.3721,-3,-16,210,12,19,10+,29.58,,,TRUE,TRUE,,,,,,,CLR,,,,,,,,VFR,,,,,,,,,,,,METAR,651
KOKV 272215Z AUTO 25005KT 10SM CLR 06/M08 A2983 RMK AO2,KOKV,2025-01-27T22:15:00Z,39.1406,-78.1391,6,-8,250,5,,10+,29.83,,,TRUE,TRUE,,,,,,,CLR,,,,,,,,VFR,,,,,,,,,,,,METAR,213
KOKM 272215Z AUTO 25004KT 10SM CLR 10/M09 A3017 RMK AO2 T01001095,KOKM,2025-01-27T22:15:00Z,35.6713,-95.9514,10,-9.5,250,4,,10+,30.17,,,TRUE,TRUE,,,,,,,CLR,,,,,,,,VFR,,,,,,,,,,,,METAR,215
KOJA 272215Z AUTO 24008KT 10SM CLR 09/M09 A3015 RMK AO2 PWINO TSNO T00941093,KOJA,2025-01-27T22:15:00Z,35.5484,-98.6702,9.4,-9.3,240,8,,10+,30.15,,,TRUE,TRUE,,,TRUE,,TRUE,,CLR,,,,,,,,VFR,,,,,,,,,,,,METAR,490
KOIN 272215Z AUTO 30014KT 10SM CLR 14/M11 A2998 RMK AO2,KOIN,2025-01-27T22:15:00Z,39.8298,-100.538,14,-11,300,14,,10+,29.98,,,TRUE,TRUE,,,,,,,CLR,,,,,,,,VFR,,,,,,,,,,,,METAR,810
KOIC 272215Z AUTO 18011G17KT 10SM CLR 01/M15 A2960 RMK AO2,KOIC,2025-01-27T22:15:00Z,42.5642,-75.5269,1,-15,180,11,17,10+,29.60,,,TRUE,TRUE,,,,,,,CLR,,,,,,,,VFR,,,,,,,,,,,,METAR,311
KOGS 272215Z AUTO 22024G34KT 10SM OVC100 01/M11 A2934 RMK AO2,KOGS,2025-01-27T22:15:00Z,44.68,-75.4641,1,-11,220,24,34,10+,29.34,,,TRUE,TRUE,,,,,,,OVC,10000,,,,,,,VFR,,,,,,,,,,,,METAR,88
KOGA 272215Z AUTO 29013G18KT 10SM CLR 12/M10 A2999 RMK AO2 T01151100,KOGA,2025-01-27T22:15:00Z,41.1164,-101.768,11.5,-10,290,13,18,10+,29.99,,,TRUE,TRUE,,,,,,,CLR,,,,,,,,VFR,,,,,,,,,,,,METAR,991
KOEO 272215Z AUTO 28008KT 10SM CLR 02/M07 A2969 RMK AO2 T00201070 PWINO,KOEO,2025-01-27T22:15:00Z,45.3108,-92.6948,2,-7,280,8,,10+,29.69,,,TRUE,TRUE,,,,,TRUE,,CLR,,,,,,,,VFR,,,,,,,,,,,,METAR,269
KOEL 272215Z AUTO 34010KT 10SM CLR 14/M27 A3000 RMK AO1 T01411267,KOEL,2025-01-27T22:15:00Z,39.1139,-100.819,14.1,-26.7,340,10,,10+,30.00,,,TRUE,TRUE,,,,,,,CLR,,,,,,,,VFR,,,,,,,,,,,,METAR,924
KOEB 272215Z AUTO 24019G24KT 10SM CLR 03/M09 A2965 RMK AO2 PK WND 23026/02,KOEB,2025-01-27T22:15:00Z,41.9308,-85.0544,3,-9,240,19,24,10+,29.65,,,TRUE,TRUE,,,,,,,CLR,,,,,,,,VFR,,,,,,,,,,,,METAR,291
KOCQ 272215Z AUTO 27016G26KT 10SM OVC060 02/M08 A2949 RMK AO1 T00201081,KOCQ,2025-01-27T22:15:00Z,44.8749,-87.9084,2,-8.1,270,16,26,10+,29.49,,,TRUE,TRUE,,,,,,,OVC,6000,,,,,,,VFR,,,,,,,,,,,,METAR,181
KOBE 272215Z AUTO 20005KT 10SM CLR 23/12 A3009 RMK AO2,KOBE,2025-01-27T22:15:00Z,27.2663,-80.8487,23,12,200,5,,10+,30.09,,,TRUE,TRUE,,,,,,,CLR,,,,,,,,VFR,,,,,,,,,,,,METAR,11
KOAR 272215Z AUTO 30006KT 10SM CLR 13/00 A3014 RMK AO2,KOAR,2025-01-27T22:15:00Z,36.6815,-121.757,13,0,300,6,,10+,30.14,,,TRUE,TRUE,,,,,,,CLR,,,,,,,,VFR,,,,,,,,,,,,METAR,41
KO32 272215Z AUTO 17006KT CLR 12/04 A3013 RMK AO2 T01180045 PWINO $,KO32,2025-01-27T22:15:00Z,36.6691,-119.453,11.8,4.5,170,6,,,30.13,,,TRUE,TRUE,TRUE,,,,TRUE,,CLR,,,,,,,,,,,,,,,,,,,,METAR,117
KO22 272215Z AUTO 21005KT 10SM CLR 11/01 A3010 RMK A01,KO22,2025-01-27T22:15:00Z,38.03,-120.415,11,1,210,5,,10+,30.10,,,TRUE,TRUE,,,,,,,CLR,,,,,,,,VFR,,,,,,,,,,,,METAR,637
KNY0 272215Z AUTO 23012G22KT 10SM CLR 00/M14 A2957 RMK AO2 T00001137,KNY0,2025-01-27T22:15:00Z,42.999,-74.3292,0,-13.7,230,12,22,10+,29.57,,,TRUE,TRUE,,,,,,,CLR,,,,,,,,VFR,,,,,,,,,,,,METAR,266
KNRN 272215Z AUTO 29013KT 10SM CLR 14/M14 A2997 RMK AO2,KNRN,2025-01-27T22:15:00Z,39.8497,-99.8915,14,-14,290,13,,10+,29.97,,,TRUE,TRUE,,,,,,,CLR,,,,,,,,VFR,,,,,,,,,,,,METAR,726
KN79 272215Z AUTO 22005KT 10SM CLR 01/M13 A2974 RMK AO2 T00141130,KN79,2025-01-27T22:15:00Z,40.8371,-76.546,1.4,-13,220,5,,10+,29.74,,,TRUE,TRUE,,,,,,,CLR,,,,,,,,VFR,,,,,,,,,,,,METAR,269
KN38 272215Z AUTO 22017G25KT 10SM CLR M01/M15 A2962 RMK AO2,KN38,2025-01-27T22:15:00Z,41.7287,-77.3958,-1,-15,220,17,25,10+,29.62,,,TRUE,TRUE,,,,,,,CLR,,,,,,,,VFR,,,,,,,,,,,,METAR,576
KN24 272215Z AUTO 21010G16KT 10SM CLR 09/M19 A3005 RMK AO2 T00871186,KN24,2025-01-27T22:15:00Z,36.8001,-105.598,8.7,-18.6,210,10,16,10+,30.05,,,TRUE,TRUE,,,,,,,CLR,,,,,,,,VFR,,,,,,,,,,,,METAR,2347
KN03 272215Z AUTO 22014G19KT 10SM CLR 00/M14 A2959 RMK AO2,KN03,2025-01-27T22:15:00Z,42.5929,-76.2174,0,-14,220,14,19,10+,29.59,,,TRUE,TRUE,,,,,,,CLR,,,,,,,,VFR,,,,,,,,,,,,METAR,361
KMZZ 272215Z AUTO 23020G25KT 10SM CLR 01/M08 A2985 RMK AO2 T00101077,KMZZ,2025-01-27T22:15:00Z,40.4863,-85.6859,1,-7.7,230,20,25,10+,29.85,,,TRUE,TRUE,,,,,,,CLR,,,,,,,,VFR,,,,,,,,,,,,METAR,260
KMZH 272215Z AUTO 33014G23KT 292V002 10SM OVC032 01/M05 A2964 RMK AO2,KMZH,2025-01-27T22:15:00Z,46.4163,-92.8049,1,-5,330,14,23,10+,29.64,,,TRUE,TRUE,,,,,,,OVC,3200,,,,,,,VFR,,,,,,,,,,,,METAR,331
KMYZ 272215Z AUTO 23013G20KT 10SM CLR 04/M05 A2999 RMK AO2,KMYZ,2025-01-27T22:15:00Z,39.8544,-96.6279,4,-5,230,13,20,10+,29.99,,,TRUE,TRUE,,,,,,,CLR,,,,,,,,VFR,,,,,,,,,,,,METAR,388
KMYR 272215Z 20008KT 10SM -RA OVC028 08/07 A3005 RMK AO2 RAB15 P0000,KMYR,2025-01-27T22:15:00Z,33.6769,-78.9325,8,7,200,8,,10+,30.05,,,,TRUE,,,,,,-RA,OVC,2800,,,,,,,MVFR,,,,,,0.005,,,,,,SPECI,7
KMYJ 272215Z AUTO 24015G19KT 10SM CLR 05/M04 A2999 RMK AO2,KMYJ,2025-01-27T22:15:00Z,39.1561,-91.8129,5,-4,240,15,19,10+,29.99,,,TRUE,TRUE,,,,,,,CLR,,,,,,,,VFR,,,,,,,,,,,,METAR,249
KMXO 272215Z AUTO 25013KT 10SM CLR 06/M07 A2973 RMK AO2,KMXO,2025-01-27T22:15:00Z,42.2203,-91.1604,6,-7,250,13,,10+,29.73,,,TRUE,TRUE,,,,,,,CLR,,,,,,,,VFR,,,,,,,,,,,,METAR,251
KMWO 272215Z AUTO 23015G19KT 10SM CLR 02/M11 A2995 RMK AO2,KMWO,2025-01-27T22:15:00Z,39.5324,-84.3973,2,-11,230,15,19,10+,29.95,,,TRUE,TRUE,,,,,,,CLR,,,,,,,,VFR,,,,,,,,,,,,METAR,197
KMWM 272215Z AUTO 28014KT 10SM SCT095 OVC110 04/M08 A2975 RMK AO2,KMWM,2025-01-27T22:15:00Z,43.91,-95.1073,4,-8,280,14,,10+,29.75,,,TRUE,TRUE,,,,,,,SCT,9500,OVC,11000,,,,,VFR,,,,,,,,,,,,METAR,427
KMVE 272215Z AUTO 32011G20KT 10SM CLR 03/M03 A2978 RMK AO2,KMVE,2025-01-27T22:15:00Z,44.9675,-95.7116,3,-3,320,11,20,10+,29.78,,,TRUE,TRUE,,,,,,,CLR,,,,,,,,VFR,,,,,,,,,,,,METAR,319
KMUT 272215Z AUTO 24015G25KT 10SM CLR 08/M10 A2981 RMK AO2,KMUT,2025-01-27T22:15:00Z,41.367,-91.1406,8,-10,240,15,25,10+,29.81,,,TRUE,TRUE,,,,,,,CLR,,,,,,,,VFR,,,,,,,,,,,,METAR,166
KMTV 272215Z AUTO 21004KT 10SM SCT050 OVC080 10/M03 A2995 RMK AO2 T00951031,KMTV,2025-01-27T22:15:00Z,36.6272,-80.0134,9.5,-3.1,210,4,,10+,29.95,,,TRUE,TRUE,,,,,,,SCT,5000,OVC,8000,,,,,VFR,,,,,,,,,,,,METAR,276
KMTK 272215Z AUTO 29005KT CLR 20/16 A3010 RMK A01,KMTK,2025-01-27T22:15:00Z,28.6967,-89.3958,20,16,290,5,,,30.10,,,TRUE,TRUE,,,,,,,CLR,,,,,,,,,,,,,,,,,,,,METAR,50
KMRT 272215Z AUTO 24009KT 10SM CLR 00/M11 A2988 RMK AO2 T10031114,KMRT,2025-01-27T22:15:00Z,40.2237,-83.3475,-0.3,-11.4,240,9,,10+,29.88,,,TRUE,TRUE,,,,,,,CLR,,,,,,,,VFR,,,,,,,,,,,,METAR,302
KMRJ 272215Z AUTO 28027G36KT 10SM CLR 04/M08 RMK AO2 PWINO,KMRJ,2025-01-27T22:15:00Z,42.8875,-90.2315,4,-8,280,27,36,10+,0.00,,,TRUE,TRUE,,,,,TRUE,,CLR,,,,,,,,VFR,,,,,,,,,,,,METAR,350
KMQS 272215Z AUTO 00000KT 10SM CLR 04/M12 A2982 RMK AO2,KMQS,2025-01-27T22:15:00Z,39.9773,-75.8605,4,-12,0,0,,10+,29.82,,,TRUE,TRUE,,,,,,,CLR,,,,,,,,VFR,,,,,,,,,,,,METAR,200
KMQJ 272215Z AUTO 24018G26KT 10SM CLR 01/M09 A2991 RMK AO2 PK WND 25026/2211 T00111090 $,KMQJ,2025-01-27T22:15:00Z,39.8402,-85.894,1.1,-9,240,18,26,10+,29.91,,,TRUE,TRUE,TRUE,,,,,,CLR,,,,,,,,VFR,,,,,,,,,,,,METAR,262
KMQB 272215Z AUTO 25018G27KT 10SM CLR 07/M07 A2988 RMK AO2 T00671073,KMQB,2025-01-27T22:15:00Z,40.5176,-90.6481,6.7,-7.3,250,18,27,10+,29.88,,,TRUE,TRUE,,,,,,,CLR,,,,,,,,VFR,,,,,,,,,,,,METAR,205
KMPZ 272215Z AUTO 25020G23KT 10SM CLR 07/M11 A2984 RMK AO2,KMPZ,2025-01-27T22:15:00Z,40.9453,-91.5122,7,-11,250,20,23,10+,29.84,,,TRUE,TRUE,,,,,,,CLR,,,,,,,,VFR,,,,,,,,,,,,METAR,222
KMPR 272215Z AUTO 21008KT 10SM CLR 07/M01 A3005 RMK AO2 T00671014,KMPR,2025-01-27T22:15:00Z,38.3491,-97.6883,6.7,-1.4,210,8,,10+,30.05,,,TRUE,TRUE,,,,,,,CLR,,,,,,,,VFR,,,,,,,,,,,,METAR,455
KMPE 272215Z AUTO 35005KT 10SM OVC009 A3014 RMK AO2,KMPE,2025-01-27T22:15:00Z,32.7975,-89.125,,,350,5,,10+,30.14,,,TRUE,TRUE,,,,,,,OVC,900,,,,,,,IFR,,,,,,,,,,,,METAR,134
KMOX 272215Z AUTO 32014G20KT 10SM CLR 02/M02 A2975 RMK AO2 TSNO,KMOX,2025-01-27T22:15:00Z,45.5677,-95.9659,2,-2,320,14,20,10+,29.75,,,TRUE,TRUE,,,TRUE,,,,CLR,,,,,,,,VFR,,,,,,,,,,,,METAR,346
KMOP 272215Z AUTO 25027G38KT 5SM HZ SCT027 BKN035 OVC055 01/M06 A2951 RMK AO2 T00101056,KMOP,2025-01-27T22:15:00Z,43.6229,-84.743,1,-5.6,250,27,38,5,29.51,,,TRUE,TRUE,,,,,,HZ,SCT,2700,BKN,3500,OVC,5500,,,MVFR,,,,,,,,,,,,METAR,229
KMNI 272215Z AUTO 21004KT 10SM 08/07 A3004 RMK AO2,KMNI,2025-01-27T22:15:00Z,33.5882,-80.2059,8,7,210,4,,10+,30.04,,,TRUE,TRUE,,,,,,,,,,,,,,,VFR,,,,,,,,,,,,METAR,29
KMNH 272215Z AUTO 09003KT 10SM CLR 05/M10 A3006 RMK AO2,KMNH,2025-01-27T22:15:00Z,39.2232,-104.642,5,-10,90,3,,10+,30.06,,,TRUE,TRUE,,,,,,,CLR,,,,,,,,VFR,,,,,,,,,,,,METAR,2152
KMNE 272215Z AUTO 00000KT 10SM CLR 13/02 A3019 RMK AO2,KMNE,2025-01-27T22:15:00Z,32.6433,-93.2972,13,2,0,0,,10+,30.19,,,TRUE,TRUE,,,,,,,CLR,,,,,,,,VFR,,,,,,,,,,,,METAR,84
KMMH 272215Z AUTO 25010KT 10SM FEW036 M01/M08 A3010 RMK AO2,KMMH,2025-01-27T22:15:00Z,37.6253,-118.838,-1,-8,250,10,,10+,30.10,,,TRUE,TRUE,,,,,,,FEW,3600,,,,,,,VFR,,,,,,,,,,,,METAR,2167
KMLJ 272215Z AUTO 00000KT 10SM OVC007 10/10 A3004 RMK AO2,KMLJ,2025-01-27T22:15:00Z,33.153,-83.242,10,10,0,0,,10+,30.04,,,TRUE,TRUE,,,,,,,OVC,700,,,,,,,IFR,,,,,,,,,,,,METAR,115
KMLE 272215Z AUTO 28012G15KT 10SM CLR 11/M13 A2989 RMK AO2 T01101126,KMLE,2025-01-27T22:15:00Z,41.1981,-96.1131,11,-12.6,280,12,15,10+,29.89,,,TRUE,TRUE,,,,,,,CLR,,,,,,,,VFR,,,,,,,,,,,,METAR,318
KMKS 272215Z AUTO 22004KT 10SM BKN028 BKN034 OVC060 09/08 A3006 RMK AO2,KMKS,2025-01-27T22:15:00Z,33.1874,-80.0363,9,8,220,4,,10+,30.06,,,TRUE,TRUE,,,,,,,BKN,2800,BKN,3400,OVC,6000,,,MVFR,,,,,,,,,,,,METAR,22
KMKN 272215Z AUTO 00000KT 10SM BKN029 BKN038 OVC075 10/M05 A3020 RMK AO2 T01021046,KMKN,2025-01-27T22:15:00Z,31.924,-98.5978,10.2,-4.6,0,0,,10+,30.20,,,TRUE,TRUE,,,,,,,BKN,2900,BKN,3800,OVC,7500,,,MVFR,,,,,,,,,,,,METAR,428
KMKJ 272215Z AUTO 25013G17KT 10SM OVC009 02/00 A2996 RMK AO2 T00150002,KMKJ,2025-01-27T22:15:00Z,36.8944,-81.3449,1.5,0.2,250,13,17,10+,29.96,,,TRUE,TRUE,,,,,,,OVC,900,,,,,,,IFR,,,,,,,,,,,,METAR,777
KMJD 272215Z AUTO 01007KT 10SM OVC014 16/13 A3011 RMK AO2,KMJD,2025-01-27T22:15:00Z,30.494,-89.6535,16,13,10,7,,10+,30.11,,,TRUE,TRUE,,,,,,,OVC,1400,,,,,,,MVFR,,,,,,,,,,,,METAR,17
KMHL 272215Z AUTO 24013G19KT 10SM CLR 06/M03 A3002 RMK AO2,KMHL,2025-01-27T22:15:00Z,39.093,-93.2024,6,-3,240,13,19,10+,30.02,,,TRUE,TRUE,,,,,,,CLR,,,,,,,,VFR,,,,,,,,,,,,METAR,236
KMGR 272215Z AUTO 00000KT 2 1/2SM -RA BR FEW045 OVC060 12/12 A3009 RMK AO2 P0003 T01210121 $,KMGR,2025-01-27T22:15:00Z,31.0835,-83.8035,12.1,12.1,0,0,,2.5,30.09,,,TRUE,TRUE,TRUE,,,,,-RA BR,FEW,4500,OVC,6000,,,,,IFR,,,,,,0.03,,,,,,METAR,86
KMGN 272215Z AUTO 24014G22KT 3/4SM -SN OVC012 00/M01 A2935 RMK AO2 T00001010,KMGN,2025-01-27T22:15:00Z,45.4241,-84.913,0,-1,240,14,22,0.75,29.35,,,TRUE,TRUE,,,,,,-SN,OVC,1200,,,,,,,LIFR,,,,,,,,,,,,METAR,205
KMGG 272215Z AUTO 28010G18KT 10SM CLR 03/M04 A2970 RMK AO2 T00251040,KMGG,2025-01-27T22:15:00Z,45.2354,-93.9896,2.5,-4,280,10,18,10+,29.70,,,TRUE,TRUE,,,,,,,CLR,,,,,,,,VFR,,,,,,,,,,,,METAR,310
KMGC 272215Z AUTO 23017G27KT 10SM CLR 04/M08 A2973 RMK AO2,KMGC,2025-01-27T22:15:00Z,41.7048,-86.8183,4,-8,230,17,27,10+,29.73,,,TRUE,TRUE,,,,,,,CLR,,,,,,,,VFR,,,,,,,,,,,,METAR,199
KMEZ 272215Z AUTO 29005KT 10SM CLR 12/M03 A3014 RMK AO2 T01211028 $,KMEZ,2025-01-27T22:15:00Z,34.5414,-94.1918,12.1,-2.8,290,5,,10+,30.14,,,TRUE,TRUE,TRUE,,,,,,CLR,,,,,,,,VFR,,,,,,,,,,,,METAR,320
KMDZ 272215Z AUTO 28014G21KT 10SM BKN021 M02/M07 A2955 RMK AO2 T10241071 PWINO,KMDZ,2025-01-27T22:15:00Z,45.1013,-90.3064,-2.4,-7.1,280,14,21,10+,29.55,,,TRUE,TRUE,,,,,TRUE,,BKN,2100,,,,,,,MVFR,,,,,,,,,,,,METAR,446
KMDS 272215Z AUTO 30015G20KT 10SM BKN100 05/M07 A2980 RMK AO2 TSNO,KMDS,2025-01-27T22:15:00Z,44.0141,-97.0817,5,-7,300,15,20,10+,29.80,,,TRUE,TRUE,,,TRUE,,,,BKN,10000,,,,,,,VFR,,,,,,,,,,,,METAR,524
KMDQ 272215Z AUTO 31003KT 10SM CLR 08/01 A3011 RMK A02 T00800012,KMDQ,2025-01-27T22:15:00Z,34.866,-86.559,8,1.2,310,3,,10+,30.11,,,TRUE,TRUE,,,,,,,CLR,,,,,,,,VFR,,,,,,,,,,,,METAR,221
KMDD 272215Z AUTO 12004KT 10SM OVC031 07/M07 A3015 RMK AO2 T00671073,KMDD,2025-01-27T22:15:00Z,32.0359,-102.1,6.7,-7.3,120,4,,10+,30.15,,,TRUE,TRUE,,,,,,,OVC,3100,,,,,,,VFR,,,,,,,,,,,,METAR,853
KMCJ 272215Z AUTO 36006KT 6SM BR BKN015 OVC029 13/11 A3013 RMK A01,KMCJ,2025-01-27T22:15:00Z,29.7139,-95.3967,13,11,360,6,,6,30.13,,,TRUE,TRUE,,,,,,BR,BKN,1500,OVC,2900,,,,,MVFR,,,,,,,,,,,,METAR,70
KMCD 272215Z AUTO 28019G28KT 4SM -SN HZ SCT028 OVC035 M00/M04 A2932 RMK AO2 PK WND 25031/41,KMCD,2025-01-27T22:15:00Z,45.866,-84.634,0,-4,280,19,28,4,29.32,,,TRUE,TRUE,,,,,,-SN HZ,SCT,2800,OVC,3500,,,,,MVFR,,,,,,,,,,,,METAR,228
KMBY 272215Z AUTO 24020G27KT 10SM CLR 06/M06 A2998 RMK AO2,KMBY,2025-01-27T22:15:00Z,39.464,-92.4244,6,-6,240,20,27,10+,29.98,,,TRUE,TRUE,,,,,,,CLR,,,,,,,,VFR,,,,,,,,,,,,METAR,263
KMBT 272215Z AUTO 26005KT 10SM 09/M12 A3006 RMK A01,KMBT,2025-01-27T22:15:00Z,35.8767,-86.3793,9,-12,260,5,,10+,30.06,,,TRUE,TRUE,,,,,,,,,,,,,,,VFR,,,,,,,,,,,,METAR,187
KMAW 272215Z AUTO 23009KT 10SM CLR 07/M08 A3013 RMK AO1,KMAW,2025-01-27T22:15:00Z,36.5945,-89.9865,7,-8,230,9,,10+,30.13,,,TRUE,TRUE,,,,,,,CLR,,,,,,,,VFR,,,,,,,,,,,,METAR,88
KMAO 272215Z AUTO 20007KT 10SM OVC004 08/08 A3002 RMK AO2,KMAO,2025-01-27T22:15:00Z,34.1852,-79.3341,8,8,200,7,,10+,30.02,,,TRUE,TRUE,,,,,,,OVC,400,,,,,,,LIFR,,,,,,,,,,,,METAR,27
KMAN 272215Z AUTO 00000KT 10SM CLR 02/M12 A3034 RMK A01,KMAN,2025-01-27T22:15:00Z,43.582,-116.521,2,-12,0,0,,10+,30.34,,,TRUE,TRUE,,,,,,,CLR,,,,,,,,VFR,,,,,,,,,,,,METAR,773
KM91 272215Z AUTO 26006KT 10SM 07/M10 A3006 RMK A01,KM91,2025-01-27T22:15:00Z,36.5363,-86.919,7,-10,260,6,,10+,30.06,,,TRUE,TRUE,,,,,,,,,,,,,,,VFR,,,,,,,,,,,,METAR,214
KM75 272215Z AUTO 28017KT 10SM CLR 05/M05 A2998 RMK A01,KM75,2025-01-27T22:15:00Z,48.3686,-107.919,5,-5,280,17,,10+,29.98,,,TRUE,TRUE,,,,,,,CLR,,,,,,,,VFR,,,,,,,,,,,,METAR,687
KM40 272215Z AUTO 32006KT 10SM CLR 12/03 A3016 RMK AO2,KM40,2025-01-27T22:15:00Z,33.8755,-88.4872,12,3,320,6,,10+,30.16,,,TRUE,TRUE,,,,,,,CLR,,,,,,,,VFR,,,,,,,,,,,,METAR,68
KM30 272215Z AUTO 22006KT 10SM CLR 05/M09 A3011 RMK AO2 T00521095,KM30,2025-01-27T22:15:00Z,37.1824,-88.7487,5.2,-9.5,220,6,,10+,30.11,,,TRUE,TRUE,,,,,,,CLR,,,,,,,,VFR,,,,,,,,,,,,METAR,116
KM25 272215Z AUTO 26009KT 10SM CLR 06/M11 A3011 RMK AO2 T00581109,KM25,2025-01-27T22:15:00Z,36.764,-88.5829,5.8,-10.9,260,9,,10+,30.11,,,TRUE,TRUE,,,,,,,CLR,,,,,,,,VFR,,,,,,,,,,,,METAR,157
KM21 272215Z AUTO 29007KT 10SM CLR 07/M12 A3009 RMK AO2 T00671123,KM21,2025-01-27T22:15:00Z,37.2291,-87.1542,6.7,-12.3,290,7,,10+,30.09,,,TRUE,TRUE,,,,,,,CLR,,,,,,,,VFR,,,,,,,,,,,,METAR,127
KM02 272215Z AUTO VRB06G12KT 10SM CLR 08/M12 A3007 RMK A01,KM02,2025-01-27T22:15:00Z,36.1289,-87.4283,8,-12,VRB,6,12,10+,30.07,,,TRUE,TRUE,,,,,,,CLR,,,,,,,,VFR,,,,,,,,,,,,METAR,268
KM01 272215Z AUTO 31005KT 9SM CLR 08/M05 A3015 RMK AO2 T00801051 $,KM01,2025-01-27T22:15:00Z,35.2004,-90.0548,8,-5.1,310,5,,9,30.15,,,TRUE,TRUE,TRUE,,,,,,CLR,,,,,,,,VFR,,,,,,,,,,,,METAR,68
KLYO 272215Z AUTO 23011KT 10SM CLR 08/M03 A3004 RMK AO2 T00811031,KLYO,2025-01-27T22:15:00Z,38.343,-98.2266,8.1,-3.1,230,11,,10+,30.04,,,TRUE,TRUE,,,,,,,CLR,,,,,,,,VFR,,,,,,,,,,,,METAR,515
KLXY 272215Z AUTO 01003KT 10SM CLR 11/04 A3019 RMK AO2 T01070037 TSNO,KLXY,2025-01-27T22:15:00Z,31.6446,-96.5122,10.7,3.7,10,3,,10+,30.19,,,TRUE,TRUE,,,TRUE,,,,CLR,,,,,,,,VFR,,,,,,,,,,,,METAR,164
KLXN 272215Z AUTO 29016KT 10SM CLR 13/M13 A2995 RMK AO2 T01271127,KLXN,2025-01-27T22:15:00Z,40.7915,-99.775,12.7,-12.7,290,16,,10+,29.95,,,TRUE,TRUE,,,,,,,CLR,,,,,,,,VFR,,,,,,,,,,,,METAR,734
KLXL 272215Z AUTO 30011G19KT 10SM CLR 01/M03 A2969 RMK AO2,KLXL,2025-01-27T22:15:00Z,45.9509,-94.3441,1,-3,300,11,19,10+,29.69,,,TRUE,TRUE,,,,,,,CLR,,,,,,,,VFR,,,,,,,,,,,,METAR,335
KLWA 272215Z AUTO 23016G28KT 10SM BKN110 03/M08 A2965 RMK AO2 T00271079,KLWA,2025-01-27T22:15:00Z,42.3476,-86.2578,2.7,-7.9,230,16,28,10+,29.65,,,TRUE,TRUE,,,,,,,BKN,11000,,,,,,,VFR,,,,,,,,,,,,METAR,199
KLVN 272215Z AUTO 27011G18KT 10SM CLR 02/M06 A2969 RMK AO2,KLVN,2025-01-27T22:15:00Z,44.6252,-93.2273,2,-6,270,11,18,10+,29.69,,,TRUE,TRUE,,,,,,,CLR,,,,,,,,VFR,,,,,,,,,,,,METAR,292
KLVL 272215Z AUTO 20006KT 10SM BKN100 11/00 A2992 RMK AO1 T01110000,KLVL,2025-01-27T22:15:00Z,36.7723,-77.7925,11.1,0,200,6,,10+,29.92,,,TRUE,TRUE,,,,,,,BKN,10000,,,,,,,VFR,,,,,,,,,,,,METAR,98
KLUX 272215Z AUTO 22008KT 10SM OVC005 09/08 A2998 RMK AO2,KLUX,2025-01-27T22:15:00Z,34.508,-81.949,9,8,220,8,,10+,29.98,,,TRUE,TRUE,,,,,,,OVC,500,,,,,,,IFR,,,,,,,,,,,,METAR,213
KLUV 272215Z AUTO 16006KT 10SM OVC110 08/M08 A3014 RMK AO2,KLUV,2025-01-27T22:15:00Z,32.7481,-101.913,8,-8,160,6,,10+,30.14,,,TRUE,TRUE,,,,,,,OVC,11000,,,,,,,VFR,,,,,,,,,,,,METAR,910
KLUM 272215Z AUTO 27012KT 10SM CLR 02/M05 A2965 RMK AO2 T00181055 PWINO,KLUM,2025-01-27T22:15:00Z,44.8936,-91.8665,1.8,-5.5,270,12,,10+,29.65,,,TRUE,TRUE,,,,,TRUE,,CLR,,,,,,,,VFR,,,,,,,,,,,,METAR,271
KLUL 272215Z AUTO 33007KT 10SM OVC010 11/09 A3016 RMK A02 T01110095,KLUL,2025-01-27T22:15:00Z,31.6682,-89.1705,11.1,9.5,330,7,,10+,30.16,,,TRUE,TRUE,,,,,,,OVC,1000,,,,,,,MVFR,,,,,,,,,,,,METAR,74
KLUG 272215Z AUTO 29003KT 10SM CLR 09/M10 A3009 RMK A01,KLUG,2025-01-27T22:15:00Z,35.5082,-86.8055,9,-10,290,3,,10+,30.09,,,TRUE,TRUE,,,,,,,CLR,,,,,,,,VFR,,,,,,,,,,,,METAR,218
KLUD 272215Z AUTO 06003KT 10SM CLR 11/M09 A3018 RMK AO2 T01131094,KLUD,2025-01-27T22:15:00Z,33.2568,-97.5826,11.3,-9.4,60,3,,10+,30.18,,,TRUE,TRUE,,,,,,,CLR,,,,,,,,VFR,,,,,,,,,,,,METAR,319
KLUA 272215Z AUTO 21005KT 10SM 07/M06 A2984 RMK AO2,KLUA,2025-01-27T22:15:00Z,38.667,-78.501,7,-6,210,5,,10+,29.84,,,TRUE,TRUE,,,,,,,,,,,,,,,VFR,,,,,,,,,,,,METAR,273
KLRY 272215Z AUTO 27010G17KT 10SM CLR 08/M05 A3008 RMK AO2,KLRY,2025-01-27T22:15:00Z,38.6074,-94.3453,8,-5,270,10,17,10+,30.08,,,TRUE,TRUE,,,,,,,CLR,,,,,,,,VFR,,,,,,,,,,,,METAR,272
KLRU 272215Z AUTO 18015G20KT 10SM CLR 18/M09 A2999 RMK AO2 T01771091,KLRU,2025-01-27T22:15:00Z,32.2884,-106.913,17.7,-9.1,180,15,20,10+,29.99,,,TRUE,TRUE,,,,,,,CLR,,,,,,,,VFR,,,,,,,,,,,,METAR,1355
KLRO 272215Z AUTO 00000KT 10SM SCT034 BKN040 OVC050 09/09 A3005 RMK AO2,KLRO,2025-01-27T22:15:00Z,32.8982,-79.7796,9,9,0,0,,10+,30.05,,,TRUE,TRUE,,,,,,,SCT,3400,BKN,4000,OVC,5000,,,VFR,,,,,,,,,,,,METAR,3
KLRJ 272215Z AUTO 30014G21KT 10SM CLR 09/M11 A2981 RMK AO2,KLRJ,2025-01-27T22:15:00Z,42.7771,-96.195,9,-11,300,14,21,10+,29.81,,,TRUE,TRUE,,,,,,,CLR,,,,,,,,VFR,,,,,,,,,,,,METAR,363
KLQK 272215Z AUTO 23004KT 10SM OVC011 10/09 A2997 RMK AO2 T00960085,KLQK,2025-01-27T22:15:00Z,34.8069,-82.7047,9.6,8.5,230,4,,10+,29.97,,,TRUE,TRUE,,,,,,,OVC,1100,,,,,,,MVFR,,,,,,,,,,,,METAR,291
KLNP 272215Z AUTO 30007KT 10SM CLR 05/M06 A2995 RMK AO2,KLNP,2025-01-27T22:15:00Z,36.9884,-82.524,5,-6,300,7,,10+,29.95,,,TRUE,TRUE,,,,,,,CLR,,,,,,,,VFR,,,,,,,,,,,,METAR,817
KLNN 272215Z AUTO 24017G35KT 10SM CLR 01/M16 A2972 RMK AO1 T00051164,KLNN,2025-01-27T22:15:00Z,41.6839,-81.3896,0.5,-16.4,240,17,35,10+,29.72,,,TRUE,TRUE,,,,,,,CLR,,,,,,,,VFR,,,,,,,,,,,,METAR,190
KLNL 272215Z AUTO 30009G17KT 270V340 10SM OVC027 M01/M07 A2948 RMK AO2 T10121070,KLNL,2025-01-27T22:15:00Z,46.1515,-89.2108,-1.2,-7,300,9,17,10+,29.48,,,TRUE,TRUE,,,,,,,OVC,2700,,,,,,,MVFR,,,,,,,,,,,,METAR,517
KLNC 272215Z AUTO 00000KT 10SM CLR 10/02 A3020 RMK AO2 T01010020,KLNC,2025-01-27T22:15:00Z,32.5832,-96.7209,10.1,2,0,0,,10+,30.20,,,TRUE,TRUE,,,,,,,CLR,,,,,,,,VFR,,,,,,,,,,,,METAR,152
KLNA 272215Z AUTO 09006KT 10SM CLR 22/15 A3011 RMK AO2 T02230146,KLNA,2025-01-27T22:15:00Z,26.5925,-80.0848,22.3,14.6,90,6,,10+,30.11,,,TRUE,TRUE,,,,,,,CLR,,,,,,,,VFR,,,,,,,,,,,,METAR,3
KLMS 272215Z AUTO 27003KT 10SM BKN010 07/06 A3018 RMK AO2,KLMS,2025-01-27T22:15:00Z,33.15,-89.063,7,6,270,3,,10+,30.18,,,TRUE,TRUE,,,,,,,BKN,1000,,,,,,,MVFR,,,,,,,,,,,,METAR,169
KLMO 272215Z AUTO 00000KT 10SM CLR 06/M07 A3006 RMK AO2 T00611071,KLMO,2025-01-27T22:15:00Z,40.1612,-105.16,6.1,-7.1,0,0,,10+,30.06,,,TRUE,TRUE,,,,,,,CLR,,,,,,,,VFR,,,,,,,,,,,,METAR,1535
KLLN 272215Z AUTO 18009KT 10SM CLR 10/M09 A3012 RMK AO2,KLLN,2025-01-27T22:15:00Z,33.556,-102.375,10,-9,180,9,,10+,30.12,,,TRUE,TRUE,,,,,,,CLR,,,,,,,,VFR,,,,,,,,,,,,METAR,1071
KLKU 272215Z AUTO 23005KT 10SM CLR 09/M04 A2988 RMK AO2 T00921041,KLKU,2025-01-27T22:15:00Z,38.0085,-77.9681,9.2,-4.1,230,5,,10+,29.88,,,TRUE,TRUE,,,,,,,CLR,,,,,,,,VFR,,,,,,,,,,,,METAR,146
KLKR 272215Z AUTO 23007G12KT 10SM OVC005 09/08 A2997 RMK AO2,KLKR,2025-01-27T22:15:00Z,34.7266,-80.8532,9,8,230,7,12,10+,29.97,,,TRUE,TRUE,,,,,,,OVC,500,,,,,,,IFR,,,,,,,,,,,,METAR,166
KLJF 272215Z AUTO 29007G15KT 10SM CLR 02/M05 A2971 RMK AO2,KLJF,2025-01-27T22:15:00Z,45.0948,-94.5084,2,-5,290,7,15,10+,29.71,,,TRUE,TRUE,,,,,,,CLR,,,,,,,,VFR,,,,,,,,,,,,METAR,347
KLHB 272215Z AUTO 01006KT 10SM OVC075 14/08 A3017 RMK AO2,KLHB,2025-01-27T22:15:00Z,30.8693,-96.6207,14,8,10,6,,10+,30.17,,,TRUE,TRUE,,,,,,,OVC,7500,,,,,,,VFR,,,,,,,,,,,,METAR,83
KLGC 272215Z AUTO 29003KT 3SM -RA OVC005 11/10 A3007 RMK AO2 T01070102,KLGC,2025-01-27T22:15:00Z,33.0093,-85.0717,10.7,10.2,290,3,,3,30.07,,,TRUE,TRUE,,,,,,-RA,OVC,500,,,,,,,IFR,,,,,,,,,,,,METAR,209
KLDM 272215Z AUTO 26012G30KT 1 3/4SM -SN BKN040 OVC046 03/M04 A2952 RMK AO2 T00251042,KLDM,2025-01-27T22:15:00Z,43.9614,-86.4107,2.5,-4.2,260,12,30,1.75,29.52,,,TRUE,TRUE,,,,,,-SN,BKN,4000,OVC,4600,,,,,IFR,,,,,,,,,,,,METAR,194
KLDJ 272215Z AUTO 28008G14KT 10SM CLR 04/M15 A2982 RMK AO2 T00421152,KLDJ,2025-01-27T22:15:00Z,40.6162,-74.2451,4.2,-15.2,280,8,14,10+,29.82,,,TRUE,TRUE,,,,,,,CLR,,,,,,,,VFR,,,,,,,,,,,,METAR,6
KLCQ 272215Z AUTO 24005KT 10SM SCT100 19/10 A3009 RMK AO2,KLCQ,2025-01-27T22:15:00Z,30.1838,-82.5684,19,10,240,5,,10+,30.09,,,TRUE,TRUE,,,,,,,SCT,10000,,,,,,,VFR,,,,,,,,,,,,METAR,59
KLCG 272215Z AUTO 30016G23KT 10SM CLR 12/M09 A2985 RMK AO2 T01201093,KLCG,2025-01-27T22:15:00Z,42.2423,-96.983,12,-9.3,300,16,23,10+,29.85,,,TRUE,TRUE,,,,,,,CLR,,,,,,,,VFR,,,,,,,,,,,,METAR,434
KLBO 272215Z AUTO 26014KT 10SM CLR 07/M07 A3008 RMK AO2,KLBO,2025-01-27T22:15:00Z,37.6449,-92.6544,7,-7,260,14,,10+,30.08,,,TRUE,TRUE,,,,,,,CLR,,,,,,,,VFR,,,,,,,,,,,,METAR,399
KLAM 272215Z AUTO 18010KT 6SM HZ CLR 08/M11 A3002 RMK AO2 T00801114 $,KLAM,2025-01-27T22:15:00Z,35.8789,-106.262,8,-11.4,180,10,,6,30.02,,,TRUE,TRUE,TRUE,,,,,HZ,CLR,,,,,,,,VFR,,,,,,,,,,,,METAR,2166
KL35 272215Z AUTO 00000KT 5SM BR OVC004 M04/M04 A3000 RMK AO2,KL35,2025-01-27T22:15:00Z,34.2626,-116.855,-4,-4,0,0,,5,30.00,,,TRUE,TRUE,,,,,,BR,OVC,400,,,,,,,LIFR,,,,,,,,,,,,METAR,2062
KL18 272215Z AUTO 29008KT 7SM -RA SCT035 BKN041 OVC047 10/08 A3008 RMK AO2 P0003,KL18,2025-01-27T22:15:00Z,33.3551,-117.249,10,8,290,8,,7,30.08,,,TRUE,TRUE,,,,,,-RA,SCT,3500,BKN,4100,OVC,4700,,,VFR,,,,,,0.03,,,,,,METAR,215
KL08 272215Z AUTO 00000KT 10SM SCT090 BKN110 16/M01 A3002 RMK AO2,KL08,2025-01-27T22:15:00Z,33.2604,-116.323,16,-1,0,0,,10+,30.02,,,TRUE,TRUE,,,,,,,SCT,9000,BKN,11000,,,,,VFR,,,,,,,,,,,,METAR,156
KKY8 272215Z AUTO 24006KT 9SM CLR 04/ A3007 RMK A01,KKY8,2025-01-27T22:15:00Z,37.953,-86.8592,4,,240,6,,9,30.07,,,TRUE,TRUE,,,,,,,CLR,,,,,,,,VFR,,,,,,,,,,,,METAR,124
KKNB 272215Z AUTO 00000KT 10SM CLR 08/M13 A3001 RMK A01,KKNB,2025-01-27T22:15:00Z,37.0078,-112.53,8,-13,0,0,,10+,30.01,,,TRUE,TRUE,,,,,,,CLR,,,,,,,,VFR,,,,,,,,,,,,METAR,1476
KK88 272215Z AUTO 23016KT 10SM CLR 09/M07 A3008 RMK AO2,KK88,2025-01-27T22:15:00Z,37.8692,-95.384,9,-7,230,16,,10+,30.08,,,TRUE,TRUE,,,,,,,CLR,,,,,,,,VFR,,,,,,,,,,,,METAR,308
KK83 272215Z AUTO 23015G22KT 10SM CLR 04/M04 A2997 RMK AO2 T00351039,KK83,2025-01-27T22:15:00Z,39.9053,-95.7747,3.5,-3.9,230,15,22,10+,29.97,,,TRUE,TRUE,,,,,,,CLR,,,,,,,,VFR,,,,,,,,,,,,METAR,405
KK82 272215Z AUTO 26013G18KT 10SM CLR 14/M07 A2997 RMK AO2 T01411071,KK82,2025-01-27T22:15:00Z,39.7606,-98.7957,14.1,-7.1,260,13,18,10+,29.97,,,TRUE,TRUE,,,,,,,CLR,,,,,,,,VFR,,,,,,,,,,,,METAR,548
KK62 272215Z AUTO 25009KT 210V270 10SM CLR 02/M11 A2999 RMK AO2,KK62,2025-01-27T22:15:00Z,38.7018,-84.3964,2,-11,250,9,,10+,29.99,,,TRUE,TRUE,,,,,,,CLR,,,,,,,,VFR,,,,,,,,,,,,METAR,274
KJZI 272215Z AUTO 18004KT 10SM BKN037 BKN050 OVC070 09/07 A3007 RMK AO2,KJZI,2025-01-27T22:15:00Z,32.7025,-80.0058,9,7,180,4,,10+,30.07,,,TRUE,TRUE,,,,,,,BKN,3700,BKN,5000,OVC,7000,,,VFR,,,,,,,,,,,,METAR,5
KJYR 272215Z AUTO 28017KT 10SM UP CLR 12/M13 A2991 RMK AO2,KJYR,2025-01-27T22:15:00Z,40.8942,-97.6258,12,-13,280,17,,10+,29.91,,,TRUE,TRUE,,,,,,UP,CLR,,,,,,,,VFR,,,,,,,,,,,,METAR,508
KJYO 272215Z AUTO 24005KT 10SM CLR 07/M03 A2987 RMK AO2,KJYO,2025-01-27T22:15:00Z,39.0826,-77.5605,7,-3,240,5,,10+,29.87,,,TRUE,TRUE,,,,,,,CLR,,,,,,,,VFR,,,,,,,,,,,,METAR,112
KJYM 272215Z AUTO 23014G24KT 10SM CLR 02/M09 A2964 RMK AO2,KJYM,2025-01-27T22:15:00Z,41.9197,-84.5853,2,-9,230,14,24,10+,29.64,,,TRUE,TRUE,,,,,,,CLR,,,,,,,,VFR,,,,,,,,,,,,METAR,357
KJYL 272215Z AUTO 00000KT 2 1/2SM DZ SCT015 BKN025 OVC041 09/08 A3007 RMK AO2 T00870083,KJYL,2025-01-27T22:15:00Z,32.6459,-81.5894,8.7,8.3,0,0,,2.5,30.07,,,TRUE,TRUE,,,,,,DZ,SCT,1500,BKN,2500,OVC,4100,,,IFR,,,,,,,,,,,,METAR,54
KJYG 272215Z AUTO 30016G22KT 10SM FEW065 FEW075 OVC090 04/M08 A2975 RMK AO2,KJYG,2025-01-27T22:15:00Z,43.9855,-94.5527,4,-8,300,16,22,10+,29.75,,,TRUE,TRUE,,,,,,,FEW,6500,FEW,7500,OVC,9000,,,VFR,,,,,,,,,,,,METAR,323
KJWY 272215Z AUTO 00000KT 8SM CLR 10/M01 A3020 RMK AO2 T01021005,KJWY,2025-01-27T22:15:00Z,32.456,-96.914,10.2,-0.5,0,0,,8,30.20,,,TRUE,TRUE,,,,,,,CLR,,,,,,,,VFR,,,,,,,,,,,,METAR,211
KJWG 272215Z AUTO 22009KT 10SM CLR 10/M10 A3016 RMK AO2 T01001095,KJWG,2025-01-27T22:15:00Z,35.863,-98.423,10,-9.5,220,9,,10+,30.16,,,TRUE,TRUE,,,,,,,CLR,,,,,,,,VFR,,,,,,,,,,,,METAR,469
KJVY 272215Z 23009KT 10SM CLR 04/M09 A3001 RMK AO2 RW18/36 PLWD 80FT WIDE. 3FT BERMS ALL EDGES. RW INTC A6 CLOSED. RW 14/32 CLSD,KJVY,2025-01-27T22:15:00Z,38.3692,-85.7366,4,-9,230,9,,10+,30.01,,,,TRUE,,,,,,,CLR,,,,,,,,VFR,,,,,,,,,,,,METAR,141
KJVW 272215Z AUTO 02004KT 10SM OVC010 08/08 A3019 RMK AO2,KJVW,2025-01-27T22:15:00Z,32.3069,-90.412,8,8,20,4,,10+,30.19,,,TRUE,TRUE,,,,,,,OVC,1000,,,,,,,MVFR,,,,,,,,,,,,METAR,73
KJTC 272215Z AUTO 21018G29KT 10SM CLR 09/M20 A2996 RMK AO2,KJTC,2025-01-27T22:15:00Z,34.1292,-109.309,9,-20,210,18,29,10+,29.96,,,TRUE,TRUE,,,,,,,CLR,,,,,,,,VFR,,,,,,,,,,,,METAR,2148
KJSY 272215Z AUTO 00000KT 10SM CLR 03/M16 A3027 RMK AO2 T00281164,KJSY,2025-01-27T22:15:00Z,45.3556,-117.254,2.8,-16.4,0,0,,10+,30.27,,,TRUE,TRUE,,,,,,,CLR,,,,,,,,VFR,,,,,,,,,,,,METAR,1256
KJSV 272215Z AUTO 24007KT 10SM CLR 10/M09 A3018 RMK AO2,KJSV,2025-01-27T22:15:00Z,35.4381,-94.8012,10,-9,240,7,,10+,30.18,,,TRUE,TRUE,,,,,,,CLR,,,,,,,,VFR,,,,,,,,,,,,METAR,158
KJSO 272215Z AUTO 00000KT 10SM SCT150 11/06 A3016 RMK AO2 T01120063 $,KJSO,2025-01-27T22:15:00Z,31.869,-95.2145,11.2,6.3,0,0,,10+,30.16,,,TRUE,TRUE,TRUE,,,,,,SCT,15000,,,,,,,VFR,,,,,,,,,,,,METAR,204
KJRO 272215Z AUTO 21010KT 10SM CLR 03/M10 A2994 RMK AO2,KJRO,2025-01-27T22:15:00Z,38.9861,-82.5756,3,-10,210,10,,10+,29.94,,,TRUE,TRUE,,,,,,,CLR,,,,,,,,VFR,,,,,,,,,,,,METAR,224
KJPX 272215Z AUTO 24005G08KT 10SM CLR 01/M09 A2979 RMK AO2 T00101092 TSNO,KJPX,2025-01-27T22:15:00Z,40.9605,-72.2511,1,-9.2,240,5,8,10+,29.79,,,TRUE,TRUE,,,TRUE,,,,CLR,,,,,,,,VFR,,,,,,,,,,,,METAR,10
KJOT 272215Z AUTO 24016G23KT 10SM CLR 07/M10 A2976 RMK AO2 T00701098,KJOT,2025-01-27T22:15:00Z,41.5176,-88.179,7,-9.8,240,16,23,10+,29.76,,,TRUE,TRUE,,,,,,,CLR,,,,,,,,VFR,,,,,,,,,,,,METAR,175
KJMR 272215Z AUTO 31005KT 10SM CLR 03/M08 A2969 RMK AO2,KJMR,2025-01-27T22:15:00Z,45.8885,-93.269,3,-8,310,5,,10+,29.69,,,TRUE,TRUE,,,,,,,CLR,,,,,,,,VFR,,,,,,,,,,,,METAR,301
KJKJ 272215Z AUTO 33010KT 10SM SCT026 01/M03 A2982 RMK AO2,KJKJ,2025-01-27T22:15:00Z,46.8404,-96.6545,1,-3,330,10,,10+,29.82,,,TRUE,TRUE,,,,,,,SCT,2600,,,,,,,VFR,,,,,,,,,,,,METAR,280
KJHN 272215Z AUTO 29005KT 10SM CLR 12/M05 A3003 RMK AO2 T01211051,KJHN,2025-01-27T22:15:00Z,37.5782,-101.73,12.1,-5.1,290,5,,10+,30.03,,,TRUE,TRUE,,,,,,,CLR,,,,,,,,VFR,,,,,,,,,,,,METAR,1013
KJGG 272215Z AUTO 22004KT 10SM CLR 09/M01 A2989 RMK AO2 T00941008 $,KJGG,2025-01-27T22:15:00Z,37.24,-76.718,9.4,-0.8,220,4,,10+,29.89,,,TRUE,TRUE,TRUE,,,,,,CLR,,,,,,,,VFR,,,,,,,,,,,,METAR,13
KJFZ 272215Z AUTO 23004KT 10SM SCT047 A2993 RMK AO2,KJFZ,2025-01-27T22:15:00Z,37.0634,-81.7969,,,230,4,,10+,29.93,,,TRUE,TRUE,,,,,,,SCT,4700,,,,,,,VFR,,,,,,,,,,,,METAR,809
KJFX 272215Z AUTO 31006KT 10SM SCT019 09/05 A3014 RMK AO2,KJFX,2025-01-27T22:15:00Z,33.9008,-87.3092,9,5,310,6,,10+,30.14,,,TRUE,TRUE,,,,,,,SCT,1900,,,,,,,VFR,,,,,,,,,,,,METAR,144
KJES 272215Z AUTO 00000KT 10SM BKN002 BKN085 BKN110 12/11 A3011 RMK AO2,KJES,2025-01-27T22:15:00Z,31.5521,-81.8896,12,11,0,0,,10+,30.11,,,TRUE,TRUE,,,,,,,BKN,200,BKN,8500,BKN,11000,,,LIFR,,,,,,,,,,,,METAR,26
KJDD 272215Z AUTO 00000KT 10SM CLR 11/04 A3019 RMK AO2 T01070040 $,KJDD,2025-01-27T22:15:00Z,32.7403,-95.4945,10.7,4,0,0,,10+,30.19,,,TRUE,TRUE,TRUE,,,,,,CLR,,,,,,,,VFR,,,,,,,,,,,,METAR,127
KJCA 272215Z AUTO 28006KT 1 1/2SM BR OVC004 09/ A3003 RMK AO2 T0089////,KJCA,2025-01-27T22:15:00Z,34.1739,-83.5583,8.9,,280,6,,1.5,30.03,,,TRUE,TRUE,,,,,,BR,OVC,400,,,,,,,LIFR,,,,,,,,,,,,METAR,287
KJAS 272215Z AUTO 02005KT 8SM OVC014 12/10 A3017 RMK AO2,KJAS,2025-01-27T22:15:00Z,30.8904,-94.0332,12,10,20,5,,8,30.17,,,TRUE,TRUE,,,,,,,OVC,1400,,,,,,,MVFR,,,,,,,,,,,,METAR,60
KJAQ 272215Z AUTO 24006KT 10SM CLR 10/01 A3011 RMK AO1 T00990009,KJAQ,2025-01-27T22:15:00Z,38.3742,-120.794,9.9,0.9,240,6,,10+,30.11,,,TRUE,TRUE,,,,,,,CLR,,,,,,,,VFR,,,,,,,,,,,,METAR,518
KIZA 272215Z AUTO 25009KT 6SM HZ CLR 16/03 A3007 RMK AO2,KIZA,2025-01-27T22:15:00Z,34.6059,-120.076,16,3,250,9,,6,30.07,,,TRUE,TRUE,,,,,,HZ,CLR,,,,,,,,VFR,,,,,,,,,,,,METAR,200
KIYA 272215Z AUTO 04005KT 10SM BKN050 BKN170 15/13 A3014 RMK AO2 T01470125 $,KIYA,2025-01-27T22:15:00Z,29.976,-92.0826,14.7,12.5,40,5,,10+,30.14,,,TRUE,TRUE,TRUE,,,,,,BKN,5000,BKN,17000,,,,,VFR,,,,,,,,,,,,METAR,4
KIUA 272215Z AUTO 24010G16KT 210V280 10SM CLR 01/M14 A2954 RMK AO2 T00071140,KIUA,2025-01-27T22:15:00Z,42.9058,-77.3227,0.7,-14,240,10,16,10+,29.54,,,TRUE,TRUE,,,,,,,CLR,,,,,,,,VFR,,,,,,,,,,,,METAR,248
KISQ 272215Z AUTO 30012G21KT 10SM SCT022 BKN027 OVC043 00/M04 A2937 RMK AO2 T00001037,KISQ,2025-01-27T22:15:00Z,45.9729,-86.1728,0,-3.7,300,12,21,10+,29.37,,,TRUE,TRUE,,,,,,,SCT,2200,BKN,2700,OVC,4300,,,MVFR,,,,,,,,,,,,METAR,206
KIRS 272215Z AUTO 24022G31KT 10SM CLR 03/M08 A2967 RMK AO2 PK WND 25031/09 PRESFR,KIRS,2025-01-27T22:15:00Z,41.8154,-85.4376,3,-8,240,22,31,10+,29.67,,,TRUE,TRUE,,,,,,,CLR,,,,,,,,VFR,,,,,,,,,,,,METAR,282
KIOB 272215Z AUTO 00000KT 10SM CLR 03/M08 A3000 RMK AO2 PWINO,KIOB,2025-01-27T22:15:00Z,38.0574,-83.9829,3,-8,0,0,,10+,30.00,,,TRUE,TRUE,,,,,TRUE,,CLR,,,,,,,,VFR,,,,,,,,,,,,METAR,301
KINJ 272215Z AUTO 00000KT 10SM CLR 12/02 A3019 RMK AO2 T01200017,KINJ,2025-01-27T22:15:00Z,32.0844,-97.0959,12,1.7,0,0,,10+,30.19,,,TRUE,TRUE,,,,,,,CLR,,,,,,,,VFR,,,,,,,,,,,,METAR,208
KINF 272215Z AUTO 27003KT 7SM 18/12 A3014 RMK AO2,KINF,2025-01-27T22:15:00Z,28.8062,-82.319,18,12,270,3,,7,30.14,,,TRUE,TRUE,,,,,,,,,,,,,,,VFR,,,,,,,,,,,,METAR,14
KIMS 272215Z AUTO 23009KT 10SM CLR 02/M10 A3000 RMK AO2,KIMS,2025-01-27T22:15:00Z,38.7515,-85.4689,2,-10,230,9,,10+,30.00,,,TRUE,TRUE,,,,,,,CLR,,,,,,,,VFR,,,,,,,,,,,,METAR,244
KIMM 272215Z AUTO 28006KT 10SM A3009 RMK AO2,KIMM,2025-01-27T22:15:00Z,26.4321,-81.4073,,,280,6,,10+,30.09,,,TRUE,TRUE,,,,,,,,,,,,,,,VFR,,,,,,,,,,,,METAR,11
KIKW 272215Z AUTO 24024G31KT 10SM FEW048 BKN055 OVC065 02/M07 A2948 RMK AO2 PK WND 23036/19,KIKW,2025-01-27T22:15:00Z,43.6643,-84.2613,2,-7,240,24,31,10+,29.48,,,TRUE,TRUE,,,,,,,FEW,4800,BKN,5500,OVC,6500,,,VFR,,,,,,,,,,,,METAR,190
KIKV 272215Z AUTO 26014G20KT 10SM CLR 10/M16 A2982 RMK AO2,KIKV,2025-01-27T22:15:00Z,41.6878,-93.5695,10,-16,260,14,20,10+,29.82,,,TRUE,TRUE,,,,,,,CLR,,,,,,,,VFR,,,,,,,,,,,,METAR,270
KIKK 272215Z AUTO 24020G25KT 10SM CLR 04/M06 A2983 RMK AO2 T00401059,KIKK,2025-01-27T22:15:00Z,41.0687,-87.8537,4,-5.9,240,20,25,10+,29.83,,,TRUE,TRUE,,,,,,,CLR,,,,,,,,VFR,,,,,,,,,,,,METAR,188
KIKG 272215Z AUTO 34006KT 1 3/4SM BR OVC004 11/11 A3015 RMK AO2 T01130107,KIKG,2025-01-27T22:15:00Z,27.5464,-98.0292,11.3,10.7,340,6,,1.75,30.15,,,TRUE,TRUE,,,,,,BR,OVC,400,,,,,,,LIFR,,,,,,,,,,,,METAR,37
KIJX 272215Z AUTO 23011G17KT 10SM CLR 04/M05 A2993 RMK AO2 T00401048,KIJX,2025-01-27T22:15:00Z,39.774,-90.2419,4,-4.8,230,11,17,10+,29.93,,,TRUE,TRUE,,,,,,,CLR,,,,,,,,VFR,,,,,,,,,,,,METAR,187
KIIY 272215Z AUTO 25005KT 5SM BR OVC003 09/09 A3002 RMK AO2 T00880088,KIIY,2025-01-27T22:15:00Z,33.7797,-82.8135,8.8,8.8,250,5,,5,30.02,,,TRUE,TRUE,,,,,,BR,OVC,300,,,,,,,LIFR,,,,,,,,,,,,METAR,192
KIIB 272215Z AUTO 27019KT 10SM BKN080 OVC090 07/M13 A2978 RMK AO2 T00721126,KIIB,2025-01-27T22:15:00Z,42.4544,-91.9504,7.2,-12.6,270,19,,10+,29.78,,,TRUE,TRUE,,,,,,,BKN,8000,OVC,9000,,,,,VFR,,,,,,,,,,,,METAR,294
KIGQ 272215Z AUTO 24017G25KT 10SM CLR 05/M13 A2975 RMK AO2 T00521127,KIGQ,2025-01-27T22:15:00Z,41.5412,-87.5282,5.2,-12.7,240,17,25,10+,29.75,,,TRUE,TRUE,,,,,,,CLR,,,,,,,,VFR,,,,,,,,,,,,METAR,187
KIFA 272215Z AUTO 27017KT 7SM BKN100 OVC120 08/M17 A2978 RMK AO2 T00761167,KIFA,2025-01-27T22:15:00Z,42.4691,-93.2651,7.6,-16.7,270,17,,7,29.78,,,TRUE,TRUE,,,,,,,BKN,10000,OVC,12000,,,,,VFR,,,,,,,,,,,,METAR,344
KIER 272215Z AUTO 00000KT 4SM HZ OVC021 11/08 A3020 RMK AO2 T01120075,KIER,2025-01-27T22:15:00Z,31.736,-93.1003,11.2,7.5,0,0,,4,30.20,,,TRUE,TRUE,,,,,,HZ,OVC,2100,,,,,,,MVFR,,,,,,,,,,,,METAR,35
KIDP 272215Z AUTO 24013KT 10SM CLR 09/M08 A3014 RMK AO2,KIDP,2025-01-27T22:15:00Z,37.1566,-95.7792,9,-8,240,13,,10+,30.14,,,TRUE,TRUE,,,,,,,CLR,,,,,,,,VFR,,,,,,,,,,,,METAR,252
KIDI 272215Z AUTO 24011G19KT 10SM CLR 00/M13 A2979 RMK A01,KIDI,2025-01-27T22:15:00Z,40.6337,-79.1036,0,-13,240,11,19,10+,29.79,,,TRUE,TRUE,,,,,,,CLR,,,,,,,,VFR,,,,,,,,,,,,METAR,425
KICL 272215Z AUTO 21013G20KT 10SM CLR 09/M08 A2991 RMK AO2,KICL,2025-01-27T22:15:00Z,40.7242,-95.0222,9,-8,210,13,20,10+,29.91,,,TRUE,TRUE,,,,,,,CLR,,,,,,,,VFR,,,,,,,,,,,,METAR,299
KIBM 272215Z AUTO 31010KT 10SM CLR 06/M05 A3004 RMK AO2 T00611051,KIBM,2025-01-27T22:15:00Z,41.1894,-103.671,6.1,-5.1,310,10,,10+,30.04,,,TRUE,TRUE,,,,,,,CLR,,,,,,,,VFR,,,,,,,,,,,,METAR,1494
KI75 272215Z AUTO 23015G21KT 7SM CLR 07/M09 A2986 RMK AO2 T00681095,KI75,2025-01-27T22:15:00Z,41.0472,-93.6876,6.8,-9.5,230,15,21,7,29.86,,,TRUE,TRUE,,,,,,,CLR,,,,,,,,VFR,,,,,,,,,,,,METAR,336
KI74 272215Z AUTO 23009KT 10SM CLR 00/M10 A2988 RMK AO2,KI74,2025-01-27T22:15:00Z,40.1314,-83.757,0,-10,230,9,,10+,29.88,,,TRUE,TRUE,,,,,,,CLR,,,,,,,,VFR,,,,,,,,,,,,METAR,322
KI68 272215Z AUTO 23010G19KT 10SM CLR 02/M10 A2992 RMK AO2,KI68,2025-01-27T22:15:00Z,39.4664,-84.2532,2,-10,230,10,19,10+,29.92,,,TRUE,TRUE,,,,,,,CLR,,,,,,,,VFR,,,,,,,,,,,,METAR,274
KI67 272215Z AUTO 22009G16KT 10SM CLR 02/M10 A2996 RMK AO1,KI67,2025-01-27T22:15:00Z,39.2565,-84.7753,2,-10,220,9,16,10+,29.96,,,TRUE,TRUE,,,,,,,CLR,,,,,,,,VFR,,,,,,,,,,,,METAR,177
KI63 272215Z AUTO 24013G22KT 10SM CLR 05/M05 A2992 RMK AO2 T00511053,KI63,2025-01-27T22:15:00Z,39.9883,-90.8023,5.1,-5.3,240,13,22,10+,29.92,,,TRUE,TRUE,,,,,,,CLR,,,,,,,,VFR,,,,,,,,,,,,METAR,221
KI40 272215Z AUTO 21008G16KT 193V253 10SM CLR M01/M12 A2987 RMK AO2,KI40,2025-01-27T22:15:00Z,40.3101,-81.8544,-1,-12,210,8,16,10+,29.87,,,TRUE,TRUE,,,,,,,CLR,,,,,,,,VFR,,,,,,,,,,,,METAR,303
KI35 272215Z AUTO 29009KT 10SM CLR 09/M06 A2998 RMK AO2 T00931058,KI35,2025-01-27T22:15:00Z,36.8577,-83.3586,9.3,-5.8,290,9,,10+,29.98,,,TRUE,TRUE,,,,,,,CLR,,,,,,,,VFR,,,,,,,,,,,,METAR,467
KI23 272215Z AUTO 21010KT 10SM CLR M01/M09 A2991 RMK AO1,KI23,2025-01-27T22:15:00Z,39.5697,-83.4239,-1,-9,210,10,,10+,29.91,,,TRUE,TRUE,,,,,,,CLR,,,,,,,,VFR,,,,,,,,,,,,METAR,298
KI16 272215Z AUTO 10SM CLR 05/M03 A2998 RMK AO2 T00491028,KI16,2025-01-27T22:15:00Z,37.5998,-81.5589,4.9,-2.8,,,,10+,29.98,,,TRUE,TRUE,,,,,,,CLR,,,,,,,,VFR,,,,,,,,,,,,METAR,528
KHZX 272215Z AUTO 32016G21KT 10SM OVC033 01/M05 A2965 RMK AO2,KHZX,2025-01-27T22:15:00Z,46.6189,-93.3128,1,-5,320,16,21,10+,29.65,,,TRUE,TRUE,,,,,,,OVC,3300,,,,,,,VFR,,,,,,,,,,,,METAR,374
KHZR 272215Z AUTO 35008KT 10SM SCT011 13/10 A3016 RMK AO2 T01260098,KHZR,2025-01-27T22:15:00Z,30.718,-91.48,12.6,9.8,350,8,,10+,30.16,,,TRUE,TRUE,,,,,,,SCT,1100,,,,,,,VFR,,,,,,,,,,,,METAR,11
KHZL 272215Z AUTO 19004KT 10SM CLR 00/M15 A2975 RMK AO2,KHZL,2025-01-27T22:15:00Z,40.9845,-75.9901,0,-15,190,4,,10+,29.75,,,TRUE,TRUE,,,,,,,CLR,,,,,,,,VFR,,,,,,,,,,,,METAR,481
KHZE 272215Z AUTO 29012G17KT 10SM CLR 02/M05 A2992 RMK AO2,KHZE,2025-01-27T22:15:00Z,47.288,-101.577,2,-5,290,12,17,10+,29.92,,,TRUE,TRUE,,,,,,,CLR,,,,,,,,VFR,,,,,,,,,,,,METAR,542
KHZD 272215Z AUTO 25007KT 10SM CLR 07/M08 A3011 RMK A01,KHZD,2025-01-27T22:15:00Z,36.089,-88.4654,7,-8,250,7,,10+,30.11,,,TRUE,TRUE,,,,,,,CLR,,,,,,,,VFR,,,,,,,,,,,,METAR,147
KHYX 272215Z AUTO 24020G30KT 10SM CLR 01/M08 A2950 RMK AO2 PK WND 25030/10,KHYX,2025-01-27T22:15:00Z,43.4319,-83.8648,1,-8,240,20,30,10+,29.50,,,TRUE,TRUE,,,,,,,CLR,,,,,,,,VFR,,,,,,,,,,,,METAR,181
KHYW 272215Z AUTO 21003KT 10SM SCT004 BKN023 08/08 A3004 RMK AO2,KHYW,2025-01-27T22:15:00Z,33.8256,-79.1259,8,8,210,3,,10+,30.04,,,TRUE,TRUE,,,,,,,SCT,400,BKN,2300,,,,,MVFR,,,,,,,,,,,,METAR,10
KHWY 272215Z AUTO 21005KT 10SM CLR 09/M09 A2986 RMK AO2 T00881087,KHWY,2025-01-27T22:15:00Z,38.5876,-77.715,8.8,-8.7,210,5,,10+,29.86,,,TRUE,TRUE,,,,,,,CLR,,,,,,,,VFR,,,,,,,,,,,,METAR,93
KHVS 272215Z AUTO VRB05KT 10SM OVC005 10/10 A3000 RMK AO2,KHVS,2025-01-27T22:15:00Z,34.4065,-80.1198,10,10,VRB,5,,10+,30.00,,,TRUE,TRUE,,,,,,,OVC,500,,,,,,,IFR,,,,,,,,,,,,METAR,110
KHVC 272215Z AUTO 26006KT 10SM CLR 06/M11 A3008 RMK AO2,KHVC,2025-01-27T22:15:00Z,36.8603,-87.4478,6,-11,260,6,,10+,30.08,,,TRUE,TRUE,,,,,,,CLR,,,,,,,,VFR,,,,,,,,,,,,METAR,171
KHTH 272215Z AUTO 31007KT 260V320 10SM CLR 02/M10 A3022 RMK A01,KHTH,2025-01-27T22:15:00Z,38.5448,-118.631,2,-10,310,7,,10+,30.22,,,TRUE,TRUE,,,,,,,CLR,,,,,,,,VFR,,,,,,,,,,,,METAR,1281
KHSP 272215Z AUTO 26012KT 10SM CLR 01/M10 A2982 RMK AO2 T00111097,KHSP,2025-01-27T22:15:00Z,37.9531,-79.8285,1.1,-9.7,260,12,,10+,29.82,,,TRUE,TRUE,,,,,,,CLR,,,,,,,,VFR,,,,,,,,,,,,METAR,1148
KHSG 272215Z AUTO 12003KT 10SM CLR 02/M12 A3011 RMK AO2 T00151117,KHSG,2025-01-27T22:15:00Z,43.7178,-108.385,1.5,-11.7,120,3,,10+,30.11,,,TRUE,TRUE,,,,,,,CLR,,,,,,,,VFR,,,,,,,,,,,,METAR,1497
KHSD 272215Z AUTO 22007KT 10SM CLR 10/M10 A3015 RMK A01,KHSD,2025-01-27T22:15:00Z,35.6018,-97.7093,10,-10,220,7,,10+,30.15,,,TRUE,TRUE,,,,,,,CLR,,,,,,,,VFR,,,,,,,,,,,,METAR,358
KHSB 272215Z AUTO 27008KT 10SM CLR 05/M11 A3008 RMK AO2 T00531109,KHSB,2025-01-27T22:15:00Z,37.8128,-88.5449,5.3,-10.9,270,8,,10+,30.08,,,TRUE,TRUE,,,,,,,CLR,,,,,,,,VFR,,,,,,,,,,,,METAR,118
KHRF 272215Z AUTO 00000KT 10SM CLR M05/M13 A3031 RMK AO2,KHRF,2025-01-27T22:15:00Z,46.2575,-114.127,-5,-13,0,0,,10+,30.31,,,TRUE,TRUE,,,,,,,CLR,,,,,,,,VFR,,,,,,,,,,,,METAR,1112
KHPT 272215Z AUTO 29016G21KT 10SM SCT050 BKN065 BKN075 06/M10 A2976 RMK AO2,KHPT,2025-01-27T22:15:00Z,42.7175,-93.2244,6,-10,290,16,21,10+,29.76,,,TRUE,TRUE,,,,,,,SCT,5000,BKN,6500,BKN,7500,,,VFR,,,,,,,,,,,,METAR,354
KHOE 272215Z AUTO 00000KT 10SM SCT075 SCT100 15/11 A3008 RMK AO2 T01470113,KHOE,2025-01-27T22:15:00Z,31.0561,-82.7726,14.7,11.3,0,0,,10+,30.08,,,TRUE,TRUE,,,,,,,SCT,7500,SCT,10000,,,,,VFR,,,,,,,,,,,,METAR,56
KHNR 272215Z AUTO 28018KT 10SM CLR 09/M13 A2985 RMK A01,KHNR,2025-01-27T22:15:00Z,41.5841,-95.3358,9,-13,280,18,,10+,29.85,,,TRUE,TRUE,,,,,,,CLR,,,,,,,,VFR,,,,,,,,,,,,METAR,364
KHMZ 272215Z AUTO 24009KT 10SM CLR 02/M14 A2980 RMK AO2 T00211143,KHMZ,2025-01-27T22:15:00Z,40.0863,-78.5167,2.1,-14.3,240,9,,10+,29.80,,,TRUE,TRUE,,,,,,,CLR,,,,,,,,VFR,,,,,,,,,,,,METAR,351
KHMT 272215Z AUTO 10SM SCT036 OVC050 10/03 A3006 RMK AO2,KHMT,2025-01-27T22:15:00Z,33.7303,-117.027,10,3,,,,10+,30.06,,,TRUE,TRUE,,,,,,,SCT,3600,OVC,5000,,,,,VFR,,,,,,,,,,,,METAR,462
KHLX 272215Z AUTO 26005KT 10SM CLR 04/M02 A2991 RMK AO2,KHLX,2025-01-27T22:15:00Z,36.7637,-80.8211,4,-2,260,5,,10+,29.91,,,TRUE,TRUE,,,,,,,CLR,,,,,,,,VFR,,,,,,,,,,,,METAR,819
KHLB 272215Z AUTO VRB04G11KT 10SM CLR 00/M11 A2994 RMK A01,KHLB,2025-01-27T22:15:00Z,39.3463,-85.2602,0,-11,VRB,4,11,10+,29.94,,,TRUE,TRUE,,,,,,,CLR,,,,,,,,VFR,,,,,,,,,,,,METAR,297
KHJH 272215Z AUTO 22011G18KT 10SM CLR 08/M03 A2995 RMK AO2 T00821027,KHJH,2025-01-27T22:15:00Z,40.1493,-97.5872,8.2,-2.7,220,11,18,10+,29.95,,,TRUE,TRUE,,,,,,,CLR,,,,,,,,VFR,,,,,,,,,,,,METAR,449
KHII 272215Z AUTO 00000KT 10SM SCT060 BKN065 BKN090 14/02 A3003 RMK AO2,KHII,2025-01-27T22:15:00Z,34.5659,-114.352,14,2,0,0,,10+,30.03,,,TRUE,TRUE,,,,,,,SCT,6000,BKN,6500,BKN,9000,,,VFR,,,,,,,,,,,,METAR,241
KHHW 272215Z AUTO 29003KT 10SM CLR A3018 RMK AO2,KHHW,2025-01-27T22:15:00Z,34.0308,-95.5401,,,290,3,,10+,30.18,,,TRUE,TRUE,,,,,,,CLR,,,,,,,,VFR,,,,,,,,,,,,METAR,178
KHHV 272215Z 10SM CLR 26/16 A3006 RMK A01 WIND SENSOR OFFLINE,KHHV,2025-01-27T22:15:00Z,26.9392,-94.6886,26,16,,,,10+,30.06,,,,TRUE,,,,,,,CLR,,,,,,,,VFR,,,,,,,,,,,,METAR,25
KHHG 272215Z AUTO 24011G25KT 10SM CLR 02/M08 A2979 RMK AO2 T00241080,KHHG,2025-01-27T22:15:00Z,40.8543,-85.4543,2.4,-8,240,11,25,10+,29.79,,,TRUE,TRUE,,,,,,,CLR,,,,,,,,VFR,,,,,,,,,,,,METAR,247
KHHF 272215Z AUTO 00000KT 10SM CLR 12/M06 A3009 RMK AO2 T01201061,KHHF,2025-01-27T22:15:00Z,35.8929,-100.405,12,-6.1,0,0,,10+,30.09,,,TRUE,TRUE,,,,,,,CLR,,,,,,,,VFR,,,,,,,,,,,,METAR,729
KHFY 272215Z AUTO 24010G17KT 10SM CLR 01/M10 A2994 RMK AO2 T00101097,KHFY,2025-01-27T22:15:00Z,39.628,-86.088,1,-9.7,240,10,17,10+,29.94,,,TRUE,TRUE,,,,,,,CLR,,,,,,,,VFR,,,,,,,,,,,,METAR,250
KHFJ 272215Z AUTO 25011KT 10SM CLR 07/M08 A3012 RMK AO2,KHFJ,2025-01-27T22:15:00Z,36.9105,-94.0099,7,-8,250,11,,10+,30.12,,,TRUE,TRUE,,,,,,,CLR,,,,,,,,VFR,,,,,,,,,,,,METAR,398
KHEG 272215Z AUTO 24007KT 10SM OVC100 21/10 A3010 RMK AO2 TSNO,KHEG,2025-01-27T22:15:00Z,30.2771,-81.8087,21,10,240,7,,10+,30.10,,,TRUE,TRUE,,,TRUE,,,,OVC,10000,,,,,,,VFR,,,,,,,,,,,,METAR,25
KHDE 272215Z AUTO 28011G16KT 10SM CLR 13/M13 A2993 RMK AO2 T01301126,KHDE,2025-01-27T22:15:00Z,40.4496,-99.3363,13,-12.6,280,11,16,10+,29.93,,,TRUE,TRUE,,,,,,,CLR,,,,,,,,VFR,,,,,,,,,,,,METAR,703
KHDC 272215Z AUTO 01006KT 10SM OVC014 15/12 A3015 RMK AO2 T01450118,KHDC,2025-01-27T22:15:00Z,30.5237,-90.4176,14.5,11.8,10,6,,10+,30.15,,,TRUE,TRUE,,,,,,,OVC,1400,,,,,,,MVFR,,,,,,,,,,,,METAR,12
KHCR 272215Z AUTO 00000KT 10SM CLR M04/M11 A3012 RMK AO2 T10371112,KHCR,2025-01-27T22:15:00Z,40.4774,-111.433,-3.7,-11.2,0,0,,10+,30.12,,,TRUE,TRUE,,,,,,,CLR,,,,,,,,VFR,,,,,,,,,,,,METAR,1708
KHCO 272215Z AUTO 31014KT 10SM 01/M03 A2977 RMK AO2,KHCO,2025-01-27T22:15:00Z,48.7524,-96.9376,1,-3,310,14,,10+,29.77,,,TRUE,TRUE,,,,,,,,,,,,,,,VFR,,,,,,,,,,,,METAR,250
KHCD 272215Z AUTO 29015G20KT 10SM CLR 03/M06 A2973 RMK AO2 T00331059,KHCD,2025-01-27T22:15:00Z,44.8597,-94.3855,3.3,-5.9,290,15,20,10+,29.73,,,TRUE,TRUE,,,,,,,CLR,,,,,,,,VFR,,,,,,,,,,,,METAR,320
KHAI 272215Z AUTO 24013G22KT 10SM CLR 04/M09 A2968 RMK AO2 T00351087,KHAI,2025-01-27T22:15:00Z,41.9591,-85.5933,3.5,-8.7,240,13,22,10+,29.68,,,TRUE,TRUE,,,,,,,CLR,,,,,,,,VFR,,,,,,,,,,,,METAR,250
KHAF 272215Z AUTO 30008KT 8SM CLR 14/M02 A3014 RMK AO2,KHAF,2025-01-27T22:15:00Z,37.5136,-122.5,14,-2,300,8,,8,30.14,,,TRUE,TRUE,,,,,,,CLR,,,,,,,,VFR,,,,,,,,,,,,METAR,11
KHAE 272215Z AUTO 25010G19KT 10SM CLR 06/M05 A2994 RMK AO2,KHAE,2025-01-27T22:15:00Z,39.7262,-91.4425,6,-5,250,10,19,10+,29.94,,,TRUE,TRUE,,,,,,,CLR,,,,,,,,VFR,,,,,,,,,,,,METAR,230
KGZS 272215Z AUTO 31006KT 10SM CLR 09/M08 A3009 RMK A01,KGZS,2025-01-27T22:15:00Z,35.1533,-87.0543,9,-8,310,6,,10+,30.09,,,TRUE,TRUE,,,,,,,CLR,,,,,,,,VFR,,,,,,,,,,,,METAR,198
KGZL 272215Z AUTO 00000KT 10SM CLR 10/M10 A3017 RMK AO2,KGZL,2025-01-27T22:15:00Z,35.2913,-95.0956,10,-10,0,0,,10+,30.17,,,TRUE,TRUE,,,,,,,CLR,,,,,,,,VFR,,,,,,,,,,,,METAR,176
KGYL 272215Z AUTO 27011G19KT 10SM CLR 03/M05 A2972 RMK AO2 T00271047,KGYL,2025-01-27T22:15:00Z,44.7588,-94.0905,2.7,-4.7,270,11,19,10+,29.72,,,TRUE,TRUE,,,,,,,CLR,,,,,,,,VFR,,,,,,,,,,,,METAR,304
KGYF 272215Z AUTO 00000KT 10SM CLR 22/16 A3007 RMK AO2 PWINO T02240164,KGYF,2025-01-27T22:15:00Z,26.1292,-94.8981,22.4,16.4,0,0,,10+,30.07,,,TRUE,TRUE,,,,,TRUE,,CLR,,,,,,,,VFR,,,,,,,,,,,,METAR,65
KGWW 272215Z AUTO 19005KT 10SM SCT005 OVC011 08/08 A2999 RMK AO2 T00750075,KGWW,2025-01-27T22:15:00Z,35.4637,-77.9604,7.5,7.5,190,5,,10+,29.99,,,TRUE,TRUE,,,,,,,SCT,500,OVC,1100,,,,,MVFR,,,,,,,,,,,,METAR,40
KGWR 272215Z AUTO 33011KT 10SM CLR 03/M01 A2982 RMK A01,KGWR,2025-01-27T22:15:00Z,46.2185,-97.6396,3,-1,330,11,,10+,29.82,,,TRUE,TRUE,,,,,,,CLR,,,,,,,,VFR,,,,,,,,,,,,METAR,381
KGWB 272215Z AUTO 25013G21KT 215V275 10SM CLR 02/M07 A2975 RMK AO2,KGWB,2025-01-27T22:15:00Z,41.3061,-85.0585,2,-7,250,13,21,10+,29.75,,,TRUE,TRUE,,,,,,,CLR,,,,,,,,VFR,,,,,,,,,,,,METAR,268
KGVW 272215Z AUTO 05007KT 10SM OVC018 13/11 A3016 RMK A01,KGVW,2025-01-27T22:15:00Z,29.1303,-94.5466,13,11,50,7,,10+,30.16,,,TRUE,TRUE,,,,,,,OVC,1800,,,,,,,MVFR,,,,,,,,,,,,METAR,37
KGVE 272215Z AUTO 23006KT 10SM CLR 09/M06 A2987 RMK AO1 T00931061,KGVE,2025-01-27T22:15:00Z,38.1569,-78.1656,9.3,-6.1,230,6,,10+,29.87,,,TRUE,TRUE,,,,,,,CLR,,,,,,,,VFR,,,,,,,,,,,,METAR,138
KGRN 272215Z AUTO 30006KT 10SM CLR 05/M05 A2997 RMK AO2 T00491050,KGRN,2025-01-27T22:15:00Z,42.8039,-102.181,4.9,-5,300,6,,10+,29.97,,,TRUE,TRUE,,,,,,,CLR,,,,,,,,VFR,,,,,,,,,,,,METAR,1080
KGPM 272215Z AUTO 35004KT 10SM CLR 11/M05 A3021 RMK AO2 T01051047,KGPM,2025-01-27T22:15:00Z,32.6928,-97.0485,10.5,-4.7,350,4,,10+,30.21,,,TRUE,TRUE,,,,,,,CLR,,,,,,,,VFR,,,,,,,,,,,,METAR,178
KGPH 272215Z AUTO 26012G20KT 10SM CLR 07/M05 A3002 RMK AO2,KGPH,2025-01-27T22:15:00Z,39.3248,-94.3082,7,-5,260,12,20,10+,30.02,,,TRUE,TRUE,,,,,,,CLR,,,,,,,,VFR,,,,,,,,,,,,METAR,233
KGPC 272215Z AUTO 23012G20KT 10SM CLR 02/M08 A2993 RMK AO2 T00151081,KGPC,2025-01-27T22:15:00Z,39.635,-86.816,1.5,-8.1,230,12,20,10+,29.93,,,TRUE,TRUE,,,,,,,CLR,,,,,,,,VFR,,,,,,,,,,,,METAR,254
KGOP 272215Z AUTO 05006KT 10SM FEW042 OVC075 11/M00 A3018 RMK AO2,KGOP,2025-01-27T22:15:00Z,31.4208,-97.7951,11,0,50,6,,10+,30.18,,,TRUE,TRUE,,,,,,,FEW,4200,OVC,7500,,,,,VFR,,,,,,,,,,,,METAR,272
KGOO 272215Z AUTO 29004KT 10SM CLR 14/M08 A3009 RMK A01,KGOO,2025-01-27T22:15:00Z,39.224,-121.003,14,-8,290,4,,10+,30.09,,,TRUE,TRUE,,,,,,,CLR,,,,,,,,VFR,,,,,,,,,,,,METAR,950
KGNT 272215Z AUTO 14016G21KT 10SM CLR 11/M13 A2997 RMK AO2 T01051127,KGNT,2025-01-27T22:15:00Z,35.1653,-107.902,10.5,-12.7,140,16,21,10+,29.97,,,TRUE,TRUE,,,,,,,CLR,,,,,,,,VFR,,,,,,,,,,,,METAR,1988
KGNG 272215Z AUTO VRB03KT 10SM CLR M00/M15 A3030 RMK AO2,KGNG,2025-01-27T22:15:00Z,42.9155,-114.765,0,-15,VRB,3,,10+,30.30,,,TRUE,TRUE,,,,,,,CLR,,,,,,,,VFR,,,,,,,,,,,,METAR,1128
KGNC 272215Z AUTO 14006KT 10SM CLR 08/M06 A3016 RMK AO2 T00811064,KGNC,2025-01-27T22:15:00Z,32.678,-102.65,8.1,-6.4,140,6,,10+,30.16,,,TRUE,TRUE,,,,,,,CLR,,,,,,,,VFR,,,,,,,,,,,,METAR,1002
KGNB 272215Z AUTO 00000KT 10SM CLR M11/M14 A3016 RMK AO2 T11081136,KGNB,2025-01-27T22:15:00Z,40.0904,-105.911,-10.8,-13.6,0,0,,10+,30.16,,,TRUE,TRUE,,,,,,,CLR,,,,,,,,VFR,,,,,,,,,,,,METAR,2500
KGMJ 272215Z AUTO 27006KT 10SM CLR 08/M10 A3016 RMK AO2 TSNO,KGMJ,2025-01-27T22:15:00Z,36.607,-94.7369,8,-10,270,6,,10+,30.16,,,TRUE,TRUE,,,TRUE,,,,CLR,,,,,,,,VFR,,,,,,,,,,,,METAR,251
KGLY 272215Z AUTO 24013KT 10SM CLR 08/M06 A3006 RMK AO2,KGLY,2025-01-27T22:15:00Z,38.3572,-93.6774,8,-6,240,13,,10+,30.06,,,TRUE,TRUE,,,,,,,CLR,,,,,,,,VFR,,,,,,,,,,,,METAR,247
KGLW 272215Z AUTO 26006KT 10SM CLR 06/M10 A3006 RMK AO2 T00561098,KGLW,2025-01-27T22:15:00Z,37.0337,-85.9523,5.6,-9.8,260,6,,10+,30.06,,,TRUE,TRUE,,,,,,,CLR,,,,,,,,VFR,,,,,,,,,,,,METAR,216
KGKT 272215Z AUTO 25005KT 5SM BR BKN017 OVC025 06/06 A3005 RMK A01,KGKT,2025-01-27T22:15:00Z,35.8568,-83.5333,6,6,250,5,,5,30.05,,,TRUE,TRUE,,,,,,BR,BKN,1700,OVC,2500,,,,,MVFR,,,,,,,,,,,,METAR,305
KGIC 272215Z AUTO 07004KT 10SM CLR 00/M11 A3031 RMK AO1,KGIC,2025-01-27T22:15:00Z,45.9411,-116.133,0,-11,70,4,,10+,30.31,,,TRUE,TRUE,,,,,,,CLR,,,,,,,,VFR,,,,,,,,,,,,METAR,1002
KGHW 272215Z AUTO 29015G25KT 10SM CLR 01/M03 A2973 RMK AO2,KGHW,2025-01-27T22:15:00Z,45.6456,-95.3187,1,-3,290,15,25,10+,29.73,,,TRUE,TRUE,,,,,,,CLR,,,,,,,,VFR,,,,,,,,,,,,METAR,423
KGHG 272215Z AUTO 21011G18KT 10SM CLR 01/M10 A2971 RMK AO2,KGHG,2025-01-27T22:15:00Z,42.0961,-70.6769,1,-10,210,11,18,10+,29.71,,,TRUE,TRUE,,,,,,,CLR,,,,,,,,VFR,,,,,,,,,,,,METAR,3
KGHB 272215Z AUTO 8SM FEW009 19/19 A3012 RMK A01,KGHB,2025-01-27T22:15:00Z,27.8403,-91.9878,19,19,,,,8,30.12,,,TRUE,TRUE,,,,,,,FEW,900,,,,,,,VFR,,,,,,,,,,,,METAR,30
KGGP 272215Z AUTO 23018G25KT 10SM CLR 02/M06 A2983 RMK AO2,KGGP,2025-01-27T22:15:00Z,40.7127,-86.3673,2,-6,230,18,25,10+,29.83,,,TRUE,TRUE,,,,,,,CLR,,,,,,,,VFR,,,,,,,,,,,,METAR,224
KGGI 272215Z AUTO 25017G22KT 10SM CLR 10/M15 A2980 RMK AO2 T01021150,KGGI,2025-01-27T22:15:00Z,41.7097,-92.7332,10.2,-15,250,17,22,10+,29.80,,,TRUE,TRUE,,,,,,,CLR,,,,,,,,VFR,,,,,,,,,,,,METAR,305
KGGF 272215Z AUTO 31018KT 10SM CLR 11/M13 A2998 RMK AO2,KGGF,2025-01-27T22:15:00Z,40.871,-101.734,11,-13,310,18,,10+,29.98,,,TRUE,TRUE,,,,,,,CLR,,,,,,,,VFR,,,,,,,,,,,,METAR,1044
KGGE 272215Z AUTO 00000KT 10SM 08/07 A3005 RMK AO2,KGGE,2025-01-27T22:15:00Z,33.3138,-79.3187,8,7,0,0,,10+,30.05,,,TRUE,TRUE,,,,,,,,,,,,,,,VFR,,,,,,,,,,,,METAR,9
KGDK 272215Z AUTO 23010G16KT 10SM CLR 01/M12 A2989 RMK AO2,KGDK,2025-01-27T22:15:00Z,39.6935,-83.9896,1,-12,230,10,16,10+,29.89,,,TRUE,TRUE,,,,,,,CLR,,,,,,,,VFR,,,,,,,,,,,,METAR,284
KGDJ 272215Z AUTO 00000KT 10SM BKN090 10/M05 A3021 RMK AO2 T01001052,KGDJ,2025-01-27T22:15:00Z,32.4469,-97.817,10,-5.2,0,0,,10+,30.21,,,TRUE,TRUE,,,,,,,BKN,9000,,,,,,,VFR,,,,,,,,,,,,METAR,235
KGDB 272215Z AUTO 30012G20KT 10SM CLR 05/M04 A2980 RMK AO2 T00501040,KGDB,2025-01-27T22:15:00Z,44.7521,-95.5591,5,-4,300,12,20,10+,29.80,,,TRUE,TRUE,,,,,,,CLR,,,,,,,,VFR,,,,,,,,,,,,METAR,316
KGCY 272215Z AUTO VRB03KT 4SM BR OVC005 04/04 A3000 RMK A01,KGCY,2025-01-27T22:15:00Z,36.1924,-82.8135,4,4,VRB,3,,4,30.00,,,TRUE,TRUE,,,,,,BR,OVC,500,,,,,,,IFR,,,,,,,,,,,,METAR,488
KGCM 272215Z AUTO 23007KT 10SM CLR 09/M10 A3017 RMK AO2,KGCM,2025-01-27T22:15:00Z,36.2918,-95.4825,9,-10,230,7,,10+,30.17,,,TRUE,TRUE,,,,,,,CLR,,,,,,,,VFR,,,,,,,,,,,,METAR,215
KGBG 272215Z AUTO 23017G22KT 10SM CLR 07/M06 A2983 RMK AO2 T00671058,KGBG,2025-01-27T22:15:00Z,40.9329,-90.4334,6.7,-5.8,230,17,22,10+,29.83,,,TRUE,TRUE,,,,,,,CLR,,,,,,,,VFR,,,,,,,,,,,,METAR,230
KGAO 272215Z AUTO 36008KT 10SM SCT023 19/15 A3012 RMK AO2 T01860150,KGAO,2025-01-27T22:15:00Z,29.4352,-90.2599,18.6,15,360,8,,10+,30.12,,,TRUE,TRUE,,,,,,,SCT,2300,,,,,,,VFR,,,,,,,,,,,,METAR,
KGAF 272215Z AUTO 29015KT 10SM OVC041 01/M03 A2980 RMK AO2 PWINO,KGAF,2025-01-27T22:15:00Z,48.4081,-97.3694,1,-3,290,15,,10+,29.80,,,TRUE,TRUE,,,,,TRUE,,OVC,4100,,,,,,,VFR,,,,,,,,,,,,METAR,250
KFZG 272215Z AUTO 00000KT 5SM SCT028 BKN042 OVC095 13/11 A3008 RMK AO2 P0002 T01250111,KFZG,2025-01-27T22:15:00Z,31.684,-83.2712,12.5,11.1,0,0,,5,30.08,,,TRUE,TRUE,,,,,,,SCT,2800,BKN,4200,OVC,9500,,,MVFR,,,,,,0.02,,,,,,METAR,105
KFYM 272215Z AUTO VRB04KT 10SM CLR 08/M00 A3010 RMK A01,KFYM,2025-01-27T22:15:00Z,35.0603,-86.5656,8,0,VRB,4,,10+,30.10,,,TRUE,TRUE,,,,,,,CLR,,,,,,,,VFR,,,,,,,,,,,,METAR,297
KFYJ 272215Z AUTO 00000KT 10SM SCT065 10/M01 A2990 RMK AO1 T01001015,KFYJ,2025-01-27T22:15:00Z,37.5224,-76.7663,10,-1.5,0,0,,10+,29.90,,,TRUE,TRUE,,,,,,,SCT,6500,,,,,,,VFR,,,,,,,,,,,,METAR,3
KFYG 272215Z AUTO 00000KT 10SM CLR 07/01 A3002 RMK AO2,KFYG,2025-01-27T22:15:00Z,38.5877,-90.9915,7,1,0,0,,10+,30.02,,,TRUE,TRUE,,,,,,,CLR,,,,,,,,VFR,,,,,,,,,,,,METAR,147
KFYE 272215Z AUTO 30004KT 10SM CLR 09/M10 A3013 RMK A01,KFYE,2025-01-27T22:15:00Z,35.2061,-89.3929,9,-10,300,4,,10+,30.13,,,TRUE,TRUE,,,,,,,CLR,,,,,,,,VFR,,,,,,,,,,,,METAR,133
KFXY 272215Z AUTO 27013G18KT 10SM SCT065 SCT090 OVC100 03/M12 A2976 RMK AO2,KFXY,2025-01-27T22:15:00Z,43.2323,-93.6237,3,-12,270,13,18,10+,29.76,,,TRUE,TRUE,,,,,,,SCT,6500,SCT,9000,OVC,10000,,,VFR,,,,,,,,,,,,METAR,366
KFWC 272215Z AUTO 22006KT 10SM CLR 03/M06 A3005 RMK AO2 T00301062,KFWC,2025-01-27T22:15:00Z,38.3796,-88.4135,3,-6.2,220,6,,10+,30.05,,,TRUE,TRUE,,,,,,,CLR,,,,,,,,VFR,,,,,,,,,,,,METAR,131
KFWB 272215Z AUTO 27011KT 10SM CLR 09/M10 A3010 RMK AO2 TSNO,KFWB,2025-01-27T22:15:00Z,36.6933,-93.4049,9,-10,270,11,,10+,30.10,,,TRUE,TRUE,,,TRUE,,,,CLR,,,,,,,,VFR,,,,,,,,,,,,METAR,392
KFSW 272215Z AUTO 22013G21KT 10SM CLR 07/M10 A2985 RMK AO2,KFSW,2025-01-27T22:15:00Z,40.6615,-91.3267,7,-10,220,13,21,10+,29.85,,,TRUE,TRUE,,,,,,,CLR,,,,,,,,VFR,,,,,,,,,,,,METAR,219
KFSO 272215Z AUTO 20012G24KT 170V240 10SM OVC095 03/M10 A2935 RMK AO2 T00331102,KFSO,2025-01-27T22:15:00Z,44.9411,-73.0997,3.3,-10.2,200,12,24,10+,29.35,,,TRUE,TRUE,,,,,,,OVC,9500,,,,,,,VFR,,,,,,,,,,,,METAR,70
KFSK 272215Z AUTO 23014G19KT 10SM CLR 08/M08 A3011 RMK AO2 T00791079,KFSK,2025-01-27T22:15:00Z,37.796,-94.7676,7.9,-7.9,230,14,19,10+,30.11,,,TRUE,TRUE,,,,,,,CLR,,,,,,,,VFR,,,,,,,,,,,,METAR,276
KFSE 272215Z AUTO 32010G18KT 10SM BKN041 M01/M06 A2976 RMK AO2,KFSE,2025-01-27T22:15:00Z,47.589,-95.773,-1,-6,320,10,18,10+,29.76,,,TRUE,TRUE,,,,,,,BKN,4100,,,,,,,VFR,,,,,,,,,,,,METAR,389
KFRH 272215Z AUTO 25009KT 10SM CLR 02/M10 A3001 RMK AO1,KFRH,2025-01-27T22:15:00Z,38.5034,-86.6442,2,-10,250,9,,10+,30.01,,,TRUE,TRUE,,,,,,,CLR,,,,,,,,VFR,,,,,,,,,,,,METAR,241
KFPY 272215Z AUTO 20005KT 10SM BKN090 17/10 A3011 RMK AO2 T01710104,KFPY,2025-01-27T22:15:00Z,30.0719,-83.5731,17.1,10.4,200,5,,10+,30.11,,,TRUE,TRUE,,,,,,,BKN,9000,,,,,,,VFR,,,,,,,,,,,,METAR,12
KFPK 272215Z AUTO 23012G17KT 10SM CLR 01/M10 A2960 RMK AO2,KFPK,2025-01-27T22:15:00Z,42.5764,-84.8125,1,-10,230,12,17,10+,29.60,,,TRUE,TRUE,,,,,,,CLR,,,,,,,,VFR,,,,,,,,,,,,METAR,269
KFOM 272215Z AUTO 10SM CLR 03/M06 A3013 RMK AO1,KFOM,2025-01-27T22:15:00Z,38.9618,-112.36,3,-6,,,,10+,30.13,,,TRUE,TRUE,,,,,,,CLR,,,,,,,,VFR,,,,,,,,,,,,METAR,1519
KFOA 272215Z AUTO 23009G17KT 10SM CLR 04/M06 A3002 RMK AO2,KFOA,2025-01-27T22:15:00Z,38.6673,-88.4527,4,-6,230,9,17,10+,30.02,,,TRUE,TRUE,,,,,,,CLR,,,,,,,,VFR,,,,,,,,,,,,METAR,141
KFMM 272215Z AUTO 26005KT 10SM CLR 08/M06 A3005 RMK AO2,KFMM,2025-01-27T22:15:00Z,40.3315,-103.807,8,-6,260,5,,10+,30.05,,,TRUE,TRUE,,,,,,,CLR,,,,,,,,VFR,,,,,,,,,,,,METAR,1376
KFLY 272215Z AUTO 00000KT 10SM CLR 08/M13 A3005 RMK AO2 T00761131,KFLY,2025-01-27T22:15:00Z,38.9439,-104.568,7.6,-13.1,0,0,,10+,30.05,,,TRUE,TRUE,,,,,,,CLR,,,,,,,,VFR,,,,,,,,,,,,METAR,2096
KFKS 272215Z AUTO 24015G23KT 10SM -SN SCT008 SCT012 OVC019 02/00 A2947 RMK AO2 T00150000,KFKS,2025-01-27T22:15:00Z,44.6246,-86.1985,1.5,0,240,15,23,10+,29.47,,,TRUE,TRUE,,,,,,-SN,SCT,800,SCT,1200,OVC,1900,,,MVFR,,,,,,,,,,,,METAR,189
KFKR 272215Z AUTO 24021G28KT 10SM CLR 02/M06 A2986 RMK AO2,KFKR,2025-01-27T22:15:00Z,40.2748,-86.5644,2,-6,240,21,28,10+,29.86,,,TRUE,TRUE,,,,,,,CLR,,,,,,,,VFR,,,,,,,,,,,,METAR,260
KFKN 272215Z AUTO 20004KT 10SM CLR 10/00 A2993 RMK AO2 T01030003,KFKN,2025-01-27T22:15:00Z,36.6984,-76.9032,10.3,0.3,200,4,,10+,29.93,,,TRUE,TRUE,,,,,,,CLR,,,,,,,,VFR,,,,,,,,,,,,METAR,9
KFKA 272215Z AUTO 28014G22KT 10SM FEW046 SCT075 BKN095 03/M10 A2968 RMK AO2,KFKA,2025-01-27T22:15:00Z,43.677,-92.174,3,-10,280,14,22,10+,29.68,,,TRUE,TRUE,,,,,,,FEW,4600,SCT,7500,BKN,9500,,,VFR,,,,,,,,,,,,METAR,388
KFHB 272215Z AUTO 14004KT 10SM OVC090 14/09 A3009 RMK AO2,KFHB,2025-01-27T22:15:00Z,30.6131,-81.4623,14,9,140,4,,10+,30.09,,,TRUE,TRUE,,,,,,,OVC,9000,,,,,,,VFR,,,,,,,,,,,,METAR,4
KFGX 272215Z AUTO 26010KT 10SM CLR 02/M09 A3000 RMK AO2 T00151092,KFGX,2025-01-27T22:15:00Z,38.5383,-83.7467,1.5,-9.2,260,10,,10+,30.00,,,TRUE,TRUE,,,,,,,CLR,,,,,,,,VFR,,,,,,,,,,,,METAR,279
KFGN 272215Z AUTO 36013KT 10SM M05/M14 A2970 RMK AO2,KFGN,2025-01-27T22:15:00Z,49.318,-94.902,-5,-14,360,13,,10+,29.70,,,TRUE,TRUE,,,,,,,,,,,,,,,VFR,,,,,,,,,,,,METAR,327
KFFX 272215Z AUTO 26018G33KT 1SM -SN OVC013 00/M02 A2957 RMK AO2 T00031025,KFFX,2025-01-27T22:15:00Z,43.4417,-85.9936,0.3,-2.5,260,18,33,1,29.57,,,TRUE,TRUE,,,,,,-SN,OVC,1300,,,,,,,IFR,,,,,,,,,,,,METAR,234
KFFM 272215Z AUTO 34021KT 10SM BKN021 01/M01 A2977 RMK AO2 TSNO,KFFM,2025-01-27T22:15:00Z,46.2865,-96.1534,1,-1,340,21,,10+,29.77,,,TRUE,TRUE,,,TRUE,,,,BKN,2100,,,,,,,MVFR,,,,,,,,,,,,METAR,362
KFFL 272215Z AUTO 25016G23KT 10SM CLR 08/M13 A2983 RMK A01,KFFL,2025-01-27T22:15:00Z,41.0521,-91.9834,8,-13,250,16,23,10+,29.83,,,TRUE,TRUE,,,,,,,CLR,,,,,,,,VFR,,,,,,,,,,,,METAR,240
KFET 272215Z AUTO 26007KT 10SM CLR 11/M13 A2988 RMK AO2 T01061132,KFET,2025-01-27T22:15:00Z,41.4489,-96.5237,10.6,-13.2,260,7,,10+,29.88,,,TRUE,TRUE,,,,,,,CLR,,,,,,,,VFR,,,,,,,,,,,,METAR,366
KFEP 272215Z AUTO 25016G24KT 10SM BKN100 06/M11 A2972 RMK AO2 T00611111,KFEP,2025-01-27T22:15:00Z,42.2475,-89.581,6.1,-11.1,250,16,24,10+,29.72,,,TRUE,TRUE,,,,,,,BKN,10000,,,,,,,VFR,,,,,,,,,,,,METAR,255
KFDW 272215Z AUTO 21007KT 10SM OVC005 08/08 A3000 RMK AO1,KFDW,2025-01-27T22:15:00Z,34.3151,-81.1119,8,8,210,7,,10+,30.00,,,TRUE,TRUE,,,,,,,OVC,500,,,,,,,IFR,,,,,,,,,,,,METAR,174
KFBR 272215Z AUTO 15004KT 10SM CLR M07/M13 A3017 RMK AO2 T10721129,KFBR,2025-01-27T22:15:00Z,41.3941,-110.406,-7.2,-12.9,150,4,,10+,30.17,,,TRUE,TRUE,,,,,,,CLR,,,,,,,,VFR,,,,,,,,,,,,METAR,2140
KFBL 272215Z AUTO 27012G18KT 10SM CLR 03/M06 A2972 RMK AO2,KFBL,2025-01-27T22:15:00Z,44.3298,-93.3119,3,-6,270,12,18,10+,29.72,,,TRUE,TRUE,,,,,,,CLR,,,,,,,,VFR,,,,,,,,,,,,METAR,318
KF46 272215Z AUTO 00000KT 10SM CLR 11/01 A3019 RMK AO2 T01090012,KF46,2025-01-27T22:15:00Z,32.9322,-96.4349,10.9,1.2,0,0,,10+,30.19,,,TRUE,TRUE,,,,,,,CLR,,,,,,,,VFR,,,,,,,,,,,,METAR,175
KF44 272215Z AUTO 00000KT 10SM CLR 11/05 A3017 RMK AO2,KF44,2025-01-27T22:15:00Z,32.165,-95.829,11,5,0,0,,10+,30.17,,,TRUE,TRUE,,,,,,,CLR,,,,,,,,VFR,,,,,,,,,,,,METAR,137
KF17 272215Z AUTO 13003KT 10SM OVC021 10/06 A3019 RMK AO2,KF17,2025-01-27T22:15:00Z,31.8277,-94.154,10,6,130,3,,10+,30.19,,,TRUE,TRUE,,,,,,,OVC,2100,,,,,,,MVFR,,,,,,,,,,,,METAR,93
KF05 272215Z AUTO 16003KT 10SM CLR 10/M10 A3019 RMK AO2 T00981097,KF05,2025-01-27T22:15:00Z,34.2283,-99.2834,9.8,-9.7,160,3,,10+,30.19,,,TRUE,TRUE,,,,,,,CLR,,,,,,,,VFR,,,,,,,,,,,,METAR,384
KF00 272215Z AUTO 00000KT 10SM CLR 11/00 A3019 RMK AO2 T01121005,KF00,2025-01-27T22:15:00Z,33.6158,-96.1809,11.2,-0.5,0,0,,10+,30.19,,,TRUE,TRUE,,,,,,,CLR,,,,,,,,VFR,,,,,,,,,,,,METAR,189
KEZZ 272215Z AUTO 24014KT 10SM CLR 05/M04 A2998 RMK AO2 T00461039,KEZZ,2025-01-27T22:15:00Z,39.729,-94.2785,4.6,-3.9,240,14,,10+,29.98,,,TRUE,TRUE,,,,,,,CLR,,,,,,,,VFR,,,,,,,,,,,,METAR,317
KEZS 272215Z AUTO 27015G23KT 220V280 10SM SCT060 02/M06 A2951 RMK AO2 T00181064,KEZS,2025-01-27T22:15:00Z,44.787,-88.5639,1.8,-6.4,270,15,23,10+,29.51,,,TRUE,TRUE,,,,,,,SCT,6000,,,,,,,VFR,,,,,,,,,,,,METAR,247
KEZP 272215Z AUTO 10SM OVC007 18/16 A3012 RMK A01,KEZP,2025-01-27T22:15:00Z,28.2198,-92.7944,18,16,,,,10+,30.12,,,TRUE,TRUE,,,,,,,OVC,700,,,,,,,IFR,,,,,,,,,,,,METAR,30
KEZM 272215Z AUTO 00000KT 4SM DZ OVC008 10/10 A3010 RMK AO2,KEZM,2025-01-27T22:15:00Z,32.2136,-83.1321,10,10,0,0,,4,30.10,,,TRUE,TRUE,,,,,,DZ,OVC,800,,,,,,,IFR,,,,,,,,,,,,METAR,86
KEZF 272215Z AUTO 23007KT 10SM CLR 11/M05 A2987 RMK AO2 T01051055,KEZF,2025-01-27T22:15:00Z,38.2685,-77.448,10.5,-5.5,230,7,,10+,29.87,,,TRUE,TRUE,,,,,,,CLR,,,,,,,,VFR,,,,,,,,,,,,METAR,26
KEVU 272215Z AUTO 23014G20KT 10SM CLR 04/M02 A2993 RMK AO2 T00421030,KEVU,2025-01-27T22:15:00Z,40.3524,-94.9137,4.2,-3,230,14,20,10+,29.93,,,TRUE,TRUE,,,,,,,CLR,,,,,,,,VFR,,,,,,,,,,,,METAR,351
KEVM 272215Z AUTO 31013G19KT 10SM SCT038 BKN046 OVC050 00/M07 A2958 RMK AO2 T10021072,KEVM,2025-01-27T22:15:00Z,47.4274,-92.4972,-0.2,-7.2,310,13,19,10+,29.58,,,TRUE,TRUE,,,,,,,SCT,3800,BKN,4600,OVC,5000,,,VFR,,,,,,,,,,,,METAR,419
KETB 272215Z AUTO 26015G31KT 10SM SCT050 BKN065 BKN075 04/M13 A2956 RMK AO2,KETB,2025-01-27T22:15:00Z,43.4225,-88.1326,4,-13,260,15,31,10+,29.56,,,TRUE,TRUE,,,,,,,SCT,5000,BKN,6500,BKN,7500,,,VFR,,,,,,,,,,,,METAR,269
KERY 272215Z AUTO 33012G16KT 300V360 1/4SM SN OVC003 M02/M03 A2935 RMK AO2 T10211029,KERY,2025-01-27T22:15:00Z,46.3151,-85.4568,-2.1,-2.9,330,12,16,0.25,29.35,,,TRUE,TRUE,,,,,,SN,OVC,300,,,,,,,LIFR,,,,,,,,,,,,METAR,261
KERV 272215Z AUTO 04006KT 10SM OVC019 10/03 A3017 RMK AO2 T01000032,KERV,2025-01-27T22:15:00Z,29.9779,-99.0872,10,3.2,40,6,,10+,30.17,,,TRUE,TRUE,,,,,,,OVC,1900,,,,,,,MVFR,,,,,,,,,,,,METAR,483
KEQA 272215Z AUTO 23013G17KT 10SM CLR 09/M06 A3009 RMK AO2,KEQA,2025-01-27T22:15:00Z,37.7753,-96.8145,9,-6,230,13,17,10+,30.09,,,TRUE,TRUE,,,,,,,CLR,,,,,,,,VFR,,,,,,,,,,,,METAR,422
KEOK 272215Z AUTO 24018G27KT 10SM CLR 07/M11 A2987 RMK A01,KEOK,2025-01-27T22:15:00Z,40.4615,-91.4274,7,-11,240,18,27,10+,29.87,,,TRUE,TRUE,,,,,,,CLR,,,,,,,,VFR,,,,,,,,,,,,METAR,206
KEOE 272215Z AUTO 18007KT 3SM BR 09/08 A3003 RMK AO2,KEOE,2025-01-27T22:15:00Z,34.3062,-81.6413,9,8,180,7,,3,30.03,,,TRUE,TRUE,,,,,,BR,,,,,,,,,MVFR,,,,,,,,,,,,METAR,166
KENL 272215Z AUTO 22011G14KT 10SM CLR 05/M06 A3003 RMK AO2 T00451060,KENL,2025-01-27T22:15:00Z,38.5095,-89.09,4.5,-6,220,11,14,10+,30.03,,,TRUE,TRUE,,,,,,,CLR,,,,,,,,VFR,,,,,,,,,,,,METAR,161
KEMV 272215Z AUTO 00000KT 10SM SCT065 SCT100 10/00 A2995 RMK AO2 T01031002,KEMV,2025-01-27T22:15:00Z,36.6858,-77.485,10.3,-0.2,0,0,,10+,29.95,,,TRUE,TRUE,,,,,,,SCT,6500,SCT,10000,,,,,VFR,,,,,,,,,,,,METAR,35
KEMM 272215Z AUTO 00000KT 10SM CLR M03/M13 A3013 RMK AO2,KEMM,2025-01-27T22:15:00Z,41.8224,-110.555,-3,-13,0,0,,10+,30.13,,,TRUE,TRUE,,,,,,,CLR,,,,,,,,VFR,,,,,,,,,,,,METAR,2219
KELO 272215Z AUTO 33014G22KT 10SM SCT033 BKN041 OVC049 M02/M09 A2954 RMK AO2,KELO,2025-01-27T22:15:00Z,47.8287,-91.8371,-2,-9,330,14,22,10+,29.54,,,TRUE,TRUE,,,,,,,SCT,3300,BKN,4100,OVC,4900,,,VFR,,,,,,,,,,,,METAR,438
KELK 272215Z AUTO 23007KT 10SM CLR 10/M09 A3012 RMK AO2 T01031092 $,KELK,2025-01-27T22:15:00Z,35.4261,-99.3926,10.3,-9.2,230,7,,10+,30.12,,,TRUE,TRUE,TRUE,,,,,,CLR,,,,,,,,VFR,,,,,,,,,,,,METAR,603
KELA 272215Z AUTO 02006KT 10SM OVC009 09/09 A3017 RMK AO2 T00930085,KELA,2025-01-27T22:15:00Z,29.602,-96.3239,9.3,8.5,20,6,,10+,30.17,,,TRUE,TRUE,,,,,,,OVC,900,,,,,,,IFR,,,,,,,,,,,,METAR,56
KEKX 272215Z AUTO 26009KT 10SM CLR 04/M12 A3003 RMK AO2 T00381117,KEKX,2025-01-27T22:15:00Z,37.6924,-85.9204,3.8,-11.7,260,9,,10+,30.03,,,TRUE,TRUE,,,,,,,CLR,,,,,,,,VFR,,,,,,,,,,,,METAR,234
KEKS 272215Z AUTO 00000KT 10SM CLR M04/M12 A3022 RMK AO2,KEKS,2025-01-27T22:15:00Z,45.276,-111.65,-4,-12,0,0,,10+,30.22,,,TRUE,TRUE,,,,,,,CLR,,,,,,,,VFR,,,,,,,,,,,,METAR,1636
KEKM 272215Z 24020G32KT 10SM SCT160 03/M07 A2970 RMK AO2 PK WND 24032/2210 T00301074 $,KEKM,2025-01-27T22:15:00Z,41.7222,-86,3,-7.4,240,20,32,10+,29.70,,,,TRUE,TRUE,,,,,,SCT,16000,,,,,,,VFR,,,,,,,,,,,,METAR,236
KEKE 272215Z AUTO 32011KT 10SM CLR 17/15 A3005 RMK A01,KEKE,2025-01-27T22:15:00Z,28.4971,-91.5702,17,15,320,11,,10+,30.05,,,TRUE,TRUE,,,,,,,CLR,,,,,,,,VFR,,,,,,,,,,,,METAR,31
KEIK 272215Z AUTO 32004KT 10SM CLR 05/M07 A3003 RMK AO2 T00451073,KEIK,2025-01-27T22:15:00Z,40.0117,-105.05,4.5,-7.3,320,4,,10+,30.03,,,TRUE,TRUE,,,,,,,CLR,,,,,,,,VFR,,,,,,,,,,,,METAR,1551
KEHY 272215Z AUTO 27017KT 10SM CLR M01/M15 A3006 RMK AO2 PWINO,KEHY,2025-01-27T22:15:00Z,41.725,-106.459,-1,-15,270,17,,10+,30.06,,,TRUE,TRUE,,,,,TRUE,,CLR,,,,,,,,VFR,,,,,,,,,,,,METAR,2239
KEHA 272215Z AUTO 22011KT 10SM CLR 14/M06 A3005 RMK AO2 T01431063,KEHA,2025-01-27T22:15:00Z,37.0011,-101.88,14.3,-6.3,220,11,,10+,30.05,,,TRUE,TRUE,,,,,,,CLR,,,,,,,,VFR,,,,,,,,,,,,METAR,1103
KEGV 272215Z 10SM OVC030 M01/M08 A2947 RMK AO2 T10151083,KEGV,2025-01-27T22:15:00Z,45.9309,-89.267,-1.5,-8.3,,,,10+,29.47,,,,TRUE,,,,,,,OVC,3000,,,,,,,MVFR,,,,,,,,,,,,METAR,499
KEGT 272215Z AUTO 22014KT 10SM CLR 09/M07 A3011 RMK AO2 T00891066,KEGT,2025-01-27T22:15:00Z,37.3251,-97.3901,8.9,-6.6,220,14,,10+,30.11,,,TRUE,TRUE,,,,,,,CLR,,,,,,,,VFR,,,,,,,,,,,,METAR,387
KEFT 272215Z AUTO 26023G26KT 10SM SCT075 04/M09 A2967 RMK AO2 T00401091,KEFT,2025-01-27T22:15:00Z,42.6196,-89.5931,4,-9.1,260,23,26,10+,29.67,,,TRUE,TRUE,,,,,,,SCT,7500,,,,,,,VFR,,,,,,,,,,,,METAR,332
KEFK 272215Z AUTO 17013G25KT 160V220 7SM OVC070 01/M12 A2937 RMK AO2 T00101119,KEFK,2025-01-27T22:15:00Z,44.8886,-72.2296,1,-11.9,170,13,25,7,29.37,,,TRUE,TRUE,,,,,,,OVC,7000,,,,,,,VFR,,,,,,,,,,,,METAR,282
KEDU 272215Z AUTO 35009KT 10SM CLR 17/M07 A3012 RMK AO1,KEDU,2025-01-27T22:15:00Z,38.53,-121.788,17,-7,350,9,,10+,30.12,,,TRUE,TRUE,,,,,,,CLR,,,,,,,,VFR,,,,,,,,,,,,METAR,20
KEDC 272215Z AUTO 04006KT 8SM OVC032 12/06 A3017 RMK AO2,KEDC,2025-01-27T22:15:00Z,30.3926,-97.5621,12,6,40,6,,8,30.17,,,TRUE,TRUE,,,,,,,OVC,3200,,,,,,,VFR,,,,,,,,,,,,METAR,184
KECU 272215Z AUTO 08004KT 10SM OVC015 08/04 A3019 RMK AO2,KECU,2025-01-27T22:15:00Z,29.948,-100.174,8,4,80,4,,10+,30.19,,,TRUE,TRUE,,,,,,,OVC,1500,,,,,,,MVFR,,,,,,,,,,,,METAR,725
KECS 272215Z AUTO 32015KT 10SM CLR 02/M10 A3003 RMK AO2,KECS,2025-01-27T22:15:00Z,43.8845,-104.312,2,-10,320,15,,10+,30.03,,,TRUE,TRUE,,,,,,,CLR,,,,,,,,VFR,,,,,,,,,,,,METAR,1273
KEBG 272215Z AUTO 36010KT 2 1/2SM BR OVC002 14/14 A3011 RMK AO2 VIS 2V3,KEBG,2025-01-27T22:15:00Z,26.4433,-98.1255,14,14,360,10,,2.5,30.11,,,TRUE,TRUE,,,,,,BR,OVC,200,,,,,,,LIFR,,,,,,,,,,,,METAR,21
KEBA 272215Z AUTO 23006KT 3 1/2SM BR OVC006 09/09 A3002 RMK AO2 T00900088,KEBA,2025-01-27T22:15:00Z,34.0957,-82.8121,9,8.8,230,6,,3.5,30.02,,,TRUE,TRUE,,,,,,BR,OVC,600,,,,,,,IFR,,,,,,,,,,,,METAR,180
KEAN 272215Z AUTO 27009G15KT 10SM CLR 06/M11 A3006 RMK AO2 T00631111,KEAN,2025-01-27T22:15:00Z,42.0563,-104.939,6.3,-11.1,270,9,15,10+,30.06,,,TRUE,TRUE,,,,,,,CLR,,,,,,,,VFR,,,,,,,,,,,,METAR,1452
KE77 272215Z AUTO 24011G19KT 10SM CLR 15/M03 A3006 RMK AO2,KE77,2025-01-27T22:15:00Z,32.634,-110.647,15,-3,240,11,19,10+,30.06,,,TRUE,TRUE,,,,,,,CLR,,,,,,,,VFR,,,,,,,,,,,,METAR,989
KE57 272215Z AUTO 18007G13KT 130V200 10SM CLR 10/M09 A3011 RMK AO2,KE57,2025-01-27T22:15:00Z,32.976,-102.843,10,-9,180,7,13,10+,30.11,,,TRUE,TRUE,,,,,,,CLR,,,,,,,,VFR,,,,,,,,,,,,METAR,1090
KE42 272215Z AUTO 22016KT 10SM CLR 12/M06 A3007 RMK AO2 T01161057,KE42,2025-01-27T22:15:00Z,36.2193,-101.194,11.6,-5.7,220,16,,10+,30.07,,,TRUE,TRUE,,,,,,,CLR,,,,,,,,VFR,,,,,,,,,,,,METAR,942
KE41 272215Z AUTO 11007KT 10SM SCT019 OVC025 06/M02 A3016 RMK AO2 T00571020,KE41,2025-01-27T22:15:00Z,31.1945,-101.473,5.7,-2,110,7,,10+,30.16,,,TRUE,TRUE,,,,,,,SCT,1900,OVC,2500,,,,,MVFR,,,,,,,,,,,,METAR,825
KE38 272215Z 10SM CLR 12/M03 A3015 RMK AO2 T01181035,KE38,2025-01-27T22:15:00Z,30.3851,-103.68,11.8,-3.5,,,,10+,30.15,,,,TRUE,,,,,,,CLR,,,,,,,,VFR,,,,,,,,,,,,METAR,1372
KE16 272215Z AUTO 33008KT 10SM CLR 15/M04 A3014 RMK AO2,KE16,2025-01-27T22:15:00Z,37.0797,-121.598,15,-4,330,8,,10+,30.14,,,TRUE,TRUE,,,,,,,CLR,,,,,,,,VFR,,,,,,,,,,,,METAR,84
KE11 272215Z AUTO 13003KT 10SM OVC028 07/M06 A3014 RMK AO2 T00701063,KE11,2025-01-27T22:15:00Z,32.3281,-102.528,7,-6.3,130,3,,10+,30.14,,,TRUE,TRUE,,,,,,,OVC,2800,,,,,,,MVFR,,,,,,,,,,,,METAR,966
KE01 272215Z AUTO 13009KT 10SM OVC030 09/M02 A3014 RMK AO2,KE01,2025-01-27T22:15:00Z,31.5804,-102.908,9,-2,130,9,,10+,30.14,,,TRUE,TRUE,,,,,,,OVC,3000,,,,,,,MVFR,,,,,,,,,,,,METAR,796
KDZJ 272215Z AUTO 30003KT 10SM OVC005 06/06 A3002 RMK AO2 P0001 T00640062,KDZJ,2025-01-27T22:15:00Z,34.8552,-84.0014,6.4,6.2,300,3,,10+,30.02,,,TRUE,TRUE,,,,,,,OVC,500,,,,,,,IFR,,,,,,0.01,,,,,,METAR,578
KDZB 272215Z AUTO 00000KT 10SM OVC029 11/02 A3019 RMK AO2 T01070024,KDZB,2025-01-27T22:15:00Z,30.521,-98.3574,10.7,2.4,0,0,,10+,30.19,,,TRUE,TRUE,,,,,,,OVC,2900,,,,,,,MVFR,,,,,,,,,,,,METAR,329
KDYT 272215Z AUTO 28012G17KT 10SM SCT044 OVC050 01/M05 A2961 RMK AO2,KDYT,2025-01-27T22:15:00Z,46.7231,-92.0438,1,-5,280,12,17,10+,29.61,,,TRUE,TRUE,,,,,,,SCT,4400,OVC,5000,,,,,VFR,,,,,,,,,,,,METAR,185
KDYB 272215Z AUTO 20004KT 10SM BKN031 OVC037 09/09 A3004 RMK AO2,KDYB,2025-01-27T22:15:00Z,33.062,-80.28,9,9,200,4,,10+,30.04,,,TRUE,TRUE,,,,,,,BKN,3100,OVC,3700,,,,,VFR,,,,,,,,,,,,METAR,15
KDXX 272215Z AUTO 31012G18KT 10SM CLR 06/M04 A2981 RMK AO2,KDXX,2025-01-27T22:15:00Z,44.9839,-96.1789,6,-4,310,12,18,10+,29.81,,,TRUE,TRUE,,,,,,,CLR,,,,,,,,VFR,,,,,,,,,,,,METAR,327
KDWX 272215Z AUTO 00000KT CLR M07/M13 A3018 RMK AO2 T10671126 PWINO,KDWX,2025-01-27T22:15:00Z,41.037,-107.5,-6.7,-12.6,0,0,,,30.18,,,TRUE,TRUE,,,,,TRUE,,CLR,,,,,,,,,,,,,,,,,,,,METAR,1974
KDWA 272215Z AUTO 36013KT 10SM CLR 17/M07 A3013 RMK AO2,KDWA,2025-01-27T22:15:00Z,38.5803,-121.854,17,-7,360,13,,10+,30.13,,,TRUE,TRUE,,,,,,,CLR,,,,,,,,VFR,,,,,,,,,,,,METAR,28
KDVO 272215Z AUTO 00000KT 10SM CLR 19/M04 A3012 RMK AO2,KDVO,2025-01-27T22:15:00Z,38.1417,-122.555,19,-4,0,0,,10+,30.12,,,TRUE,TRUE,,,,,,,CLR,,,,,,,,VFR,,,,,,,,,,,,METAR,1
KDVK 272215Z AUTO 27005KT 10SM CLR 05/M10 A3002 RMK AO2,KDVK,2025-01-27T22:15:00Z,37.5764,-84.7641,5,-10,270,5,,10+,30.02,,,TRUE,TRUE,,,,,,,CLR,,,,,,,,VFR,,,,,,,,,,,,METAR,309
KDUX 272215Z AUTO 20014KT 10SM CLR 10/M06 A3007 RMK AO2 T01041062,KDUX,2025-01-27T22:15:00Z,35.8608,-102.009,10.4,-6.2,200,14,,10+,30.07,,,TRUE,TRUE,,,,,,,CLR,,,,,,,,VFR,,,,,,,,,,,,METAR,1129
KDUH 272215Z AUTO 23012G24KT 10SM CLR 03/M11 A2968 RMK AO2 T00251110,KDUH,2025-01-27T22:15:00Z,41.7375,-83.6493,2.5,-11,230,12,24,10+,29.68,,,TRUE,TRUE,,,,,,,CLR,,,,,,,,VFR,,,,,,,,,,,,METAR,203
KDUC 272215Z AUTO 22004KT 10SM CLR 10/M10 A3019 RMK AO2,KDUC,2025-01-27T22:15:00Z,34.4778,-97.9616,10,-10,220,4,,10+,30.19,,,TRUE,TRUE,,,,,,,CLR,,,,,,,,VFR,,,,,,,,,,,,METAR,339
KDUA 272215Z AUTO 00000KT 10SM CLR 11/M04 A3021 RMK AO2,KDUA,2025-01-27T22:15:00Z,33.9427,-96.3967,11,-4,0,0,,10+,30.21,,,TRUE,TRUE,,,,,,,CLR,,,,,,,,VFR,,,,,,,,,,,,METAR,209
KDTL 272215Z AUTO 32013G20KT 10SM 00/M04 A2975 RMK AO2,KDTL,2025-01-27T22:15:00Z,46.8286,-95.8857,0,-4,320,13,20,10+,29.75,,,TRUE,TRUE,,,,,,,,,,,,,,,VFR,,,,,,,,,,,,METAR,425
KDTA 272215Z AUTO 10SM CLR 01/M08 A3010 RMK AO1,KDTA,2025-01-27T22:15:00Z,39.3879,-112.504,1,-8,,,,10+,30.10,,,TRUE,TRUE,,,,,,,CLR,,,,,,,,VFR,,,,,,,,,,,,METAR,1452
KDRP 272215Z AUTO 00000KT 10SM CLR 09/M05 A3017 RMK AO2,KDRP,2025-01-27T22:15:00Z,35.1213,-90.8246,9,-5,0,0,,10+,30.17,,,TRUE,TRUE,,,,,,,CLR,,,,,,,,VFR,,,,,,,,,,,,METAR,73
KDRM 272215Z AUTO 26010G21KT 190V300 5SM -SN SCT016 BKN033 OVC042 00/M03 A2928 RMK AO2 T10021030,KDRM,2025-01-27T22:15:00Z,46.009,-83.743,-0.2,-3,260,10,21,5,29.28,,,TRUE,TRUE,,,,,,-SN,SCT,1600,BKN,3300,OVC,4200,,,MVFR,,,,,,,,,,,,METAR,201
KDRI 272215Z AUTO VRB05KT 10SM OVC014 12/09 A3018 RMK AO2 T01200092 $,KDRI,2025-01-27T22:15:00Z,30.8344,-93.3359,12,9.2,VRB,5,,10+,30.18,,,TRUE,TRUE,TRUE,,,,,,OVC,1400,,,,,,,MVFR,,,,,,,,,,,,METAR,59
KDNV 272215Z AUTO 23016G28KT 10SM CLR 03/M06 A2989 RMK AO2 T00311057,KDNV,2025-01-27T22:15:00Z,40.2032,-87.5897,3.1,-5.7,230,16,28,10+,29.89,,,TRUE,TRUE,,,,,,,CLR,,,,,,,,VFR,,,,,,,,,,,,METAR,208
KDNS 272215Z AUTO 26010KT 10SM CLR 09/M12 A2983 RMK AO2,KDNS,2025-01-27T22:15:00Z,41.9842,-95.38,9,-12,260,10,,10+,29.83,,,TRUE,TRUE,,,,,,,CLR,,,,,,,,VFR,,,,,,,,,,,,METAR,382
KDNN 272215Z AUTO 33004KT 10SM BKN015 OVC021 09/08 A3006 RMK AO2 CIG 013V020 OVC V BKN T00870084,KDNN,2025-01-27T22:15:00Z,34.727,-84.8733,8.7,8.4,330,4,,10+,30.06,,,TRUE,TRUE,,,,,,,BKN,1500,OVC,2100,,,,,MVFR,,,,,,,,,,,,METAR,216
KDNA 272215Z AUTO 12009KT 10SM CLR 18/M07 A2999 RMK AO2,KDNA,2025-01-27T22:15:00Z,31.875,-106.694,18,-7,120,9,,10+,29.99,,,TRUE,TRUE,,,,,,,CLR,,,,,,,,VFR,,,,,,,,,,,,METAR,1254
KDLZ 272215Z AUTO 22009KT 10SM CLR M01/M11 A2987 RMK AO2,KDLZ,2025-01-27T22:15:00Z,40.281,-83.114,-1,-11,220,9,,10+,29.87,,,TRUE,TRUE,,,,,,,CLR,,,,,,,,VFR,,,,,,,,,,,,METAR,287
KDLO 272215Z AUTO 01004KT 10SM CLR 11/02 A3015 RMK AO2 T01100016,KDLO,2025-01-27T22:15:00Z,35.7449,-119.239,11,1.6,10,4,,10+,30.15,,,TRUE,TRUE,,,,,,,CLR,,,,,,,,VFR,,,,,,,,,,,,METAR,97
KDLL 272215Z AUTO 25014G23KT 10SM SCT043 BKN050 OVC080 03/M07 A2961 RMK AO2 T00321075,KDLL,2025-01-27T22:15:00Z,43.5236,-89.7736,3.2,-7.5,250,14,23,10+,29.61,,,TRUE,TRUE,,,,,,,SCT,4300,BKN,5000,OVC,8000,,,VFR,,,,,,,,,,,,METAR,297
KDKX 272215Z AUTO 00000KT 10SM BKN014 BKN049 BKN055 07/06 A3004 RMK A01,KDKX,2025-01-27T22:15:00Z,35.9658,-83.8717,7,6,0,0,,10+,30.04,,,TRUE,TRUE,,,,,,,BKN,1400,BKN,4900,BKN,5500,,,MVFR,,,,,,,,,,,,METAR,253
KDKR 272215Z AUTO 00000KT 10SM 10/09 A3020 RMK AO2,KDKR,2025-01-27T22:15:00Z,31.3097,-95.4039,10,9,0,0,,10+,30.20,,,TRUE,TRUE,,,,,,,,,,,,,,,VFR,,,,,,,,,,,,METAR,105
KDKB 272215Z AUTO 24017G30KT 10SM SCT090 BKN110 06/M11 A2972 RMK AO2 T00551106,KDKB,2025-01-27T22:15:00Z,41.9338,-88.7066,5.5,-10.6,240,17,30,10+,29.72,,,TRUE,TRUE,,,,,,,SCT,9000,BKN,11000,,,,,VFR,,,,,,,,,,,,METAR,277
KDHN 272215Z 31004KT 3SM -RA BR FEW010 OVC013 13/12 A3010 RMK AO2 P0000 T01330122,KDHN,2025-01-27T22:15:00Z,31.3177,-85.4432,13.3,12.2,310,4,,3,30.10,,,,TRUE,,,,,,-RA BR,FEW,1000,OVC,1300,,,,,MVFR,,,,,,0.005,,,,,,SPECI,113
KDEH 272215Z AUTO 26009G17KT 210V290 10SM SCT046 BKN060 04/M11 A2969 RMK AO2,KDEH,2025-01-27T22:15:00Z,43.2755,-91.7433,4,-11,260,9,17,10+,29.69,,,TRUE,TRUE,,,,,,,SCT,4600,BKN,6000,,,,,VFR,,,,,,,,,,,,METAR,348
KDED 272215Z AUTO 22005KT 10SM CLR 21/08 A3012 RMK AO2 T02130078,KDED,2025-01-27T22:15:00Z,29.075,-81.286,21.3,7.8,220,5,,10+,30.12,,,TRUE,TRUE,,,,,,,CLR,,,,,,,,VFR,,,,,,,,,,,,METAR,21
KDCY 272215Z AUTO 22011KT 10SM CLR 01/M07 A3002 RMK AO2 T00131069,KDCY,2025-01-27T22:15:00Z,38.6953,-87.1314,1.3,-6.9,220,11,,10+,30.02,,,TRUE,TRUE,,,,,,,CLR,,,,,,,,VFR,,,,,,,,,,,,METAR,143
KDCM 272215Z AUTO 21004KT 10SM OVC004 08/08 A2998 RMK AO2,KDCM,2025-01-27T22:15:00Z,34.7908,-81.1987,8,8,210,4,,10+,29.98,,,TRUE,TRUE,,,,,,,OVC,400,,,,,,,LIFR,,,,,,,,,,,,METAR,191
KDBN 272215Z AUTO 19005KT 9SM FEW005 OVC021 10/10 A3006 RMK AO2 RAE2206 CIG 017V026 P0001 T00980096,KDBN,2025-01-27T22:15:00Z,32.5632,-82.9855,9.8,9.6,190,5,,9,30.06,,,TRUE,TRUE,,,,,,,FEW,500,OVC,2100,,,,,MVFR,,,,,,0.01,,,,,,METAR,90
KD95 272215Z AUTO 24015G23KT 10SM CLR 01/M09 A2953 RMK AO2 T00131094,KD95,2025-01-27T22:15:00Z,43.0675,-83.2702,1.3,-9.4,240,15,23,10+,29.53,,,TRUE,TRUE,,,,,,,CLR,,,,,,,,VFR,,,,,,,,,,,,METAR,253
KD60 272215Z AUTO 30012KT 10SM CLR M02/M03 A2991 RMK AO2,KD60,2025-01-27T22:15:00Z,48.3834,-102.898,-2,-3,300,12,,10+,29.91,,,TRUE,TRUE,,,,,,,CLR,,,,,,,,VFR,,,,,,,,,,,,METAR,682
KD57 272215Z AUTO 31019KT 10SM CLR 02/M05 A2991 RMK AO2,KD57,2025-01-27T22:15:00Z,46.814,-101.864,2,-5,310,19,,10+,29.91,,,TRUE,TRUE,,,,,,,CLR,,,,,,,,VFR,,,,,,,,,,,,METAR,636
KD50 272215Z AUTO 29010KT 10SM CLR M00/M05 A2989 RMK AO2,KD50,2025-01-27T22:15:00Z,48.9248,-103.296,0,-5,290,10,,10+,29.89,,,TRUE,TRUE,,,,,,,CLR,,,,,,,,VFR,,,,,,,,,,,,METAR,591
KD39 272215Z AUTO 29010KT 10SM SCT120 01/M04 A2971 RMK AO2 T00051036,KD39,2025-01-27T22:15:00Z,45.7057,-94.9308,0.5,-3.6,290,10,,10+,29.71,,,TRUE,TRUE,,,,,,,SCT,12000,,,,,,,VFR,,,,,,,,,,,,METAR,378
KD25 272215Z AUTO 28014G22KT 10SM UP BKN031 OVC039 M01/M07 A2949 RMK AO2 T10151072,KD25,2025-01-27T22:15:00Z,46.1203,-89.88,-1.5,-7.2,280,14,22,10+,29.49,,,TRUE,TRUE,,,,,,UP,BKN,3100,OVC,3900,,,,,VFR,,,,,,,,,,,,METAR,490
KD09 272215Z AUTO 31011KT 10SM OVC046 M02/M04 A2983 RMK AO2,KD09,2025-01-27T22:15:00Z,48.83,-100.417,-2,-4,310,11,,10+,29.83,,,TRUE,TRUE,,,,,,,OVC,4600,,,,,,,VFR,,,,,,,,,,,,METAR,512
KCZL 272215Z AUTO 31003KT 10SM SCT014 BKN018 OVC037 10/09 A3006 RMK AO2,KCZL,2025-01-27T22:15:00Z,34.45,-84.936,10,9,310,3,,10+,30.06,,,TRUE,TRUE,,,,,,,SCT,1400,BKN,1800,OVC,3700,,,MVFR,,,,,,,,,,,,METAR,197
KCYD 272215Z AUTO 00000KT 7SM HZ BKN047 23/17 A3013 RMK A02 T02260165,KCYD,2025-01-27T22:15:00Z,28.1694,-89.2228,22.6,16.5,0,0,,7,30.13,,,TRUE,TRUE,,,,,,HZ,BKN,4700,,,,,,,VFR,,,,,,,,,,,,METAR,30
KCXU 272215Z AUTO 17003KT 1SM RA BR BKN005 OVC009 13/13 A3008 RMK AO2,KCXU,2025-01-27T22:15:00Z,31.2141,-84.2358,13,13,170,3,,1,30.08,,,TRUE,TRUE,,,,,,RA BR,BKN,500,OVC,900,,,,,IFR,,,,,,,,,,,,METAR,48
KCXE 272215Z AUTO 00000KT 10SM CLR 10/M01 A2992 RMK AO1 T00951006,KCXE,2025-01-27T22:15:00Z,36.7923,-78.5027,9.5,-0.6,0,0,,10+,29.92,,,TRUE,TRUE,,,,,,,CLR,,,,,,,,VFR,,,,,,,,,,,,METAR,154
KCWV 272215Z AUTO VRB04KT 8SM -DZ BKN039 BKN048 OVC070 12/11 A3006 RMK AO2,KCWV,2025-01-27T22:15:00Z,32.193,-81.873,12,11,VRB,4,,8,30.06,,,TRUE,TRUE,,,,,,-DZ,BKN,3900,BKN,4800,OVC,7000,,,VFR,,,,,,,,,,,,METAR,32
KCWC 272215Z AUTO 30006KT 7SM CLR 09/M13 A3021 RMK AO2 T00901128,KCWC,2025-01-27T22:15:00Z,33.8629,-98.4914,9,-12.8,300,6,,7,30.21,,,TRUE,TRUE,,,,,,,CLR,,,,,,,,VFR,,,,,,,,,,,,METAR,304
KCVX 272215Z AUTO 26018G28KT 5SM -SN HZ FEW037 OVC047 01/M02 A2937 RMK AO2 PK WND 25028/13,KCVX,2025-01-27T22:15:00Z,45.304,-85.2689,1,-2,260,18,28,5,29.37,,,TRUE,TRUE,,,,,,-SN HZ,FEW,3700,OVC,4700,,,,,MVFR,,,,,,,,,,,,METAR,196
KCVH 272215Z AUTO 00000KT 10SM CLR 14/M01 A3014 RMK A01,KCVH,2025-01-27T22:15:00Z,36.8919,-121.41,14,-1,0,0,,10+,30.14,,,TRUE,TRUE,,,,,,,CLR,,,,,,,,VFR,,,,,,,,,,,,METAR,68
KCVC 272215Z AUTO DZ A3003 RMK AO2,KCVC,2025-01-27T22:15:00Z,33.6312,-83.8482,,,,,,,30.03,,,TRUE,TRUE,,,,,,DZ,,,,,,,,,,,,,,,,,,,,,METAR,240
KCVB 272215Z AUTO 04007KT 10SM OVC020 12/06 A3016 RMK AO2,KCVB,2025-01-27T22:15:00Z,29.343,-98.8497,12,6,40,7,,10+,30.16,,,TRUE,TRUE,,,,,,,OVC,2000,,,,,,,MVFR,,,,,,,,,,,,METAR,234
KCUH 272215Z AUTO 25003KT 10SM CLR 10/M10 A3015 RMK AO2 T00981102,KCUH,2025-01-27T22:15:00Z,35.949,-96.768,9.8,-10.2,250,3,,10+,30.15,,,TRUE,TRUE,,,,,,,CLR,,,,,,,,VFR,,,,,,,,,,,,METAR,274
KCTY 272215Z AUTO 24006KT 10SM SCT100 19/11 A3012 RMK AO2,KCTY,2025-01-27T22:15:00Z,29.6334,-83.1055,19,11,240,6,,10+,30.12,,,TRUE,TRUE,,,,,,,SCT,10000,,,,,,,VFR,,,,,,,,,,,,METAR,12
KCTJ 272215Z AUTO 29004KT 10SM BKN011 OVC022 09/08 A3009 RMK AO2 T00910076,KCTJ,2025-01-27T22:15:00Z,33.6313,-85.1538,9.1,7.6,290,4,,10+,30.09,,,TRUE,TRUE,,,,,,,BKN,1100,OVC,2200,,,,,MVFR,,,,,,,,,,,,METAR,351
KCSQ 272215Z AUTO 25017KT 10SM CLR 09/M11 A2986 RMK AO2,KCSQ,2025-01-27T22:15:00Z,41.0188,-94.361,9,-11,250,17,,10+,29.86,,,TRUE,TRUE,,,,,,,CLR,,,,,,,,VFR,,,,,,,,,,,,METAR,394
KCSB 272215Z AUTO 28013G19KT 10SM CLR 14/M14 A2995 RMK AO2,KCSB,2025-01-27T22:15:00Z,40.307,-100.162,14,-14,280,13,19,10+,29.95,,,TRUE,TRUE,,,,,,,CLR,,,,,,,,VFR,,,,,,,,,,,,METAR,736
KCQW 272215Z AUTO 26004KT 9SM OVC005 09/09 A2999 RMK AO2,KCQW,2025-01-27T22:15:00Z,34.7128,-79.9622,9,9,260,4,,9,29.99,,,TRUE,TRUE,,,,,,,OVC,500,,,,,,,IFR,,,,,,,,,,,,METAR,67
KCQF 272215Z AUTO 32004KT 10SM OVC011 16/14 A3009 RMK AO2,KCQF,2025-01-27T22:15:00Z,30.4618,-87.8749,16,14,320,4,,10+,30.09,,,TRUE,TRUE,,,,,,,OVC,1100,,,,,,,MVFR,,,,,,,,,,,,METAR,21
KCPW 272215Z AUTO 18009G17KT 10SM SCT040 SCT046 BKN065 M05/M18 A3012 RMK AO2,KCPW,2025-01-27T22:15:00Z,37.464,-106.804,-5,-18,180,9,17,10+,30.12,,,TRUE,TRUE,,,,,,,SCT,4000,SCT,4600,BKN,6500,,,VFR,,,,,,,,,,,,METAR,3570
KCPU 272215Z AUTO 22006KT 10SM CLR 12/01 A3011 RMK AO2 T01230006,KCPU,2025-01-27T22:15:00Z,38.1445,-120.645,12.3,0.6,220,6,,10+,30.11,,,TRUE,TRUE,,,,,,,CLR,,,,,,,,VFR,,,,,,,,,,,,METAR,400
KCPT 272215Z AUTO 00000KT 8SM CLR 10/M05 A3015 RMK AO2 T01021052 $,KCPT,2025-01-27T22:15:00Z,32.3526,-97.435,10.2,-5.2,0,0,,8,30.15,,,TRUE,TRUE,TRUE,,,,,,CLR,,,,,,,,VFR,,,,,,,,,,,,METAR,260
KCPP 272215Z AUTO 24005KT 2SM BR OVC003 09/09 A3001 RMK AO2,KCPP,2025-01-27T22:15:00Z,33.5991,-83.1401,9,9,240,5,,2,30.01,,,TRUE,TRUE,,,,,,BR,OVC,300,,,,,,,LIFR,,,,,,,,,,,,METAR,207
KCPK 272215Z AUTO 20008KT 10SM SCT070 10/01 A2993 RMK AO2 T00970006,KCPK,2025-01-27T22:15:00Z,36.6631,-76.3264,9.7,0.6,200,8,,10+,29.93,,,TRUE,TRUE,,,,,,,SCT,7000,,,,,,,VFR,,,,,,,,,,,,METAR,4
KCPF 272215Z AUTO 26005KT 10SM CLR 07/M10 A2999 RMK AO2,KCPF,2025-01-27T22:15:00Z,37.3869,-83.2593,7,-10,260,5,,10+,29.99,,,TRUE,TRUE,,,,,,,CLR,,,,,,,,VFR,,,,,,,,,,,,METAR,382
KCOQ 272215Z AUTO 29013G20KT 10SM BKN044 OVC050 00/M07 A2959 RMK AO2 TSNO,KCOQ,2025-01-27T22:15:00Z,46.6986,-92.5034,0,-7,290,13,20,10+,29.59,,,TRUE,TRUE,,,TRUE,,,,BKN,4400,OVC,5000,,,,,VFR,,,,,,,,,,,,METAR,390
KCOM 272215Z AUTO 00000KT 10SM OVC029 09/M07 A3019 RMK AO2 T00861069,KCOM,2025-01-27T22:15:00Z,31.8415,-99.4058,8.6,-6.9,0,0,,10+,30.19,,,TRUE,TRUE,,,,,,,OVC,2900,,,,,,,MVFR,,,,,,,,,,,,METAR,516
KCNI 272215Z AUTO 29007KT 270V330 7SM OVC004 08/07 A3005 RMK AO2 T00760072,KCNI,2025-01-27T22:15:00Z,34.31,-84.424,7.6,7.2,290,7,,7,30.05,,,TRUE,TRUE,,,,,,,OVC,400,,,,,,,LIFR,,,,,,,,,,,,METAR,371
KCNC 272215Z AUTO 24016G22KT 10SM CLR 06/M10 A2985 RMK AO2,KCNC,2025-01-27T22:15:00Z,41.0185,-93.3608,6,-10,240,16,22,10+,29.85,,,TRUE,TRUE,,,,,,,CLR,,,,,,,,VFR,,,,,,,,,,,,METAR,319
KCNB 272215Z AUTO 30013KT 10SM CLR 05/M04 A2980 RMK AO2 T00511045,KCNB,2025-01-27T22:15:00Z,44.7297,-96.2623,5.1,-4.5,300,13,,10+,29.80,,,TRUE,TRUE,,,,,,,CLR,,,,,,,,VFR,,,,,,,,,,,,METAR,363
KCMR 272215Z AUTO 24005KT 1 3/4SM -SN SCT003 SCT007 BKN033 M01/M02 A2998 RMK AO2,KCMR,2025-01-27T22:15:00Z,35.3016,-112.197,-1,-2,240,5,,1.75,29.98,,,TRUE,TRUE,,,,,,-SN,SCT,300,SCT,700,BKN,3300,,,IFR,,,,,,,,,,,,METAR,2039
KCMD 272215Z AUTO 00000KT 10SM FEW021 07/05 A3011 RMK AO2,KCMD,2025-01-27T22:15:00Z,34.2722,-86.8583,7,5,0,0,,10+,30.11,,,TRUE,TRUE,,,,,,,FEW,2100,,,,,,,VFR,,,,,,,,,,,,METAR,294
KCLW 272215Z AUTO 32005KT 10SM CLR 17/11 A3014 RMK AO2,KCLW,2025-01-27T22:15:00Z,27.9741,-82.7563,17,11,320,5,,10+,30.14,,,TRUE,TRUE,,,,,,,CLR,,,,,,,,VFR,,,,,,,,,,,,METAR,21
KCLS 272215Z AUTO 31006KT 10SM CLR 08/00 A3031 RMK AO2,KCLS,2025-01-27T22:15:00Z,46.6774,-122.986,8,0,310,6,,10+,30.31,,,TRUE,TRUE,,,,,,,CLR,,,,,,,,VFR,,,,,,,,,,,,METAR,52
KCLK 272215Z AUTO 24007G15KT 10SM CLR 10/M10 A3015 RMK AO2,KCLK,2025-01-27T22:15:00Z,35.5381,-98.9336,10,-10,240,7,15,10+,30.15,,,TRUE,TRUE,,,,,,,CLR,,,,,,,,VFR,,,,,,,,,,,,METAR,489
KCLI 272215Z AUTO 28016G23KT 10SM SCT034 BKN055 BKN100 01/M05 A2954 RMK AO2 T00111050,KCLI,2025-01-27T22:15:00Z,44.6152,-88.7313,1.1,-5,280,16,23,10+,29.54,,,TRUE,TRUE,,,,,,,SCT,3400,BKN,5500,BKN,10000,,,VFR,,,,,,,,,,,,METAR,248
KCKZ 272215Z AUTO 23005KT 10SM CLR 02/M14 A2980 RMK AO2,KCKZ,2025-01-27T22:15:00Z,40.3864,-75.2953,2,-14,230,5,,10+,29.80,,,TRUE,TRUE,,,,,,,CLR,,,,,,,,VFR,,,,,,,,,,,,METAR,160
KCKP 272215Z AUTO 30012G17KT 10SM SCT100 09/M11 A2981 RMK AO2,KCKP,2025-01-27T22:15:00Z,42.7304,-95.5538,9,-11,300,12,17,10+,29.81,,,TRUE,TRUE,,,,,,,SCT,10000,,,,,,,VFR,,,,,,,,,,,,METAR,369
KCKN 272215Z AUTO 31009KT 10SM SCT044 02/M02 A2979 RMK AO2,KCKN,2025-01-27T22:15:00Z,47.8404,-96.6201,2,-2,310,9,,10+,29.79,,,TRUE,TRUE,,,,,,,SCT,4400,,,,,,,VFR,,,,,,,,,,,,METAR,272
KCKM 272215Z AUTO 27006KT 10SM 10/ A3019 RMK A01,KCKM,2025-01-27T22:15:00Z,34.2945,-90.5146,10,,270,6,,10+,30.19,,,TRUE,TRUE,,,,,,,,,,,,,,,VFR,,,,,,,,,,,,METAR,52
KCKI 272215Z AUTO 22004KT 10SM BKN008 BKN020 OVC075 08/07 A3004 RMK AO2,KCKI,2025-01-27T22:15:00Z,33.7187,-79.8567,8,7,220,4,,10+,30.04,,,TRUE,TRUE,,,,,,,BKN,800,BKN,2000,OVC,7500,,,IFR,,,,,,,,,,,,METAR,19
KCKF 272215Z AUTO 00000KT 1 1/4SM -RA BKN004 OVC014 11/10 A3009 RMK AO2 P0002 T01070103,KCKF,2025-01-27T22:15:00Z,31.9889,-83.7739,10.7,10.3,0,0,,1.25,30.09,,,TRUE,TRUE,,,,,,-RA,BKN,400,OVC,1400,,,,,LIFR,,,,,,0.02,,,,,,METAR,92
KCKC 272215Z AUTO 34017G22KT 10SM SCT031 SCT039 M07/M15 A2945 RMK AO2,KCKC,2025-01-27T22:15:00Z,47.8366,-90.3864,-7,-15,340,17,22,10+,29.45,,,TRUE,TRUE,,,,,,,SCT,3100,SCT,3900,,,,,VFR,,,,,,,,,,,,METAR,544
KCJR 272215Z AUTO 00000KT 10SM CLR 08/M07 A2987 RMK AO2 T00821066,KCJR,2025-01-27T22:15:00Z,38.5261,-77.8574,8.2,-6.6,0,0,,10+,29.87,,,TRUE,TRUE,,,,,,,CLR,,,,,,,,VFR,,,,,,,,,,,,METAR,90
KCIR 272215Z AUTO 22007KT 10SM CLR 06/M06 A3013 RMK AO2 T00551063,KCIR,2025-01-27T22:15:00Z,37.0639,-89.2232,5.5,-6.3,220,7,,10+,30.13,,,TRUE,TRUE,,,,,,,CLR,,,,,,,,VFR,,,,,,,,,,,,METAR,96
KCIN 272215Z AUTO 25012KT 10SM SCT120 07/M10 A2981 RMK AO2,KCIN,2025-01-27T22:15:00Z,42.0444,-94.7888,7,-10,250,12,,10+,29.81,,,TRUE,TRUE,,,,,,,SCT,12000,,,,,,,VFR,,,,,,,,,,,,METAR,365
KCHK 272215Z AUTO 20004KT 10SM CLR 10/M10 A3014 RMK AO2 T01041103,KCHK,2025-01-27T22:15:00Z,35.0927,-97.9709,10.4,-10.3,200,4,,10+,30.14,,,TRUE,TRUE,,,,,,,CLR,,,,,,,,VFR,,,,,,,,,,,,METAR,346
KCGC 272215Z AUTO 00000KT 10SM CLR 17/11 A3014 RMK AO2,KCGC,2025-01-27T22:15:00Z,28.866,-82.5741,17,11,0,0,,10+,30.14,,,TRUE,TRUE,,,,,,,CLR,,,,,,,,VFR,,,,,,,,,,,,METAR,3
KCFS 272215Z AUTO 24024G31KT 10SM CLR 01/M08 A2949 RMK AO2 T00071083,KCFS,2025-01-27T22:15:00Z,43.4624,-83.4428,0.7,-8.3,240,24,31,10+,29.49,,,TRUE,TRUE,,,,,,,CLR,,,,,,,,VFR,,,,,,,,,,,,METAR,214
KCFJ 272215Z AUTO 23016G21KT 10SM CLR 01/M10 A2990 RMK AO2 T00051097,KCFJ,2025-01-27T22:15:00Z,39.9767,-86.9148,0.5,-9.7,230,16,21,10+,29.90,,,TRUE,TRUE,,,,,,,CLR,,,,,,,,VFR,,,,,,,,,,,,METAR,243
KCFE 272215Z AUTO 28012G21KT 10SM CLR 02/M04 A2969 RMK AO2,KCFE,2025-01-27T22:15:00Z,45.1601,-93.846,2,-4,280,12,21,10+,29.69,,,TRUE,TRUE,,,,,,,CLR,,,,,,,,VFR,,,,,,,,,,,,METAR,292
KCFD 272215Z AUTO 07006KT 10SM OVC075 14/08 A3019 RMK AO2 T01400075,KCFD,2025-01-27T22:15:00Z,30.7171,-96.3347,14,7.5,70,6,,10+,30.19,,,TRUE,TRUE,,,,,,,OVC,7500,,,,,,,VFR,,,,,,,,,,,,METAR,106
KCDN 272215Z AUTO 00000KT 10SM OVC008 09/09 A3001 RMK AO2,KCDN,2025-01-27T22:15:00Z,34.2815,-80.5636,9,9,0,0,,10+,30.01,,,TRUE,TRUE,,,,,,,OVC,800,,,,,,,IFR,,,,,,,,,,,,METAR,90
KCDI 272215Z AUTO 22006KT 10SM CLR 02/M11 A2989 RMK AO2 T00191113,KCDI,2025-01-27T22:15:00Z,39.976,-81.577,1.9,-11.3,220,6,,10+,29.89,,,TRUE,TRUE,,,,,,,CLR,,,,,,,,VFR,,,,,,,,,,,,METAR,241
KCDH 272215Z AUTO 00000KT 10SM CLR 14/01 A3018 RMK AO2,KCDH,2025-01-27T22:15:00Z,33.619,-92.765,14,1,0,0,,10+,30.18,,,TRUE,TRUE,,,,,,,CLR,,,,,,,,VFR,,,,,,,,,,,,METAR,38
KCDA 272215Z AUTO 15008KT 10SM OVC100 00/M11 A2943 RMK AO2 T10051111,KCDA,2025-01-27T22:15:00Z,44.5677,-72.0191,-0.5,-11.1,150,8,,10+,29.43,,,TRUE,TRUE,,,,,,,OVC,10000,,,,,,,VFR,,,,,,,,,,,,METAR,357
KCCY 272215Z AUTO 28012KT 10SM FEW040 BKN049 05/M10 A2973 RMK AO2,KCCY,2025-01-27T22:15:00Z,43.073,-92.6132,5,-10,280,12,,10+,29.73,,,TRUE,TRUE,,,,,,,FEW,4000,BKN,4900,,,,,VFR,,,,,,,,,,,,METAR,340
KCCU 272215Z AUTO 20003KT 10SM CLR M02/M20 A3011 RMK AO2,KCCU,2025-01-27T22:15:00Z,39.475,-106.152,-2,-20,200,3,,10+,30.11,,,TRUE,TRUE,,,,,,,CLR,,,,,,,,VFR,,,,,,,,,,,,METAR,3672
KCCO 272215Z AUTO 00000KT 1 3/4SM RA OVC003 10/10 A3008 RMK AO2 T01000095,KCCO,2025-01-27T22:15:00Z,33.3107,-84.7713,10,9.5,0,0,,1.75,30.08,,,TRUE,TRUE,,,,,,RA,OVC,300,,,,,,,LIFR,,,,,,,,,,,,METAR,290
KCCA 272215Z AUTO 19007G15KT 170V230 10SM CLR 11/M09 A3015 RMK AO2,KCCA,2025-01-27T22:15:00Z,35.5946,-92.4455,11,-9,190,7,15,10+,30.15,,,TRUE,TRUE,,,,,,,CLR,,,,,,,,VFR,,,,,,,,,,,,METAR,152
KCBK 272215Z AUTO 29013KT 10SM CLR 14/M15 A3001 RMK AO2 T01411154,KCBK,2025-01-27T22:15:00Z,39.4301,-101.051,14.1,-15.4,290,13,,10+,30.01,,,TRUE,TRUE,,,,,,,CLR,,,,,,,,VFR,,,,,,,,,,,,METAR,970
KCBG 272215Z AUTO 28008G14KT 10SM CLR 02/M05 A2967 RMK AO2,KCBG,2025-01-27T22:15:00Z,45.557,-93.264,2,-5,280,8,14,10+,29.67,,,TRUE,TRUE,,,,,,,CLR,,,,,,,,VFR,,,,,,,,,,,,METAR,285
KCBF 272215Z AUTO 28014G19KT 10SM CLR 10/M14 A2985 RMK AO2,KCBF,2025-01-27T22:15:00Z,41.2611,-95.7604,10,-14,280,14,19,10+,29.85,,,TRUE,TRUE,,,,,,,CLR,,,,,,,,VFR,,,,,,,,,,,,METAR,379
KCAV 272215Z AUTO 28014KT 10SM FEW050 SCT055 07/M12 A2978 RMK A01,KCAV,2025-01-27T22:15:00Z,42.743,-93.7592,7,-12,280,14,,10+,29.78,,,TRUE,TRUE,,,,,,,FEW,5000,SCT,5500,,,,,VFR,,,,,,,,,,,,METAR,352
KCAD 272215Z AUTO 24018G25KT 1/2SM -SN FZFG OVC005 M01/M02 A2941 RMK AO2 PK WND 24027/24,KCAD,2025-01-27T22:15:00Z,44.2785,-85.4207,-1,-2,240,18,25,0.5,29.41,,,TRUE,TRUE,,,,,,-SN FZFG,OVC,500,,,,,,,LIFR,,,,,,,,,,,,METAR,397
KC75 272215Z AUTO 24014G25KT 10SM CLR 07/M09 A2981 RMK AO2 T00651093,KC75,2025-01-27T22:15:00Z,41.0231,-89.3886,6.5,-9.3,240,14,25,10+,29.81,,,TRUE,TRUE,,,,,,,CLR,,,,,,,,VFR,,,,,,,,,,,,METAR,166
KC65 272215Z AUTO 23017G30KT 10SM CLR 04/M09 A2975 RMK A01,KC65,2025-01-27T22:15:00Z,41.3636,-86.2998,4,-9,230,17,30,10+,29.75,,,TRUE,TRUE,,,,,,,CLR,,,,,,,,VFR,,,,,,,,,,,,METAR,241
KC35 272215Z AUTO 25016G22KT 10SM SCT043 BKN050 OVC080 03/M08 A2963 RMK AO2 T00311076 PWINO,KC35,2025-01-27T22:15:00Z,43.5261,-89.9809,3.1,-7.6,250,16,22,10+,29.63,,,TRUE,TRUE,,,,,TRUE,,SCT,4300,BKN,5000,OVC,8000,,,VFR,,,,,,,,,,,,METAR,272
KC29 272215Z AUTO 27022G28KT 10SM SCT049 BKN060 OVC070 06/M10 A2964 RMK AO1 T00551100,KC29,2025-01-27T22:15:00Z,43.1153,-89.5312,5.5,-10,270,22,28,10+,29.64,,,TRUE,TRUE,,,,,,,SCT,4900,BKN,6000,OVC,7000,,,VFR,,,,,,,,,,,,METAR,282
KC09 272215Z AUTO 24017G22KT 10SM CLR 06/M09 A2976 RMK AO2 T00621086,KC09,2025-01-27T22:15:00Z,41.4317,-88.4152,6.2,-8.6,240,17,22,10+,29.76,,,TRUE,TRUE,,,,,,,CLR,,,,,,,,VFR,,,,,,,,,,,,METAR,179
KC07 272215Z AUTO 00000KT 10SM CLR M03/M11 A3011 RMK AO2,KC07,2025-01-27T22:15:00Z,40.3544,-106.699,-3,-11,0,0,,10+,30.11,,,TRUE,TRUE,,,,,,,CLR,,,,,,,,VFR,,,,,,,,,,,,METAR,3224
KBYY 272215Z AUTO 05008KT 9SM OVC012 14/13 A3011 RMK AO2 T01410125,KBYY,2025-01-27T22:15:00Z,28.9717,-95.8584,14.1,12.5,50,8,,9,30.11,,,TRUE,TRUE,,,,,,,OVC,1200,,,,,,,MVFR,,,,,,,,,,,,METAR,12
KBYL 272215Z AUTO 27005KT 10SM 07/M09 A3000 RMK AO1,KBYL,2025-01-27T22:15:00Z,36.7954,-84.2013,7,-9,270,5,,10+,30.00,,,TRUE,TRUE,,,,,,,,,,,,,,,VFR,,,,,,,,,,,,METAR,355
KBXM 272215Z AUTO 21011G19KT 10SM CLR 01/M08 A2957 RMK AO2,KBXM,2025-01-27T22:15:00Z,43.8848,-69.9354,1,-8,210,11,19,10+,29.57,,,TRUE,TRUE,,,,,,,CLR,,,,,,,,VFR,,,,,,,,,,,,METAR,16
KBXK 272215Z AUTO 00000KT 10SM CLR 15/05 A3003 RMK AO2,KBXK,2025-01-27T22:15:00Z,33.4178,-112.688,15,5,0,0,,10+,30.03,,,TRUE,TRUE,,,,,,,CLR,,,,,,,,VFR,,,,,,,,,,,,METAR,303
KBXA 272215Z AUTO 01008KT 10SM OVC013 15/11 A3015 RMK AO2 T01450112,KBXA,2025-01-27T22:15:00Z,30.8104,-89.8627,14.5,11.2,10,8,,10+,30.15,,,TRUE,TRUE,,,,,,,OVC,1300,,,,,,,MVFR,,,,,,,,,,,,METAR,35
KBWW 272215Z AUTO 31018KT 10SM CLR 01/M02 A2995 RMK AO2,KBWW,2025-01-27T22:15:00Z,46.1656,-103.296,1,-2,310,18,,10+,29.95,,,TRUE,TRUE,,,,,,,CLR,,,,,,,,VFR,,,,,,,,,,,,METAR,911
KBWP 272215Z AUTO 33015G22KT 10SM CLR 02/00 A2979 RMK AO2,KBWP,2025-01-27T22:15:00Z,46.2444,-96.6046,2,0,330,15,22,10+,29.79,,,TRUE,TRUE,,,,,,,CLR,,,,,,,,VFR,,,,,,,,,,,,METAR,294
KBWD 272215Z AUTO 00000KT 10SM OVC031 10/M06 A3019 RMK AO2 T00961063 $,KBWD,2025-01-27T22:15:00Z,31.7898,-98.9522,9.6,-6.3,0,0,,10+,30.19,,,TRUE,TRUE,TRUE,,,,,,OVC,3100,,,,,,,VFR,,,,,,,,,,,,METAR,420
KBVU 272215Z AUTO 04011KT 10SM CLR 13/M10 A3001 RMK AO2,KBVU,2025-01-27T22:15:00Z,35.9489,-114.863,13,-10,40,11,,10+,30.01,,,TRUE,TRUE,,,,,,,CLR,,,,,,,,VFR,,,,,,,,,,,,METAR,654
KBVS 272215Z AUTO 32006KT 10SM CLR 06/M01 A3035 RMK A01,KBVS,2025-01-27T22:15:00Z,48.4696,-122.419,6,-1,320,6,,10+,30.35,,,TRUE,TRUE,,,,,,,CLR,,,,,,,,VFR,,,,,,,,,,,,METAR,31
KBVN 272215Z AUTO 30014G19KT 10SM CLR 13/M12 A2988 RMK AO2 T01271125,KBVN,2025-01-27T22:15:00Z,41.7301,-98.0546,12.7,-12.5,300,14,19,10+,29.88,,,TRUE,TRUE,,,,,,,CLR,,,,,,,,VFR,,,,,,,,,,,,METAR,547
KBVI 272215Z AUTO 25012G15KT 10SM CLR 02/M15 A2979 RMK AO2 T00171151,KBVI,2025-01-27T22:15:00Z,40.7735,-80.3825,1.7,-15.1,250,12,15,10+,29.79,,,TRUE,TRUE,,,,,,,CLR,,,,,,,,VFR,,,,,,,,,,,,METAR,387
KBUU 272215Z AUTO 25015G24KT 10SM SCT075 OVC090 04/M10 A2965 RMK AO2 T00411102 PWINO,KBUU,2025-01-27T22:15:00Z,42.6908,-88.308,4.1,-10.2,250,15,24,10+,29.65,,,TRUE,TRUE,,,,,TRUE,,SCT,7500,OVC,9000,,,,,VFR,,,,,,,,,,,,METAR,238
KBTA 272215Z AUTO 25011G15KT 10SM CLR 10/M12 A2987 RMK AO2 T00981116,KBTA,2025-01-27T22:15:00Z,41.415,-96.109,9.8,-11.6,250,11,15,10+,29.87,,,TRUE,TRUE,,,,,,,CLR,,,,,,,,VFR,,,,,,,,,,,,METAR,400
KBRY 272215Z AUTO 26007KT 10SM CLR 05/M12 A3002 RMK AO2 T00501120 $,KBRY,2025-01-27T22:15:00Z,37.8079,-85.5011,5,-12,260,7,,10+,30.02,,,TRUE,TRUE,TRUE,,,,,,CLR,,,,,,,,VFR,,,,,,,,,,,,METAR,192
KBRG 272215Z AUTO 17015KT 10SM CLR 15/M11 A2997 RMK AO2 T01491111,KBRG,2025-01-27T22:15:00Z,34.6477,-106.833,14.9,-11.1,170,15,,10+,29.97,,,TRUE,TRUE,,,,,,,CLR,,,,,,,,VFR,,,,,,,,,,,,METAR,1585
KBQP 272215Z AUTO 08003KT 10SM CLR 12/04 A3019 RMK AO2 T01220041 PWINO TSNO,KBQP,2025-01-27T22:15:00Z,32.7583,-91.8793,12.2,4.1,80,3,,10+,30.19,,,TRUE,TRUE,,,TRUE,,TRUE,,CLR,,,,,,,,VFR,,,,,,,,,,,,METAR,50
KBQK 272215Z AUTO 08005KT 10SM BKN100 OVC120 12/11 A3007 RMK AO2 T01230109,KBQK,2025-01-27T22:15:00Z,31.2567,-81.4754,12.3,10.9,80,5,,10+,30.07,,,TRUE,TRUE,,,,,,,BKN,10000,OVC,12000,,,,,VFR,,,,,,,,,,,,METAR,7
KBPG 272215Z AUTO 14007KT 10SM OVC026 08/M07 A3015 RMK AO2 T00801072,KBPG,2025-01-27T22:15:00Z,32.2097,-101.525,8,-7.2,140,7,,10+,30.15,,,TRUE,TRUE,,,,,,,OVC,2600,,,,,,,MVFR,,,,,,,,,,,,METAR,782
KBNW 272215Z AUTO 26018KT 10SM BKN120 08/M12 A2978 RMK AO2,KBNW,2025-01-27T22:15:00Z,42.0486,-93.8486,8,-12,260,18,,10+,29.78,,,TRUE,TRUE,,,,,,,BKN,12000,,,,,,,VFR,,,,,,,,,,,,METAR,350
KBNL 272215Z AUTO 00000KT 5SM BR OVC004 09/09 A3004 RMK AO2,KBNL,2025-01-27T22:15:00Z,33.2601,-81.387,9,9,0,0,,5,30.04,,,TRUE,TRUE,,,,,,BR,OVC,400,,,,,,,LIFR,,,,,,,,,,,,METAR,76
KBMT 272215Z AUTO 03006KT 10SM SCT015 BKN045 OVC065 13/09 A3016 RMK AO2 T01270088,KBMT,2025-01-27T22:15:00Z,30.0686,-94.2155,12.7,8.8,30,6,,10+,30.16,,,TRUE,TRUE,,,,,,,SCT,1500,BKN,4500,OVC,6500,,,VFR,,,,,,,,,,,,METAR,8
KBMC 272215Z AUTO 00000KT 10SM CLR 04/M13 A3016 RMK AO1 T00421126,KBMC,2025-01-27T22:15:00Z,41.5463,-112.06,4.2,-12.6,0,0,,10+,30.16,,,TRUE,TRUE,,,,,,,CLR,,,,,,,,VFR,,,,,,,,,,,,METAR,1289
KBKS 272215Z AUTO 36007KT 3SM BR OVC003 12/12 A3013 RMK AO2 CIG 002V004 SLP162 T01200120 $,KBKS,2025-01-27T22:15:00Z,27.2064,-98.1216,12,12,360,7,,3,30.13,1016.2,,TRUE,TRUE,TRUE,,,,,BR,OVC,300,,,,,,,LIFR,,,,,,,,,,,,METAR,34
KBKN 272215Z AUTO 22010KT 10SM CLR 09/M09 A3014 RMK AO2,KBKN,2025-01-27T22:15:00Z,36.7431,-97.3479,9,-9,220,10,,10+,30.14,,,TRUE,TRUE,,,,,,,CLR,,,,,,,,VFR,,,,,,,,,,,,METAR,208
KBKD 272215Z AUTO 27003KT 7SM OVC085 10/M07 A3019 RMK AO2 T01021075,KBKD,2025-01-27T22:15:00Z,32.7206,-98.8931,10.2,-7.5,270,3,,7,30.19,,,TRUE,TRUE,,,,,,,OVC,8500,,,,,,,VFR,,,,,,,,,,,,METAR,383
KBJI 272215Z AUTO 32014G29KT 10SM BKN038 BKN044 M01/M07 A2971 RMK AO2 T10071067,KBJI,2025-01-27T22:15:00Z,47.5076,-94.9279,-0.7,-6.7,320,14,29,10+,29.71,,,TRUE,TRUE,,,,,,,BKN,3800,BKN,4400,,,,,VFR,,,,,,,,,,,,METAR,422
KBIJ 272215Z AUTO 00000KT 4SM DZ OVC007 12/11 A3009 RMK AO2,KBIJ,2025-01-27T22:15:00Z,31.4,-84.8939,12,11,0,0,,4,30.09,,,TRUE,TRUE,,,,,,DZ,OVC,700,,,,,,,IFR,,,,,,,,,,,,METAR,63
KBIE 272215Z AUTO 23016G19KT 10SM CLR 08/M05 A2993 RMK AO2 T00811055,KBIE,2025-01-27T22:15:00Z,40.3005,-96.7517,8.1,-5.5,230,16,19,10+,29.93,,,TRUE,TRUE,,,,,,,CLR,,,,,,,,VFR,,,,,,,,,,,,METAR,398
KBHC 272215Z AUTO 00000KT 10SM SCT075 BKN095 BKN120 A3008 RMK AO2,KBHC,2025-01-27T22:15:00Z,31.712,-82.3902,,,0,0,,10+,30.08,,,TRUE,TRUE,,,,,,,SCT,7500,BKN,9500,BKN,12000,,,VFR,,,,,,,,,,,,METAR,61
KBGE 272215Z AUTO 17005KT 10SM OVC040 14/14 A3007 RMK AO2 T01380137,KBGE,2025-01-27T22:15:00Z,30.9709,-84.6344,13.8,13.7,170,5,,10+,30.07,,,TRUE,TRUE,,,,,,,OVC,4000,,,,,,,VFR,,,,,,,,,,,,METAR,40
KBFR 272215Z AUTO 24012G16KT 10SM CLR 02/M10 A3000 RMK AO2,KBFR,2025-01-27T22:15:00Z,38.8383,-86.446,2,-10,240,12,16,10+,30.00,,,TRUE,TRUE,,,,,,,CLR,,,,,,,,VFR,,,,,,,,,,,,METAR,223
KBEC 272215Z AUTO 22015KT 10SM CLR 08/M05 A3009 RMK AO2 T00781054,KBEC,2025-01-27T22:15:00Z,37.694,-97.215,7.8,-5.4,220,15,,10+,30.09,,,TRUE,TRUE,,,,,,,CLR,,,,,,,,VFR,,,,,,,,,,,,METAR,421
KBEA 272215Z AUTO 05006KT 1 1/2SM BR OVC004 10/09 A3014 RMK AO2 T00970088,KBEA,2025-01-27T22:15:00Z,28.3692,-97.7953,9.7,8.8,50,6,,1.5,30.14,,,TRUE,TRUE,,,,,,BR,OVC,400,,,,,,,LIFR,,,,,,,,,,,,METAR,83
KBDU 272215Z AUTO 00000KT 10SM CLR 06/M11 A3003 RMK AO2,KBDU,2025-01-27T22:15:00Z,40.0377,-105.227,6,-11,0,0,,10+,30.03,,,TRUE,TRUE,,,,,,,CLR,,,,,,,,VFR,,,,,,,,,,,,METAR,1614
KBDH 272215Z AUTO 31013G21KT 10SM CLR 02/M03 A2975 RMK AO2,KBDH,2025-01-27T22:15:00Z,45.1111,-95.1258,2,-3,310,13,21,10+,29.75,,,TRUE,TRUE,,,,,,,CLR,,,,,,,,VFR,,,,,,,,,,,,METAR,341
KBDG 272215Z AUTO 19006KT 10SM FEW100 SCT110 08/M14 A2998 RMK AO2 T00811142 $,KBDG,2025-01-27T22:15:00Z,37.587,-109.481,8.1,-14.2,190,6,,10+,29.98,,,TRUE,TRUE,TRUE,,,,,,FEW,10000,SCT,11000,,,,,VFR,,,,,,,,,,,,METAR,1778
KBCK 272215Z AUTO 10SM SCT050 BKN100 01/M05 A2964 RMK AO2 T00101048,KBCK,2025-01-27T22:15:00Z,44.2499,-90.85,1,-4.8,,,,10+,29.64,,,TRUE,TRUE,,,,,,,SCT,5000,BKN,10000,,,,,VFR,,,,,,,,,,,,METAR,256
KBCB 272215Z AUTO 22003KT 10SM CLR 07/M02 A2992 RMK AO2 T00651020,KBCB,2025-01-27T22:15:00Z,37.208,-80.4127,6.5,-2,220,3,,10+,29.92,,,TRUE,TRUE,,,,,,,CLR,,,,,,,,VFR,,,,,,,,,,,,METAR,642
KBBP 272215Z AUTO 20008KT 10SM OVC005 08/08 A3000 RMK AO2,KBBP,2025-01-27T22:15:00Z,34.6228,-79.7354,8,8,200,8,,10+,30.00,,,TRUE,TRUE,,,,,,,OVC,500,,,,,,,IFR,,,,,,,,,,,,METAR,44
KBBD 272215Z AUTO 33005KT 10SM OVC022 07/M05 A3017 RMK AO2,KBBD,2025-01-27T22:15:00Z,31.1766,-99.3229,7,-5,330,5,,10+,30.17,,,TRUE,TRUE,,,,,,,OVC,2200,,,,,,,MVFR,,,,,,,,,,,,METAR,554
KBBB 272215Z AUTO 32014G21KT 10SM CLR 02/M02 A2976 RMK AO2,KBBB,2025-01-27T22:15:00Z,45.331,-95.6469,2,-2,320,14,21,10+,29.76,,,TRUE,TRUE,,,,,,,CLR,,,,,,,,VFR,,,,,,,,,,,,METAR,315
KBAX 272215Z AUTO 24017G27KT 10SM SCT060 00/M07 A2944 RMK AO2 T00011070,KBAX,2025-01-27T22:15:00Z,43.7774,-82.9828,0.1,-7,240,17,27,10+,29.44,,,TRUE,TRUE,,,,,,,SCT,6000,,,,,,,VFR,,,,,,,,,,,,METAR,229
KBAM 272215Z AUTO 29003KT 10SM CLR 05/M10 A3020 RMK AO1,KBAM,2025-01-27T22:15:00Z,40.6048,-116.872,5,-10,290,3,,10+,30.20,,,TRUE,TRUE,,,,,,,CLR,,,,,,,,VFR,,,,,,,,,,,,METAR,1381
KBAC 272215Z AUTO 32013KT 10SM UP CLR 01/M02 A2983 RMK AO2,KBAC,2025-01-27T22:15:00Z,46.9419,-98.0179,1,-2,320,13,,10+,29.83,,,TRUE,TRUE,,,,,,UP,CLR,,,,,,,,VFR,,,,,,,,,,,,METAR,423
KAZE 272215Z AUTO 22006KT 10SM SCT042 BKN060 OVC070 12/11 A3006 RMK AO2 T01180107,KAZE,2025-01-27T22:15:00Z,31.8792,-82.6454,11.8,10.7,220,6,,10+,30.06,,,TRUE,TRUE,,,,,,,SCT,4200,BKN,6000,OVC,7000,,,VFR,,,,,,,,,,,,METAR,78
KAZC 272215Z AUTO 31008KT 10SM CLR 08/M10 A3001 RMK AO2,KAZC,2025-01-27T22:15:00Z,36.959,-113.013,8,-10,310,8,,10+,30.01,,,TRUE,TRUE,,,,,,,CLR,,,,,,,,VFR,,,,,,,,,,,,METAR,1476
KAYS 272215Z AUTO 00000KT 10SM SCT085 SCT090 BKN110 A3007 RMK AO2 TSNO,KAYS,2025-01-27T22:15:00Z,31.2466,-82.4014,,,0,0,,10+,30.07,,,TRUE,TRUE,,,TRUE,,,,SCT,8500,SCT,9000,BKN,11000,,,VFR,,,,,,,,,,,,METAR,42
KAXX 272215Z AUTO 28008KT 10SM SCT080 06/M15 A3004 RMK AO2 T00631152,KAXX,2025-01-27T22:15:00Z,36.422,-105.29,6.3,-15.2,280,8,,10+,30.04,,,TRUE,TRUE,,,,,,,SCT,8000,,,,,,,VFR,,,,,,,,,,,,METAR,2543
KAXV 272215Z AUTO 22015G22KT 10SM CLR 00/M08 A2984 RMK AO2,KAXV,2025-01-27T22:15:00Z,40.4959,-84.2929,0,-8,220,15,22,10+,29.84,,,TRUE,TRUE,,,,,,,CLR,,,,,,,,VFR,,,,,,,,,,,,METAR,278
KAXS 272215Z AUTO 21006KT 10SM CLR 09/M09 A3016 RMK AO2,KAXS,2025-01-27T22:15:00Z,34.6963,-99.3402,9,-9,210,6,,10+,30.16,,,TRUE,TRUE,,,,,,,CLR,,,,,,,,VFR,,,,,,,,,,,,METAR,433
KAXH 272215Z AUTO 06006KT 10SM OVC025 14/11 A3017 RMK AO2 T01410112,KAXH,2025-01-27T22:15:00Z,29.505,-95.476,14.1,11.2,60,6,,10+,30.17,,,TRUE,TRUE,,,,,,,OVC,2500,,,,,,,MVFR,,,,,,,,,,,,METAR,18
KAXA 272215Z AUTO 30015G22KT 10SM CLR 06/M11 A2977 RMK A01,KAXA,2025-01-27T22:15:00Z,43.0796,-94.2723,6,-11,300,15,22,10+,29.77,,,TRUE,TRUE,,,,,,,CLR,,,,,,,,VFR,,,,,,,,,,,,METAR,371
KAWG 272215Z AUTO 25017G23KT 10SM CLR 08/M12 A2980 RMK AO2,KAWG,2025-01-27T22:15:00Z,41.2749,-91.6746,8,-12,250,17,23,10+,29.80,,,TRUE,TRUE,,,,,,,CLR,,,,,,,,VFR,,,,,,,,,,,,METAR,229
KAVC 272215Z AUTO 20004KT 10SM OVC090 10/01 A2998 RMK AO2 T01000005,KAVC,2025-01-27T22:15:00Z,36.6854,-78.0523,10,0.5,200,4,,10+,29.98,,,TRUE,TRUE,,,,,,,OVC,9000,,,,,,,VFR,,,,,,,,,,,,METAR,119
KAUN 272215Z AUTO 26007KT 10SM CLR 14/M02 A3010 RMK A01,KAUN,2025-01-27T22:15:00Z,38.9553,-121.087,14,-2,260,7,,10+,30.10,,,TRUE,TRUE,,,,,,,CLR,,,,,,,,VFR,,,,,,,,,,,,METAR,453
KAUM 272215Z AUTO 29013G19KT 10SM BKN070 04/M10 A2971 RMK AO2,KAUM,2025-01-27T22:15:00Z,43.6688,-92.9321,4,-10,290,13,19,10+,29.71,,,TRUE,TRUE,,,,,,,BKN,7000,,,,,,,VFR,,,,,,,,,,,,METAR,376
KAUH 272215Z AUTO 28016G20KT 10SM CLR 13/M12 A2992 RMK AO2 T01251125,KAUH,2025-01-27T22:15:00Z,40.8966,-97.9974,12.5,-12.5,280,16,20,10+,29.92,,,TRUE,TRUE,,,,,,,CLR,,,,,,,,VFR,,,,,,,,,,,,METAR,549
KATS 272215Z AUTO 17015KT 10SM CLR 09/M05 A3011 RMK AO2,KATS,2025-01-27T22:15:00Z,32.8524,-104.464,9,-5,170,15,,10+,30.11,,,TRUE,TRUE,,,,,,,CLR,,,,,,,,VFR,,,,,,,,,,,,METAR,1073
KATP 272215Z AUTO 9SM BKN030 BKN049 24/18 A3011 RMK A01,KATP,2025-01-27T22:15:00Z,27.1956,-90.0269,24,18,,,,9,30.11,,,TRUE,TRUE,,,,,,,BKN,3000,BKN,4900,,,,,MVFR,,,,,,,,,,,,METAR,50
KASW 272215Z AUTO 25017G26KT 10SM CLR 03/M07 A2976 RMK AO2 T00321077,KASW,2025-01-27T22:15:00Z,41.274,-85.842,3.2,-7.7,250,17,26,10+,29.76,,,TRUE,TRUE,,,,,,,CLR,,,,,,,,VFR,,,,,,,,,,,,METAR,253
KASN 272215Z AUTO 32008KT 10SM FEW012 FEW017 OVC024 11/09 A3008 RMK AO2,KASN,2025-01-27T22:15:00Z,33.569,-86.0519,11,9,320,8,,10+,30.08,,,TRUE,TRUE,,,,,,,FEW,1200,FEW,1700,OVC,2400,,,MVFR,,,,,,,,,,,,METAR,159
KASL 272215Z AUTO 32003KT 10SM CLR 13/05 A3017 RMK AO2 T01320054 $,KASL,2025-01-27T22:15:00Z,32.5207,-94.3066,13.2,5.4,320,3,,10+,30.17,,,TRUE,TRUE,TRUE,,,,,,CLR,,,,,,,,VFR,,,,,,,,,,,,METAR,104
KARW 272215Z AUTO 18003KT 10SM BKN038 BKN046 OVC075 10/05 A3007 RMK AO2,KARW,2025-01-27T22:15:00Z,32.4104,-80.6335,10,5,180,3,,10+,30.07,,,TRUE,TRUE,,,,,,,BKN,3800,BKN,4600,OVC,7500,,,VFR,,,,,,,,,,,,METAR,2
KARV 272215Z AUTO 31010G15KT 280V340 10SM OVC029 M01/M08 A2949 RMK AO2 T10131077,KARV,2025-01-27T22:15:00Z,45.9264,-89.7307,-1.3,-7.7,310,10,15,10+,29.49,,,TRUE,TRUE,,,,,,,OVC,2900,,,,,,,MVFR,,,,,,,,,,,,METAR,494
KARM 272215Z AUTO 01008KT 5SM BR OVC006 11/10 A3016 RMK AO2 T01100100 TSNO,KARM,2025-01-27T22:15:00Z,29.2515,-96.1508,11,10,10,8,,5,30.16,,,TRUE,TRUE,,,TRUE,,,BR,OVC,600,,,,,,,IFR,,,,,,,,,,,,METAR,29
KAQX 272215Z AUTO 00000KT 1 1/4SM BR OVC004 09/09 A3004 RMK AO2 TSNO,KAQX,2025-01-27T22:15:00Z,32.9941,-81.271,9,9,0,0,,1.25,30.04,,,TRUE,TRUE,,,TRUE,,,BR,OVC,400,,,,,,,LIFR,,,,,,,,,,,,METAR,48
KAQO 272215Z AUTO 00000KT 10SM OVC028 11/M00 A3018 RMK AO2,KAQO,2025-01-27T22:15:00Z,30.7873,-98.6608,11,0,0,0,,10+,30.18,,,TRUE,TRUE,,,,,,,OVC,2800,,,,,,,MVFR,,,,,,,,,,,,METAR,334
KAPS 272215Z AUTO 02004KT 10SM BKN013 15/13 A3014 RMK AO2 T01520134,KAPS,2025-01-27T22:15:00Z,30.086,-90.584,15.2,13.4,20,4,,10+,30.14,,,TRUE,TRUE,,,,,,,BKN,1300,,,,,,,MVFR,,,,,,,,,,,,METAR,1
KANW 272215Z AUTO 31017G23KT 10SM CLR 09/M08 A2992 RMK AO2 T00861081,KANW,2025-01-27T22:15:00Z,42.5748,-99.9984,8.6,-8.1,310,17,23,10+,29.92,,,TRUE,TRUE,,,,,,,CLR,,,,,,,,VFR,,,,,,,,,,,,METAR,788
KANQ 272215Z AUTO 24018G28KT 10SM CLR 03/M08 A2969 RMK AO2,KANQ,2025-01-27T22:15:00Z,41.6404,-85.0852,3,-8,240,18,28,10+,29.69,,,TRUE,TRUE,,,,,,,CLR,,,,,,,,VFR,,,,,,,,,,,,METAR,299
KANK 272215Z AUTO 16009KT 10SM 07/M17 A3002 RMK AO2 LTG DSNT NE AND SW T00741168 $,KANK,2025-01-27T22:15:00Z,38.538,-106.049,7.4,-16.8,160,9,,10+,30.02,,,TRUE,TRUE,TRUE,,,,,,,,,,,,,,VFR,,,,,,,,,,,,METAR,2293
KANJ 272215Z AUTO 32016G28KT 1 1/2SM -SN BKN015 BKN060 OVC070 M02/M05 A2928 RMK AO2 PK WND 32028/2209 VIS 1V2 1/2 PRESRR P0003 T10221050,KANJ,2025-01-27T22:15:00Z,46.48,-84.3581,-2.2,-5,320,16,28,1.5,29.28,,,TRUE,TRUE,,,,,,-SN,BKN,1500,BKN,6000,OVC,7000,,,IFR,,,,,,0.03,,,,,,SPECI,220
KAMN 272215Z AUTO 24020G26KT 10SM OVC070 01/M07 A2952 RMK AO2 PK WND 23028/20,KAMN,2025-01-27T22:15:00Z,43.3209,-84.6871,1,-7,240,20,26,10+,29.52,,,TRUE,TRUE,,,,,,,OVC,7000,,,,,,,VFR,,,,,,,,,,,,METAR,228
KALX 272215Z AUTO 31003KT 5SM BR BKN008 OVC017 14/14 A3008 RMK AO2 T01350135,KALX,2025-01-27T22:15:00Z,32.916,-85.964,13.5,13.5,310,3,,5,30.08,,,TRUE,TRUE,,,,,,BR,BKN,800,OVC,1700,,,,,IFR,,,,,,,,,,,,METAR,198
KALM 272215Z AUTO 18017G22KT 10SM CLR 17/M06 A3000 RMK AO2,KALM,2025-01-27T22:15:00Z,32.8351,-105.994,17,-6,180,17,22,10+,30.00,,,TRUE,TRUE,,,,,,,CLR,,,,,,,,VFR,,,,,,,,,,,,METAR,1267
KAJZ 272215Z AUTO 22008KT 10SM CLR 10/M14 A3000 RMK AO2 T00981144,KAJZ,2025-01-27T22:15:00Z,38.7869,-108.066,9.8,-14.4,220,8,,10+,30.00,,,TRUE,TRUE,,,,,,,CLR,,,,,,,,VFR,,,,,,,,,,,,METAR,1583
KAJR 272215Z AUTO 25008KT 2 1/2SM BR OVC003 08/07 A2999 RMK AO2 T00750072,KAJR,2025-01-27T22:15:00Z,34.5006,-83.5519,7.5,7.2,250,8,,2.5,29.99,,,TRUE,TRUE,,,,,,BR,OVC,300,,,,,,,LIFR,,,,,,,,,,,,METAR,441
KAJG 272215Z AUTO 23011KT 10SM CLR 02/M06 A3003 RMK AO2 T00221057,KAJG,2025-01-27T22:15:00Z,38.6093,-87.7251,2.2,-5.7,230,11,,10+,30.03,,,TRUE,TRUE,,,,,,,CLR,,,,,,,,VFR,,,,,,,,,,,,METAR,130
KAIT 272215Z AUTO 32012G18KT 10SM SCT034 01/M04 A2967 RMK AO2,KAIT,2025-01-27T22:15:00Z,46.5483,-93.6754,1,-4,320,12,18,10+,29.67,,,TRUE,TRUE,,,,,,,SCT,3400,,,,,,,VFR,,,,,,,,,,,,METAR,367
KAIO 272215Z AUTO 25014KT 10SM CLR 10/M14 A2984 RMK AO2,KAIO,2025-01-27T22:15:00Z,41.4059,-95.0465,10,-14,250,14,,10+,29.84,,,TRUE,TRUE,,,,,,,CLR,,,,,,,,VFR,,,,,,,,,,,,METAR,349
KAIK 272215Z AUTO 22008KT 5SM BR OVC003 09/08 A3003 RMK AO2 T00890084,KAIK,2025-01-27T22:15:00Z,33.651,-81.6821,8.9,8.4,220,8,,5,30.03,,,TRUE,TRUE,,,,,,BR,OVC,300,,,,,,,LIFR,,,,,,,,,,,,METAR,155
KAIG 272215Z AUTO 28019G26KT 10SM BKN031 M02/M07 A2949 RMK AO2 T10231073,KAIG,2025-01-27T22:15:00Z,45.1566,-89.1115,-2.3,-7.3,280,19,26,10+,29.49,,,TRUE,TRUE,,,,,,,BKN,3100,,,,,,,VFR,,,,,,,,,,,,METAR,462
KAID 272215Z AUTO 23013G19KT 10SM CLR 02/M11 A2989 RMK AO2 T00161114,KAID,2025-01-27T22:15:00Z,40.1061,-85.6097,1.6,-11.4,230,13,19,10+,29.89,,,TRUE,TRUE,,,,,,,CLR,,,,,,,,VFR,,,,,,,,,,,,METAR,277
KAHQ 272215Z AUTO 27016KT 10SM CLR 11/M11 A2990 RMK AO2 T01081115,KAHQ,2025-01-27T22:15:00Z,41.241,-96.594,10.8,-11.5,270,16,,10+,29.90,,,TRUE,TRUE,,,,,,,CLR,,,,,,,,VFR,,,,,,,,,,,,METAR,372
KAGO 272215Z AUTO VRB03KT 10SM CLR 14/02 A3016 RMK A01,KAGO,2025-01-27T22:15:00Z,33.2266,-93.2154,14,2,VRB,3,,10+,30.16,,,TRUE,TRUE,,,,,,,CLR,,,,,,,,VFR,,,,,,,,,,,,METAR,91
KAGI 272215Z AUTO 00000KT 7SM HZ CLR 25/14 A3010 RMK AO2 T02460145,KAGI,2025-01-27T22:15:00Z,27.5461,-92.4434,24.6,14.5,0,0,,7,30.10,,,TRUE,TRUE,,,,,,HZ,CLR,,,,,,,,VFR,,,,,,,,,,,,METAR,41
KAFO 272215Z AUTO 00000KT 10SM CLR M15/M18 A3018 RMK AO2,KAFO,2025-01-27T22:15:00Z,42.7139,-110.944,-15,-18,0,0,,10+,30.18,,,TRUE,TRUE,,,,,,,CLR,,,,,,,,VFR,,,,,,,,,,,,METAR,1881
KAFK 272215Z AUTO 25012G25KT 10SM CLR 12/M11 A2990 RMK AO2 T01181108,KAFK,2025-01-27T22:15:00Z,40.6065,-95.8635,11.8,-10.8,250,12,25,10+,29.90,,,TRUE,TRUE,,,,,,,CLR,,,,,,,,VFR,,,,,,,,,,,,METAR,353
KAEL 272215Z AUTO 30010G16KT 10SM SCT065 BKN070 BKN100 03/M09 A2973 RMK AO2 TSNO,KAEL,2025-01-27T22:15:00Z,43.6823,-93.3722,3,-9,300,10,16,10+,29.73,,,TRUE,TRUE,,,TRUE,,,,SCT,6500,BKN,7000,BKN,10000,,,VFR,,,,,,,,,,,,METAR,382
KADU 272215Z AUTO 27006KT 10SM 10/M23 A2984 RMK AO2,KADU,2025-01-27T22:15:00Z,41.6993,-94.9204,10,-23,270,6,,10+,29.84,,,TRUE,TRUE,,,,,,,,,,,,,,,VFR,,,,,,,,,,,,METAR,391
KADT 272215Z AUTO 29014G19KT 10SM CLR 14/M13 A3004 RMK AO2 T01411126,KADT,2025-01-27T22:15:00Z,39.8401,-101.045,14.1,-12.6,290,14,19,10+,30.04,,,TRUE,TRUE,,,,,,,CLR,,,,,,,,VFR,,,,,,,,,,,,METAR,899
KADH 272215Z AUTO 22003KT 10SM CLR 11/M10 A3017 RMK AO2,KADH,2025-01-27T22:15:00Z,34.8021,-96.6701,11,-10,220,3,,10+,30.17,,,TRUE,TRUE,,,,,,,CLR,,,,,,,,VFR,,,,,,,,,,,,METAR,301
KADC 272215Z AUTO 32013G17KT 10SM OVC024 00/M04 A2973 RMK AO2,KADC,2025-01-27T22:15:00Z,46.4502,-95.2135,0,-4,320,13,17,10+,29.73,,,TRUE,TRUE,,,,,,,OVC,2400,,,,,,,MVFR,,,,,,,,,,,,METAR,416
KACQ 272215Z AUTO 29012G16KT 10SM SCT110 03/M07 A2975 RMK AO2,KACQ,2025-01-27T22:15:00Z,44.0702,-93.5535,3,-7,290,12,16,10+,29.75,,,TRUE,TRUE,,,,,,,SCT,11000,,,,,,,VFR,,,,,,,,,,,,METAR,339
KACP 272215Z AUTO 35006KT 10SM OVC012 12/09 A3016 RMK AO2,KACP,2025-01-27T22:15:00Z,30.7469,-92.687,12,9,350,6,,10+,30.16,,,TRUE,TRUE,,,,,,,OVC,1200,,,,,,,MVFR,,,,,,,,,,,,METAR,31
KACJ 272215Z AUTO 20004KT 4SM BR SCT002 SCT007 BKN026 OVC031 11/11 A3004 RMK AO2 T01100110 $,KACJ,2025-01-27T22:15:00Z,32.1106,-84.1841,11,11,200,4,,4,30.04,,,TRUE,TRUE,TRUE,,,,,BR,SCT,200,SCT,700,BKN,2600,OVC,3100,MVFR,,,,,,,,,,,,METAR,140
KACB 272215Z AUTO 23009G14KT 1/2SM SN OVC005 00/M01 A2941 RMK AO2 T10031008,KACB,2025-01-27T22:15:00Z,44.9867,-85.2022,-0.3,-0.8,230,9,14,0.5,29.41,,,TRUE,TRUE,,,,,,SN,OVC,500,,,,,,,LIFR,,,,,,,,,,,,METAR,189
KAAS 272215Z AUTO 28004KT 10SM CLR 05/M10 A3003 RMK AO1,KAAS,2025-01-27T22:15:00Z,37.3569,-85.3151,5,-10,280,4,,10+,30.03,,,TRUE,TRUE,,,,,,,CLR,,,,,,,,VFR,,,,,,,,,,,,METAR,270
KAAA 272215Z AUTO 23005G15KT 10SM CLR 05/M04 A2991 RMK AO2 T00451045,KAAA,2025-01-27T22:15:00Z,40.1584,-89.339,4.5,-4.5,230,5,15,10+,29.91,,,TRUE,TRUE,,,,,,,CLR,,,,,,,,VFR,,,,,,,,,,,,METAR,179
KA39 272215Z AUTO 00000KT 10SM SCT033 SCT040 SCT047 15/04 A3004 RMK AO2,KA39,2025-01-27T22:15:00Z,32.9875,-111.922,15,4,0,0,,10+,30.04,,,TRUE,TRUE,,,,,,,SCT,3300,SCT,4000,SCT,4700,,,VFR,,,,,,,,,,,,METAR,391
K9Y1 272215Z AUTO 28011G15KT 10SM CLR 02/M03 A2993 RMK AO2,K9Y1,2025-01-27T22:15:00Z,47.3941,-102.773,2,-3,280,11,15,10+,29.93,,,TRUE,TRUE,,,,,,,CLR,,,,,,,,VFR,,,,,,,,,,,,METAR,695
K9V9 272215Z AUTO 32018G23KT 10SM CLR 06/M05 A2989 RMK AO2 T00641051,K9V9,2025-01-27T22:15:00Z,43.7653,-99.3163,6.4,-5.1,320,18,23,10+,29.89,,,TRUE,TRUE,,,,,,,CLR,,,,,,,,VFR,,,,,,,,,,,,METAR,511
K9D7 272215Z AUTO 10SM CLR M01/M01 A2984 RMK AO2,K9D7,2025-01-27T22:15:00Z,48.4816,-99.2346,-1,-1,,,,10+,29.84,,,TRUE,TRUE,,,,,,,CLR,,,,,,,,VFR,,,,,,,,,,,,METAR,451
K9A5 272215Z AUTO 33004KT 10SM OVC018 08/05 A3009 RMK AO2 T00770045,K9A5,2025-01-27T22:15:00Z,34.6846,-85.2899,7.7,4.5,330,4,,10+,30.09,,,TRUE,TRUE,,,,,,,OVC,1800,,,,,,,MVFR,,,,,,,,,,,,METAR,234
K9A4 272215Z AUTO 31008KT 10SM CLR 09/M03 A3013 RMK AO2,K9A4,2025-01-27T22:15:00Z,34.66,-87.349,9,-3,310,8,,10+,30.13,,,TRUE,TRUE,,,,,,,CLR,,,,,,,,VFR,,,,,,,,,,,,METAR,176
K96D 272215Z AUTO 30008KT 10SM OVC038 01/M03 A2979 RMK AO2,K96D,2025-01-27T22:15:00Z,48.9402,-97.9053,1,-3,300,8,,10+,29.79,,,TRUE,TRUE,,,,,,,OVC,3800,,,,,,,VFR,,,,,,,,,,,,METAR,290
K8W2 272215Z AUTO 23005KT 10SM CLR 07/M07 A2985 RMK AO1 T00701070,K8W2,2025-01-27T22:15:00Z,38.6554,-78.7083,7,-7,230,5,,10+,29.85,,,TRUE,TRUE,,,,,,,CLR,,,,,,,,VFR,,,,,,,,,,,,METAR,295
K8T6 272215Z AUTO 04005KT 2SM UP BR BKN006 BKN009 BKN013 10/10 A3015 RMK AO2,K8T6,2025-01-27T22:15:00Z,28.3656,-98.1174,10,10,40,5,,2,30.15,,,TRUE,TRUE,,,,,,BR UP,BKN,600,BKN,900,BKN,1300,,,IFR,,,,,,,,,,,,METAR,39
K8D4 272215Z AUTO 25011G20KT 10SM FEW060 SCT065 03/M06 A2959 RMK AO2,K8D4,2025-01-27T22:15:00Z,43.1295,-85.6779,3,-6,250,11,20,10+,29.59,,,TRUE,TRUE,,,,,,,FEW,6000,SCT,6500,,,,,VFR,,,,,,,,,,,,METAR,228
K8B0 272215Z AUTO 24012G24KT 10SM FEW045 BKN060 BKN075 M03/M13 A2935 RMK AO2,K8B0,2025-01-27T22:15:00Z,44.99,-70.6624,-3,-13,240,12,24,10+,29.35,,,TRUE,TRUE,,,,,,,FEW,4500,BKN,6000,BKN,7500,,,VFR,,,,,,,,,,,,METAR,552
K8A0 272215Z AUTO 33006KT 10SM OVC012 07/06 A3009 RMK AO2,K8A0,2025-01-27T22:15:00Z,34.2316,-86.2481,7,6,330,6,,10+,30.09,,,TRUE,TRUE,,,,,,,OVC,1200,,,,,,,MVFR,,,,,,,,,,,,METAR,313
K82V 272215Z AUTO 31015KT 10SM 05/M08 A3005 RMK AO2,K82V,2025-01-27T22:15:00Z,41.151,-104.129,5,-8,310,15,,10+,30.05,,,TRUE,TRUE,,,,,,,,,,,,,,,VFR,,,,,,,,,,,,METAR,1563
K82C 272215Z AUTO 27010G25KT 10SM 04/M05 A2961 RMK AO2 T00351055,K82C,2025-01-27T22:15:00Z,43.8385,-90.1345,3.5,-5.5,270,10,25,10+,29.61,,,TRUE,TRUE,,,,,,,,,,,,,,,VFR,,,,,,,,,,,,METAR,273
K81R 272215Z AUTO 00000KT 10SM OVC031 11/M03 A3020 RMK AO2 T01101030,K81R,2025-01-27T22:15:00Z,31.2321,-98.7154,11,-3,0,0,,10+,30.20,,,TRUE,TRUE,,,,,,,OVC,3100,,,,,,,VFR,,,,,,,,,,,,METAR,381
K7W4 272215Z AUTO 24004KT 10SM CLR 09/M04 A2988 RMK AO1 T00941044,K7W4,2025-01-27T22:15:00Z,37.9667,-77.7453,9.4,-4.4,240,4,,10+,29.88,,,TRUE,TRUE,,,,,,,CLR,,,,,,,,VFR,,,,,,,,,,,,METAR,115
K7L2 272215Z AUTO 33009G14KT 10SM CLR 03/M04 A2991 RMK AO2,K7L2,2025-01-27T22:15:00Z,46.219,-100.245,3,-4,330,9,14,10+,29.91,,,TRUE,TRUE,,,,,,,CLR,,,,,,,,VFR,,,,,,,,,,,,METAR,541
K79S 272215Z AUTO 24014G21KT 10SM CLR 06/M07 A3008 RMK AO2 T00621071 $,K79S,2025-01-27T22:15:00Z,47.845,-110.636,6.2,-7.1,240,14,21,10+,30.08,,,TRUE,TRUE,TRUE,,,,,,CLR,,,,,,,,VFR,,,,,,,,,,,,METAR,874
K77S 272215Z AUTO 00000KT 10SM CLR 09/M05 A3025 RMK A01,K77S,2025-01-27T22:15:00Z,43.9324,-123.006,9,-5,0,0,,10+,30.25,,,TRUE,TRUE,,,,,,,CLR,,,,,,,,VFR,,,,,,,,,,,,METAR,161
K74V 272215Z AUTO 00000KT 8SM CLR M06/M10 A3019 RMK AO2,K74V,2025-01-27T22:15:00Z,40.2799,-110.05,-6,-10,0,0,,8,30.19,,,TRUE,TRUE,,,,,,,CLR,,,,,,,,VFR,,,,,,,,,,,,METAR,1567
K6S2 272215Z AUTO 00000KT 10SM CLR 13/M06 A3022 RMK AO2,K6S2,2025-01-27T22:15:00Z,43.9838,-124.11,13,-6,0,0,,10+,30.22,,,TRUE,TRUE,,,,,,,CLR,,,,,,,,VFR,,,,,,,,,,,,METAR,16
K6R3 272215Z AUTO 01003KT 10SM SCT015 BKN043 OVC060 13/09 A3018 RMK AO2 T01280090,K6R3,2025-01-27T22:15:00Z,30.358,-95.007,12.8,9,10,3,,10+,30.18,,,TRUE,TRUE,,,,,,,SCT,1500,BKN,4300,OVC,6000,,,VFR,,,,,,,,,,,,METAR,44
K6P9 272215Z AUTO 00000KT 10SM SCT065 OVC080 09/M07 A3018 RMK AO2 T00901072,K6P9,2025-01-27T22:15:00Z,32.4294,-98.5959,9,-7.2,0,0,,10+,30.18,,,TRUE,TRUE,,,,,,,SCT,6500,OVC,8000,,,,,VFR,,,,,,,,,,,,METAR,451
K6L4 272215Z AUTO 23008KT 10SM CLR 05/M10 A2993 RMK AO2,K6L4,2025-01-27T22:15:00Z,37.8553,-81.915,5,-10,230,8,,10+,29.93,,,TRUE,TRUE,,,,,,,CLR,,,,,,,,VFR,,,,,,,,,,,,METAR,504
K6I2 272215Z AUTO 24006KT 10SM CLR 04/M11 A3003 RMK AO2,K6I2,2025-01-27T22:15:00Z,37.6352,-85.2418,4,-11,240,6,,10+,30.03,,,TRUE,TRUE,,,,,,,CLR,,,,,,,,VFR,,,,,,,,,,,,METAR,258
K6B9 272215Z AUTO 21016G23KT 10SM CLR 01/M14 A2954 RMK AO2,K6B9,2025-01-27T22:15:00Z,42.9141,-76.4428,1,-14,210,16,23,10+,29.54,,,TRUE,TRUE,,,,,,,CLR,,,,,,,,VFR,,,,,,,,,,,,METAR,306
K6B0 272215Z AUTO 19014G22KT 10SM CLR 01/M14 A2949 RMK AO2 T00081140,K6B0,2025-01-27T22:15:00Z,43.9888,-73.0952,0.8,-14,190,14,22,10+,29.49,,,TRUE,TRUE,,,,,,,CLR,,,,,,,,VFR,,,,,,,,,,,,METAR,149
K6A2 272215Z AUTO 28004KT 10SM OVC004 10/09 A3005 RMK AO2,K6A2,2025-01-27T22:15:00Z,33.227,-84.275,10,9,280,4,,10+,30.05,,,TRUE,TRUE,,,,,,,OVC,400,,,,,,,LIFR,,,,,,,,,,,,METAR,290
K6A1 272215Z AUTO 05004KT 5SM BR OVC003 11/11 A3006 RMK AO2 T01100108,K6A1,2025-01-27T22:15:00Z,32.5733,-84.247,11,10.8,50,4,,5,30.06,,,TRUE,TRUE,,,,,,BR,OVC,300,,,,,,,LIFR,,,,,,,,,,,,METAR,198
K66R 272215Z AUTO 03004KT 10SM BKN010 OVC020 11/09 A3018 RMK AO2 T01060090,K66R,2025-01-27T22:15:00Z,29.6382,-96.5137,10.6,9,30,4,,10+,30.18,,,TRUE,TRUE,,,,,,,BKN,1000,OVC,2000,,,,,MVFR,,,,,,,,,,,,METAR,70
K60R 272215Z AUTO 9SM BKN049 OVC060 12/11 A3015 RMK AO2 SLP127 T01190106 $,K60R,2025-01-27T22:15:00Z,30.368,-96.113,11.9,10.6,,,,9,30.15,1012.7,,TRUE,TRUE,TRUE,,,,,,BKN,4900,OVC,6000,,,,,VFR,,,,,,,,,,,,METAR,70
K5SM 272215Z AUTO 10SM CLR M04/M17 A3012 RMK AO2,K5SM,2025-01-27T22:15:00Z,39.426,-107.38,-4,-17,,,,10+,30.12,,,TRUE,TRUE,,,,,,,CLR,,,,,,,,VFR,,,,,,,,,,,,METAR,3229
K5R8 272215Z AUTO 01003KT 10SM OVC014 13/10 A3018 RMK AO2 T01300095,K5R8,2025-01-27T22:15:00Z,30.4368,-93.4696,13,9.5,10,3,,10+,30.18,,,TRUE,TRUE,,,,,,,OVC,1400,,,,,,,MVFR,,,,,,,,,,,,METAR,26
K5H4 272215Z AUTO 29011KT 10SM BKN060 M01/M04 A2987 RMK AO2,K5H4,2025-01-27T22:15:00Z,47.7906,-99.9346,-1,-4,290,11,,10+,29.87,,,TRUE,TRUE,,,,,,,BKN,6000,,,,,,,VFR,,,,,,,,,,,,METAR,490
K5C1 272215Z AUTO 04004KT 10SM OVC019 09/03 A3017 RMK AO1,K5C1,2025-01-27T22:15:00Z,29.7267,-98.6964,9,3,40,4,,10+,30.17,,,TRUE,TRUE,,,,,,,OVC,1900,,,,,,,MVFR,,,,,,,,,,,,METAR,422
K5A9 272215Z AUTO 26005KT 10SM OVC005 11/10 A3006 RMK AO2 T01080101,K5A9,2025-01-27T22:15:00Z,32.9362,-84.6972,10.8,10.1,260,5,,10+,30.06,,,TRUE,TRUE,,,,,,,OVC,500,,,,,,,IFR,,,,,,,,,,,,METAR,268
K57C 272215Z AUTO 26014G22KT 10SM SCT080 OVC090 03/M10 A2963 RMK AO2 T00321096,K57C,2025-01-27T22:15:00Z,42.7971,-88.3655,3.2,-9.6,260,14,22,10+,29.63,,,TRUE,TRUE,,,,,,,SCT,8000,OVC,9000,,,,,VFR,,,,,,,,,,,,METAR,454
K54J 272215Z AUTO 00000KT 10SM BKN018 OVC025 16/16 A3008 RMK AO2 T01620160,K54J,2025-01-27T22:15:00Z,30.7312,-86.1542,16.2,16,0,0,,10+,30.08,,,TRUE,TRUE,,,,,,,BKN,1800,OVC,2500,,,,,MVFR,,,,,,,,,,,,METAR,87
K4V9 272215Z AUTO 31018KT 10SM CLR 12/M09 A2986 RMK AO2,K4V9,2025-01-27T22:15:00Z,42.1109,-98.041,12,-9,310,18,,10+,29.86,,,TRUE,TRUE,,,,,,,CLR,,,,,,,,VFR,,,,,,,,,,,,METAR,530
K4V1 272215Z AUTO 02013KT 10SM CLR 08/M05 A3002 RMK AO2,K4V1,2025-01-27T22:15:00Z,37.6941,-104.788,8,-5,20,13,,10+,30.02,,,TRUE,TRUE,,,,,,,CLR,,,,,,,,VFR,,,,,,,,,,,,METAR,1847
K4V0 272215Z AUTO 25003KT 10SM M01/M11 A3017 RMK AO2 T10141107 PWINO,K4V0,2025-01-27T22:15:00Z,40.0956,-108.762,-1.4,-10.7,250,3,,10+,30.17,,,TRUE,TRUE,,,,,TRUE,,,,,,,,,,VFR,,,,,,,,,,,,METAR,1602
K4S2 272215Z AUTO 10007KT 070V130 10SM CLR 06/M06 A3040 RMK AO2,K4S2,2025-01-27T22:15:00Z,45.6746,-121.535,6,-6,100,7,,10+,30.40,,,TRUE,TRUE,,,,,,,CLR,,,,,,,,VFR,,,,,,,,,,,,METAR,183
K4S1 272215Z AUTO 33007KT CLR 11/00 A3019 RMK AO2 PWINO,K4S1,2025-01-27T22:15:00Z,42.4161,-124.426,11,0,330,7,,,30.19,,,TRUE,TRUE,,,,,TRUE,,CLR,,,,,,,,,,,,,,,,,,,,METAR,7
K4R5 272215Z AUTO 29010G17KT 10SM OVC055 01/M07 A2955 RMK AO2 T00071067,K4R5,2025-01-27T22:15:00Z,46.7887,-90.7559,0.7,-6.7,290,10,17,10+,29.55,,,TRUE,TRUE,,,,,,,OVC,5500,,,,,,,VFR,,,,,,,,,,,,METAR,195
K4O4 272215Z AUTO VRB04KT 10SM CLR 12/03 A3019 RMK AO2,K4O4,2025-01-27T22:15:00Z,33.9133,-94.8546,12,3,VRB,4,,10+,30.19,,,TRUE,TRUE,,,,,,,CLR,,,,,,,,VFR,,,,,,,,,,,,METAR,148
K4M9 272215Z AUTO 20011KT 10SM CLR 08/M03 A3013 RMK A01,K4M9,2025-01-27T22:15:00Z,36.404,-90.647,8,-3,200,11,,10+,30.13,,,TRUE,TRUE,,,,,,,CLR,,,,,,,,VFR,,,,,,,,,,,,METAR,86
K4M3 272215Z AUTO 21007KT 10SM CLR 10/M02 A3016 RMK A01,K4M3,2025-01-27T22:15:00Z,34.804,-91.707,10,-2,210,7,,10+,30.16,,,TRUE,TRUE,,,,,,,CLR,,,,,,,,VFR,,,,,,,,,,,,METAR,73
K4F2 272215Z AUTO 34005KT 10SM CLR 14/05 A3019 RMK AO2 T01370050,K4F2,2025-01-27T22:15:00Z,32.18,-94.2976,13.7,5,340,5,,10+,30.19,,,TRUE,TRUE,,,,,,,CLR,,,,,,,,VFR,,,,,,,,,,,,METAR,76
K4BM 272215Z AUTO 19004KT 10SM CLR M01/M22 A3012 RMK AO2,K4BM,2025-01-27T22:15:00Z,39.05,-105.514,-1,-22,190,4,,10+,30.12,,,TRUE,TRUE,,,,,,,CLR,,,,,,,,VFR,,,,,,,,,,,,METAR,3432
K4B8 272215Z AUTO 22009G14KT 10SM CLR 02/M12 A2971 RMK AO2 T00221115 $,K4B8,2025-01-27T22:15:00Z,41.69,-72.865,2.2,-11.5,220,9,14,10+,29.71,,,TRUE,TRUE,TRUE,,,,,,CLR,,,,,,,,VFR,,,,,,,,,,,,METAR,61
K4A9 272215Z AUTO 31005KT 10SM OVC017 08/05 A3008 RMK AO2 T00760047,K4A9,2025-01-27T22:15:00Z,34.4759,-85.717,7.6,4.7,310,5,,10+,30.08,,,TRUE,TRUE,,,,,,,OVC,1700,,,,,,,MVFR,,,,,,,,,,,,METAR,273
K4A6 272215Z AUTO 02004KT 10SM CLR 08/03 A3011 RMK AO2,K4A6,2025-01-27T22:15:00Z,34.688,-86.006,8,3,20,4,,10+,30.11,,,TRUE,TRUE,,,,,,,CLR,,,,,,,,VFR,,,,,,,,,,,,METAR,191
K49A 272215Z AUTO VRB04KT 8SM FEW005 BKN010 OVC018 07/07 A3004 RMK AO2,K49A,2025-01-27T22:15:00Z,34.6301,-84.5271,7,7,VRB,4,,8,30.04,,,TRUE,TRUE,,,,,,,FEW,500,BKN,1000,OVC,1800,,,MVFR,,,,,,,,,,,,METAR,449
K48I 272215Z AUTO VRB05KT 10SM CLR 05/M12 A2989 RMK AO2 T00461119,K48I,2025-01-27T22:15:00Z,38.684,-80.649,4.6,-11.9,VRB,5,,10+,29.89,,,TRUE,TRUE,,,,,,,CLR,,,,,,,,VFR,,,,,,,,,,,,METAR,386
K48A 272215Z AUTO 18003KT 2 1/2SM -DZ BR BKN004 BKN007 OVC017 10/10 A3007 RMK AO2 T01000098,K48A,2025-01-27T22:15:00Z,32.3993,-83.2785,10,9.8,180,3,,2.5,30.07,,,TRUE,TRUE,,,,,,-DZ BR,BKN,400,BKN,700,OVC,1700,,,LIFR,,,,,,,,,,,,METAR,115
K46D 272215Z AUTO 29015KT 10SM CLR M00/M02 A2984 RMK A01,K46D,2025-01-27T22:15:00Z,47.4509,-99.1479,0,-2,290,15,,10+,29.84,,,TRUE,TRUE,,,,,,,CLR,,,,,,,,VFR,,,,,,,,,,,,METAR,488
K42J 272215Z AUTO 20010KT 9SM SCT045 20/08 A3010 RMK A01,K42J,2025-01-27T22:15:00Z,29.844,-82.05,20,8,200,10,,9,30.10,,,TRUE,TRUE,,,,,,,SCT,4500,,,,,,,VFR,,,,,,,,,,,,METAR,57
K41U 272215Z AUTO 20004KT 10SM CLR 05/M10 A3005 RMK AO1 T00531103,K41U,2025-01-27T22:15:00Z,39.3323,-111.614,5.3,-10.3,200,4,,10+,30.05,,,TRUE,TRUE,,,,,,,CLR,,,,,,,,VFR,,,,,,,,,,,,METAR,1676
K40U 272215Z AUTO 00000KT 10SM CLR M05/M11 A3018 RMK AO2 T10521109,K40U,2025-01-27T22:15:00Z,40.986,-109.678,-5.2,-10.9,0,0,,10+,30.18,,,TRUE,TRUE,,,,,,,CLR,,,,,,,,VFR,,,,,,,,,,,,METAR,1882
K3U3 272215Z AUTO 05005KT 10SM CLR M04/M13 A3023 RMK AO2 T10431131,K3U3,2025-01-27T22:15:00Z,46.1516,-112.868,-4.3,-13.1,50,5,,10+,30.23,,,TRUE,TRUE,,,,,,,CLR,,,,,,,,VFR,,,,,,,,,,,,METAR,1534
K3T5 272215Z AUTO 03006KT 10SM BKN027 OVC034 11/10 A3016 RMK AO2 RAE2202 P0000 T01070103 $,K3T5,2025-01-27T22:15:00Z,29.9064,-96.9478,10.7,10.3,30,6,,10+,30.16,,,TRUE,TRUE,TRUE,,,,,,BKN,2700,OVC,3400,,,,,MVFR,,,,,,0.005,,,,,,METAR,96
K3R7 272215Z AUTO 04007KT 10SM BKN012 13/10 A3017 RMK AO2 T01250100,K3R7,2025-01-27T22:15:00Z,30.2426,-92.6759,12.5,10,40,7,,10+,30.17,,,TRUE,TRUE,,,,,,,BKN,1200,,,,,,,MVFR,,,,,,,,,,,,METAR,5
K3N8 272215Z AUTO 32014G18KT 10SM CLR 00/M03 A2976 RMK AO2 T10031035,K3N8,2025-01-27T22:15:00Z,47.26,-95.928,-0.3,-3.5,320,14,18,10+,29.76,,,TRUE,TRUE,,,,,,,CLR,,,,,,,,VFR,,,,,,,,,,,,METAR,379
K3LF 272215Z AUTO 23014G18KT 10SM CLR 03/M06 A2999 RMK AO2 T00321061,K3LF,2025-01-27T22:15:00Z,39.1605,-89.6742,3.2,-6.1,230,14,18,10+,29.99,,,TRUE,TRUE,,,,,,,CLR,,,,,,,,VFR,,,,,,,,,,,,METAR,207
K3K3 272215Z AUTO 28008KT 10SM CLR 11/M05 A3003 RMK AO2,K3K3,2025-01-27T22:15:00Z,37.9988,-101.75,11,-5,280,8,,10+,30.03,,,TRUE,TRUE,,,,,,,CLR,,,,,,,,VFR,,,,,,,,,,,,METAR,1010
K3F3 272215Z AUTO 08008KT 10SM CLR 14/07 A3022 RMK AO2 T01350066,K3F3,2025-01-27T22:15:00Z,32.0718,-93.7641,13.5,6.6,80,8,,10+,30.22,,,TRUE,TRUE,,,,,,,CLR,,,,,,,,VFR,,,,,,,,,,,,METAR,96
K3D2 272215Z AUTO 28010G15KT 10SM BKN047 OVC060 00/M07 A2944 RMK AO2 T00011068,K3D2,2025-01-27T22:15:00Z,45.1348,-87.1881,0.1,-6.8,280,10,15,10+,29.44,,,TRUE,TRUE,,,,,,,BKN,4700,OVC,6000,,,,,VFR,,,,,,,,,,,,METAR,233
K3AU 272215Z AUTO 22012G17KT 10SM CLR 08/M08 A3010 RMK AO2,K3AU,2025-01-27T22:15:00Z,37.6729,-97.0792,8,-8,220,12,17,10+,30.10,,,TRUE,TRUE,,,,,,,CLR,,,,,,,,VFR,,,,,,,,,,,,METAR,403
K36K 272215Z AUTO 27008KT 10SM CLR 12/M05 A3006 RMK AO2,K36K,2025-01-27T22:15:00Z,37.9707,-101.255,12,-5,270,8,,10+,30.06,,,TRUE,TRUE,,,,,,,CLR,,,,,,,,VFR,,,,,,,,,,,,METAR,938
K35A 272215Z AUTO 22008KT 190V260 10SM OVC006 09/09 A3001 RMK A02 T00950086,K35A,2025-01-27T22:15:00Z,34.6849,-81.6421,9.5,8.6,220,8,,10+,30.01,,,TRUE,TRUE,,,,,,,OVC,600,,,,,,,IFR,,,,,,,,,,,,METAR,186
K33V 272215Z AUTO 00000KT 10SM CLR M10/M13 A3013 RMK AO1,K33V,2025-01-27T22:15:00Z,40.7454,-106.275,-10,-13,0,0,,10+,30.13,,,TRUE,TRUE,,,,,,,CLR,,,,,,,,VFR,,,,,,,,,,,,METAR,2486
K2V5 272215Z AUTO 30011G20KT 10SM CLR 12/M13 A3003 RMK AO2,K2V5,2025-01-27T22:15:00Z,40.1,-102.241,12,-13,300,11,20,10+,30.03,,,TRUE,TRUE,,,,,,,CLR,,,,,,,,VFR,,,,,,,,,,,,METAR,1117
K2R9 272215Z AUTO 04006KT 1 1/4SM -RA BR OVC005 10/09 A3017 RMK AO2 P0001 T00960088,K2R9,2025-01-27T22:15:00Z,28.8267,-97.8676,9.6,8.8,40,6,,1.25,30.17,,,TRUE,TRUE,,,,,,-RA BR,OVC,500,,,,,,,IFR,,,,,,0.01,,,,,,METAR,88
K2R2 272215Z AUTO 23009KT 10SM CLR 01/M07 A2992 RMK AO2 T00111070 $,K2R2,2025-01-27T22:15:00Z,39.7511,-86.4732,1.1,-7,230,9,,10+,29.92,,,TRUE,TRUE,TRUE,,,,,,CLR,,,,,,,,VFR,,,,,,,,,,,,METAR,273
K2P2 272215Z AUTO 29010G22KT 10SM OVC044 01/M06 A2942 RMK AO2 T00101059,K2P2,2025-01-27T22:15:00Z,45.388,-86.924,1,-5.9,290,10,22,10+,29.42,,,TRUE,TRUE,,,,,,,OVC,4400,,,,,,,VFR,,,,,,,,,,,,METAR,182
K2J9 272215Z AUTO 18006KT CLR 16/10 A3009 RMK AO2,K2J9,2025-01-27T22:15:00Z,30.5987,-84.555,16,10,180,6,,,30.09,,,TRUE,TRUE,,,,,,,CLR,,,,,,,,,,,,,,,,,,,,METAR,62
K2IS 272215Z AUTO 07007KT 10SM CLR 22/12 A3010 RMK AO2 T02230124,K2IS,2025-01-27T22:15:00Z,26.739,-81.0528,22.3,12.4,70,7,,10+,30.10,,,TRUE,TRUE,,,,,,,CLR,,,,,,,,VFR,,,,,,,,,,,,METAR,5
K2I0 272215Z AUTO 26006KT 10SM CLR 06/M10 A3009 RMK AO2 T00551097,K2I0,2025-01-27T22:15:00Z,37.3582,-87.3977,5.5,-9.7,260,6,,10+,30.09,,,TRUE,TRUE,,,,,,,CLR,,,,,,,,VFR,,,,,,,,,,,,METAR,127
K2G9 272215Z AUTO 24012G19KT 10SM CLR M01/M13 A2977 RMK AO2,K2G9,2025-01-27T22:15:00Z,40.0401,-79.0158,-1,-13,240,12,19,10+,29.77,,,TRUE,TRUE,,,,,,,CLR,,,,,,,,VFR,,,,,,,,,,,,METAR,677
K2D5 272215Z AUTO 32012KT CLR 03/M03 A2984 RMK AO2,K2D5,2025-01-27T22:15:00Z,46.1739,-98.083,3,-3,320,12,,,29.84,,,TRUE,TRUE,,,,,,,CLR,,,,,,,,,,,,,,,,,,,,METAR,407
K2C8 272215Z AUTO 31012G17KT 10SM OVC040 02/M02 A2978 RMK AO2,K2C8,2025-01-27T22:15:00Z,48.7838,-97.6297,2,-2,310,12,17,10+,29.78,,,TRUE,TRUE,,,,,,,OVC,4000,,,,,,,VFR,,,,,,,,,,,,METAR,271
K28J 272215Z AUTO 25007KT 10SM CLR 21/11 A3010 RMK AO2,K28J,2025-01-27T22:15:00Z,29.6602,-81.6918,21,11,250,7,,10+,30.10,,,TRUE,TRUE,,,,,,,CLR,,,,,,,,VFR,,,,,,,,,,,,METAR,9
K24J 272215Z AUTO 00000KT 10SM OVC095 20/10 A3009 RMK A01,K24J,2025-01-27T22:15:00Z,30.299,-83.0226,20,10,0,0,,10+,30.09,,,TRUE,TRUE,,,,,,,OVC,9500,,,,,,,VFR,,,,,,,,,,,,METAR,30
K22N 272215Z AUTO 24003KT 10SM CLR 02/M13 A2980 RMK AO2,K22N,2025-01-27T22:15:00Z,40.8116,-75.7647,2,-13,240,3,,10+,29.80,,,TRUE,TRUE,,,,,,,CLR,,,,,,,,VFR,,,,,,,,,,,,METAR,159
K21D 272215Z AUTO 27010G15KT 10SM CLR 02/M05 A2967 RMK AO2,K21D,2025-01-27T22:15:00Z,45.0002,-92.8549,2,-5,270,10,15,10+,29.67,,,TRUE,TRUE,,,,,,,CLR,,,,,,,,VFR,,,,,,,,,,,,METAR,281
K20V 272215Z AUTO 00000KT 10SM CLR M07/M18 A3017 RMK AO2,K20V,2025-01-27T22:15:00Z,40.0563,-106.374,-7,-18,0,0,,10+,30.17,,,TRUE,TRUE,,,,,,,CLR,,,,,,,,VFR,,,,,,,,,,,,METAR,2259
K20U 272215Z AUTO 29011KT 10SM 01/M04 A2998 RMK AO2,K20U,2025-01-27T22:15:00Z,46.9251,-103.985,1,-4,290,11,,10+,29.98,,,TRUE,TRUE,,,,,,,,,,,,,,,VFR,,,,,,,,,,,,METAR,839
K1R8 272215Z AUTO 32005KT 10SM OVC012 16/15 A3009 RMK AO2,K1R8,2025-01-27T22:15:00Z,30.8691,-87.8184,16,15,320,5,,10+,30.09,,,TRUE,TRUE,,,,,,,OVC,1200,,,,,,,MVFR,,,,,,,,,,,,METAR,76
K1R7 272215Z AUTO VRB03KT 10SM OVC007 09/09 A3018 RMK A01 TSNO,K1R7,2025-01-27T22:15:00Z,31.6057,-90.4072,9,9,VRB,3,,10+,30.18,,,TRUE,TRUE,,,TRUE,,,,OVC,700,,,,,,,IFR,,,,,,,,,,,,METAR,142
K1P1 272215Z AUTO 25003KT CLR 02/M12 A2953 RMK AO2 T00201125 PWINO,K1P1,2025-01-27T22:15:00Z,43.7771,-71.756,2,-12.5,250,3,,,29.53,,,TRUE,TRUE,,,,,TRUE,,CLR,,,,,,,,,,,,,,,,,,,,METAR,155
K1H2 272215Z AUTO 21011G19KT 10SM CLR 03/M06 A3001 RMK AO2 T00311057,K1H2,2025-01-27T22:15:00Z,39.0712,-88.5293,3.1,-5.7,210,11,19,10+,30.01,,,TRUE,TRUE,,,,,,,CLR,,,,,,,,VFR,,,,,,,,,,,,METAR,174
K1F0 272215Z AUTO 00000KT 10SM CLR 11/M13 A3019 RMK AO2 T01051126,K1F0,2025-01-27T22:15:00Z,34.1508,-97.1242,10.5,-12.6,0,0,,10+,30.19,,,TRUE,TRUE,,,,,,,CLR,,,,,,,,VFR,,,,,,,,,,,,METAR,256
K1B9 272215Z AUTO 21009KT 170V230 9SM CLR 02/M11 A2969 RMK AO2 T00171108 $,K1B9,2025-01-27T22:15:00Z,42,-71.197,1.7,-10.8,210,9,,9,29.69,,,TRUE,TRUE,TRUE,,,,,,CLR,,,,,,,,VFR,,,,,,,,,,,,METAR,37
K1A9 272215Z AUTO 30006KT 10SM OVC011 13/12 A3009 RMK AO2 T01270116,K1A9,2025-01-27T22:15:00Z,32.4374,-86.5098,12.7,11.6,300,6,,10+,30.09,,,TRUE,TRUE,,,,,,,OVC,1100,,,,,,,MVFR,,,,,,,,,,,,METAR,65
K1A6 272215Z AUTO 29004KT 10SM CLR 08/M05 A3001 RMK AO2 T00781051,K1A6,2025-01-27T22:15:00Z,36.6087,-83.7369,7.8,-5.1,290,4,,10+,30.01,,,TRUE,TRUE,,,,,,,CLR,,,,,,,,VFR,,,,,,,,,,,,METAR,348
K19S 272215Z AUTO 23013G17KT 10SM CLR 14/M05 A3004 RMK AO2 T01351049,K19S,2025-01-27T22:15:00Z,37.496,-100.834,13.5,-4.9,230,13,17,10+,30.04,,,TRUE,TRUE,,,,,,,CLR,,,,,,,,VFR,,,,,,,,,,,,METAR,886
K18H 272215Z AUTO 08005KT 9SM BKN050 24/17 A3008 RMK A01,K18H,2025-01-27T22:15:00Z,26.1283,-92.0333,24,17,80,5,,9,30.08,,,TRUE,TRUE,,,,,,,BKN,5000,,,,,,,VFR,,,,,,,,,,,,METAR,30
K18A 272215Z AUTO 25006KT 1 1/2SM BR OVC005 09/09 A3001 RMK AO2 T00900086,K18A,2025-01-27T22:15:00Z,34.3418,-83.1316,9,8.6,250,6,,1.5,30.01,,,TRUE,TRUE,,,,,,BR,OVC,500,,,,,,,IFR,,,,,,,,,,,,METAR,260
K17J 272215Z AUTO 20004KT 10SM OVC035 14/11 A3009 RMK AO2,K17J,2025-01-27T22:15:00Z,31.0038,-84.8794,14,11,200,4,,10+,30.09,,,TRUE,TRUE,,,,,,,OVC,3500,,,,,,,VFR,,,,,,,,,,,,METAR,42
K14Y 272215Z AUTO 31011G21KT 7SM CLR 01/M03 A2971 RMK AO2,K14Y,2025-01-27T22:15:00Z,45.9017,-94.8727,1,-3,310,11,21,7,29.71,,,TRUE,TRUE,,,,,,,CLR,,,,,,,,VFR,,,,,,,,,,,,METAR,404
K13K 272215Z AUTO 22016KT 10SM CLR 09/M06 A3010 RMK AO2 T00891059,K13K,2025-01-27T22:15:00Z,37.8519,-96.2929,8.9,-5.9,220,16,,10+,30.10,,,TRUE,TRUE,,,,,,,CLR,,,,,,,,VFR,,,,,,,,,,,,METAR,367
K10G 272215Z AUTO 23015G20KT 10SM CLR 00/M11 A2983 RMK AO2,K10G,2025-01-27T22:15:00Z,40.5357,-81.9531,0,-11,230,15,20,10+,29.83,,,TRUE,TRUE,,,,,,,CLR,,,,,,,,VFR,,,,,,,,,,,,METAR,371
K0VG 272215Z AUTO 22007KT 10SM CLR 08/00 A2998 RMK AO2,K0VG,2025-01-27T22:15:00Z,36.6576,-83.2147,8,0,220,7,,10+,29.98,,,TRUE,TRUE,,,,,,,CLR,,,,,,,,VFR,,,,,,,,,,,,METAR,426
K0V4 272215Z AUTO 18010KT 10SM CLR 10/00 A2990 RMK AO1,K0V4,2025-01-27T22:15:00Z,37.1399,-79.0171,10,0,180,10,,10+,29.90,,,TRUE,TRUE,,,,,,,CLR,,,,,,,,VFR,,,,,,,,,,,,METAR,186
K0S9 272215Z AUTO 28003KT 10SM CLR 08/M01 A3033 RMK AO2,K0S9,2025-01-27T22:15:00Z,48.0554,-122.812,8,-1,280,3,,10+,30.33,,,TRUE,TRUE,,,,,,,CLR,,,,,,,,VFR,,,,,,,,,,,,METAR,33
K0R4 272215Z AUTO 35004KT OVC010 10/08 A3024 RMK AO2 T00960075 PWINO,K0R4,2025-01-27T22:15:00Z,31.5637,-91.5098,9.6,7.5,350,4,,,30.24,,,TRUE,TRUE,,,,,TRUE,,OVC,1000,,,,,,,,,,,,,,,,,,,METAR,16
K0F2 272215Z AUTO 31003KT 10SM CLR 10/M09 A3019 RMK AO2 T01001091,K0F2,2025-01-27T22:15:00Z,33.6011,-97.7735,10,-9.1,310,3,,10+,30.19,,,TRUE,TRUE,,,,,,,CLR,,,,,,,,VFR,,,,,,,,,,,,METAR,330
K0E0 272215Z AUTO 12007KT 10SM CLR 11/M08 A3003 RMK AO2 T01141080,K0E0,2025-01-27T22:15:00Z,34.9837,-105.996,11.4,-8,120,7,,10+,30.03,,,TRUE,TRUE,,,,,,,CLR,,,,,,,,VFR,,,,,,,,,,,,METAR,1887
K0CO 272215Z AUTO 03005KT 10SM CLR M10/M16 A3011 RMK AO2,K0CO,2025-01-27T22:15:00Z,39.794,-105.764,-10,-16,30,5,,10+,30.11,,,TRUE,TRUE,,,,,,,CLR,,,,,,,,VFR,,,,,,,,,,,,METAR,3804
K08D 272215Z AUTO 28013KT 10SM CLR M02/M04 A2989 RMK AO2,K08D,2025-01-27T22:15:00Z,48.3018,-102.404,-2,-4,280,13,,10+,29.89,,,TRUE,TRUE,,,,,,,CLR,,,,,,,,VFR,,,,,,,,,,,,METAR,683
K06D 272215Z AUTO 32013KT 10SM BKN050 00/M04 A2980 RMK AO2,K06D,2025-01-27T22:15:00Z,48.8821,-99.6217,0,-4,320,13,,10+,29.80,,,TRUE,TRUE,,,,,,,BKN,5000,,,,,,,VFR,,,,,,,,,,,,METAR,554
K06C 272215Z AUTO 24017G24KT 10SM BKN110 06/M12 A2970 RMK AO2 T00601116,K06C,2025-01-27T22:15:00Z,41.9924,-88.1091,6,-11.6,240,17,24,10+,29.70,,,TRUE,TRUE,,,,,,,BKN,11000,,,,,,,VFR,,,,,,,,,,,,METAR,243
K04W 272215Z AUTO 31005KT 10SM SCT041 03/M05 A2964 RMK AO2,K04W,2025-01-27T22:15:00Z,46.0244,-92.8991,3,-5,310,5,,10+,29.64,,,TRUE,TRUE,,,,,,,SCT,4100,,,,,,,VFR,,,,,,,,,,,,METAR,310
CYVL 272215Z AUTO 00000KT 1 1/4SM -SN OVC032 M15/M17 A2947 RMK SLP013,CYVL,2025-01-27T22:15:00Z,67.021,-126.129,-15,-17,0,0,,1.25,29.47,1001.3,,TRUE,,,,,,,-SN,OVC,3200,,,,,,,IFR,,,,,,,,,,,,SPECI,261
CYMT 272215Z AUTO 28008G15KT 2 1/2SM -SN OVC032 M12/M14 A2884 RMK SLP797,CYMT,2025-01-27T22:15:00Z,49.779,-74.527,-12,-14,280,8,15,2.5,28.84,979.7,,TRUE,,,,,,,-SN,OVC,3200,,,,,,,IFR,,,,,,,,,,,,SPECI,388
CYGW 272215Z AUTO 35018G25KT 1SM -SN FEW016 OVC021 M17/M19 A2876 RMK PRESRR SLP741,CYGW,2025-01-27T22:15:00Z,55.283,-77.76,-17,-19,350,18,25,1,28.76,974.1,,TRUE,,,,,,,-SN,FEW,1600,OVC,2100,,,,,IFR,,,,,,,,,,,,SPECI,13
CYER 272215Z AUTO 31009G17KT 7SM FEW015 BKN027 BKN230 BKN250 M22/M24 A2952 RMK SLP001,CYER,2025-01-27T22:15:00Z,56.019,-87.675,-22,-24,310,9,17,7,29.52,1000.1,,TRUE,,,,,,,,FEW,1500,BKN,2700,BKN,23000,BKN,25000,MVFR,,,,,,,,,,,,SPECI,11
CWPF 272215Z AUTO 02005KT 07/01 RMK AO1 SLP273 T00710009 58024,CWPF,2025-01-27T22:15:00Z,48.432,-123.439,7.1,0.9,20,5,,,0.00,1027.3,,TRUE,TRUE,,,,,,,,,,,,,,,,-0.24,,,,,,,,,,,METAR,5
URKK 272214Z 04002MPS 0100 R05R/0350N FZFG VV001 M00/M00 Q1025 R05R/19//65 NOSIG RMK QBB050 OBST OBSC QFE765/1020,URKK,2025-01-27T22:14:00Z,45.033,39.15,0,0,40,4,,0.06,30.27,,,,,,TRUE,,,,FZFG,OVX,0,,,,,,,LIFR,,,,,,,,,,,100,SPECI,29
UIBB 272214Z 29003MPS 9999 NSC M29/M32 Q1029 R30/490240 NOSIG RMK QFE728/0971,UIBB,2025-01-27T22:14:00Z,56.365,101.716,-29,-32,290,6,,6+,30.38,,,,,,TRUE,,,,,CLR,,,,,,,,VFR,,,,,,,,,,,,SPECI,485
PPIZ 272214Z AUTO 01017KT 3SM -SN BR BKN028 OVC034 M18/M20 A2973 RMK AO2 P0000 FZRANO,PPIZ,2025-01-27T22:14:00Z,69.735,-163.003,-18,-20,10,17,,3,29.73,,,TRUE,TRUE,,,,TRUE,,-SN BR,BKN,2800,OVC,3400,,,,,MVFR,,,,,,0.005,,,,,,SPECI,5
PATL 272214Z AUTO 05018G26KT 010V080 7SM BKN024 M16/M20 A2978 RMK AO2 PK WND 04026/2207 SLP110,PATL,2025-01-27T22:14:00Z,62.893,-155.977,-16,-20,50,18,26,7,29.78,1011,,TRUE,TRUE,,,,,,,BKN,2400,,,,,,,MVFR,,,,,,,,,,,,SPECI,261
PAHL 272214Z AUTO 21005KT 6SM -SN BR FEW009 BKN033 OVC041 M16/M18 A2958 RMK AO2 P0001 FZRANO TSNO,PAHL,2025-01-27T22:14:00Z,65.699,-156.353,-16,-18,210,5,,6,29.58,,,TRUE,TRUE,,,TRUE,TRUE,,-SN BR,FEW,900,BKN,3300,OVC,4100,,,VFR,,,,,,0.01,,,,,,SPECI,49
PACX 272214Z AUTO 16004KT 3/4SM -SN BR SCT010 OVC015 M06/M08 A2945 RMK AO2 P0001 FZRANO,PACX,2025-01-27T22:14:00Z,67.252,-150.204,-6,-8,160,4,,0.75,29.45,,,TRUE,TRUE,,,,TRUE,,-SN BR,SCT,1000,OVC,1500,,,,,LIFR,,,,,,0.01,,,,,,SPECI,319
KDNL 272214Z AUTO 22005KT 10SM OVC005 09/08 A3003 RMK AO2 T00940083,KDNL,2025-01-27T22:14:00Z,33.4668,-82.0385,9.4,8.3,220,5,,10+,30.03,,,TRUE,TRUE,,,,,,,OVC,500,,,,,,,IFR,,,,,,,,,,,,SPECI,126
KBHM 272214Z 30006KT 10SM FEW011 OVC016 09/06 A3014 RMK AO2 T00890056,KBHM,2025-01-27T22:14:00Z,33.5655,-86.7449,8.9,5.6,300,6,,10+,30.14,,,,TRUE,,,,,,,FEW,1100,OVC,1600,,,,,MVFR,,,,,,,,,,,,SPECI,191
KABI 272214Z 28003KT 10SM OVC029 08/M08 A3018 RMK AO2 T00781083 $,KABI,2025-01-27T22:14:00Z,32.4106,-99.6821,7.8,-8.3,280,3,,10+,30.18,,,,TRUE,TRUE,,,,,,OVC,2900,,,,,,,MVFR,,,,,,,,,,,,SPECI,543
K7BM 272214Z AUTO 11005KT 10SM CLR 03/M16 A3008 RMK AO2,K7BM,2025-01-27T22:14:00Z,38.799,-106.219,3,-16,110,5,,10+,30.08,,,TRUE,TRUE,,,,,,,CLR,,,,,,,,VFR,,,,,,,,,,,,METAR,2996
CYPY 272214Z AUTO VRB02KT 7SM FEW140 SCT210 SCT230 SCT250 M02/M03 A2939 RMK SLP970,CYPY,2025-01-27T22:14:00Z,58.766,-111.117,-2,-3,VRB,2,,7,29.39,997,,TRUE,,,,,,,,FEW,14000,SCT,21000,SCT,23000,SCT,25000,VFR,,,,,,,,,,,,SPECI,225
CYEG 272214Z 26007KT 20SM BKN220 02/M04 A2985 RMK CI7 SLP138,CYEG,2025-01-27T22:14:00Z,53.308,-113.592,2,-4,260,7,,20,29.85,1013.8,,,,,,,,,,BKN,22000,,,,,,,VFR,,,,,,,,,,,,SPECI,710
CYCY 272214Z AUTO 30014KT 9SM BKN019 M24/M27 A2953 RMK SLP005,CYCY,2025-01-27T22:14:00Z,70.484,-68.515,-24,-27,300,14,,9,29.53,1000.5,,TRUE,,,,,,,,BKN,1900,,,,,,,MVFR,,,,,,,,,,,,SPECI,73
UUBW 272213Z 22004MPS 4900 -DZ BR OVC006 05/05 Q1014 R30/290250 NOSIG RMK QFE750,UUBW,2025-01-27T22:13:00Z,55.553,38.15,5,5,220,8,,3.04,29.94,,,,,,TRUE,,,,-DZ BR,OVC,600,,,,,,,IFR,,,,,,,,,,,,SPECI,111
RJOF 272213Z 29008KT 9999 FEW015 BKN030 03/M03 Q1016 RMK 2CU015 5CU030 A3001,RJOF,2025-01-27T22:13:00Z,34.034,131.546,3,-3,290,8,,6+,30.00,,,,,,,,,,,FEW,1500,BKN,3000,,,,,MVFR,,,,,,,,,,,,SPECI,2
KXVG 272213Z 31008KT 274V344 10SM 00/M06 A2968 RMK AO2,KXVG,2025-01-27T22:13:00Z,46.9942,-94.206,0,-6,310,8,,10+,29.68,,,,TRUE,,,,,,,,,,,,,,,VFR,,,,,,,,,,,,METAR,407
KORB 272213Z AUTO 33006G16KT 7SM -SN SCT033 BKN040 OVC047 M01/M06 A2956 RMK AO2,KORB,2025-01-27T22:13:00Z,48.0171,-92.8538,-1,-6,330,6,16,7,29.56,,,TRUE,TRUE,,,,,,-SN,SCT,3300,BKN,4000,OVC,4700,,,VFR,,,,,,,,,,,,METAR,407
KMFE 272213Z 34010KT 3SM BR OVC004 15/14 A3011 RMK AO2 T01500144,KMFE,2025-01-27T22:13:00Z,26.1791,-98.2445,15,14.4,340,10,,3,30.11,,,,TRUE,,,,,,BR,OVC,400,,,,,,,LIFR,,,,,,,,,,,,SPECI,29
KFOZ 272213Z AUTO 30009G23KT 10SM SCT040 OVC049 01/M07 A2967 RMK AO2,KFOZ,2025-01-27T22:13:00Z,47.7832,-93.6533,1,-7,300,9,23,10+,29.67,,,TRUE,TRUE,,,,,,,SCT,4000,OVC,4900,,,,,VFR,,,,,,,,,,,,METAR,412
KETH 272213Z AUTO 33011KT 10SM CLR 02/M03 A2981 RMK AO2,KETH,2025-01-27T22:13:00Z,45.7828,-96.5461,2,-3,330,11,,10+,29.81,,,TRUE,TRUE,,,,,,,CLR,,,,,,,,VFR,,,,,,,,,,,,METAR,309
KCDD 272213Z AUTO 35009G19KT 10SM SCT050 M02/M09 A2962 RMK AO2 TSNO,KCDD,2025-01-27T22:13:00Z,48.2601,-92.4748,-2,-9,350,9,19,10+,29.62,,,TRUE,TRUE,,,TRUE,,,,SCT,5000,,,,,,,VFR,,,,,,,,,,,,METAR,344
KAQP 272213Z 32014G21KT 10SM 04/M03 A2978 RMK AO2 TSNO,KAQP,2025-01-27T22:13:00Z,45.2249,-96.0041,4,-3,320,14,21,10+,29.78,,,,TRUE,,,TRUE,,,,,,,,,,,,VFR,,,,,,,,,,,,METAR,312
K79J 272213Z AUTO 29005KT 10SM OVC006 16/14 A3008 RMK AO2 T01560139 TSNO,K79J,2025-01-27T22:13:00Z,31.3061,-86.3902,15.6,13.9,290,5,,10+,30.08,,,TRUE,TRUE,,,TRUE,,,,OVC,600,,,,,,,IFR,,,,,,,,,,,,SPECI,93
CYMO 272213Z AUTO 29017G29KT 3SM -SN OVC034 M17/M21 A2918 RMK PRESRR SLP883,CYMO,2025-01-27T22:13:00Z,51.292,-80.607,-17,-21,290,17,29,3,29.18,988.3,,TRUE,,,,,,,-SN,OVC,3400,,,,,,,MVFR,,,,,,,,,,,,SPECI,8
CYEK 272213Z 33020KT 1 1/2SM IC BLSN SKC M30/M33 A2962 RMK SLP032,CYEK,2025-01-27T22:13:00Z,61.098,-94.072,-30,-33,330,20,,1.5,29.62,1003.2,,,,,,,,,IC BLSN,SKC,,,,,,,,IFR,,,,,,,,,,,,SPECI,7
KJXI 280035Z AUTO 00000KT 10SM CLR 11/05 A3020 RMK AO2 T01070046,KJXI,2025-01-27T22:12:05Z,32.7036,-94.9471,10.7,4.6,0,0,,10+,30.20,,,TRUE,TRUE,,,,,,,CLR,,,,,,,,VFR,,,,,,,,,,,,METAR,130
URML 272212Z 15009MPS 9999 BKN009 06/04 Q1028 R14/01//70 NOSIG RMK MT OBSC QFE771/1028,URML,2025-01-27T22:12:00Z,42.817,47.652,6,4,150,17,,6+,30.35,,,,,,TRUE,,,,,BKN,900,,,,,,,IFR,,,,,,,,,,,,SPECI,4
PATA 272212Z 24011G17KT 10SM BKN042 OVC055 M06/M10 A2962 RMK AO2 SNE02 T10561100 $,PATA,2025-01-27T22:12:00Z,65.173,-152.107,-5.6,-10,240,11,17,10+,29.62,,,,TRUE,TRUE,,,,,,BKN,4200,OVC,5500,,,,,VFR,,,,,,,,,,,,SPECI,62
PANU 272212Z AUTO 21009G14KT 10SM BKN020 OVC032 M17/M20 A2964 RMK AO2 FZRANO,PANU,2025-01-27T22:12:00Z,64.7304,-158.075,-17,-20,210,9,14,10+,29.64,,,TRUE,TRUE,,,,TRUE,,,BKN,2000,OVC,3200,,,,,MVFR,,,,,,,,,,,,SPECI,117
CYLH 272212Z AUTO 30009G15KT 270V360 9SM BKN030 M18/M22 A2951 RMK SLP022,CYLH,2025-01-27T22:12:00Z,52.196,-87.936,-18,-22,300,9,15,9,29.51,1002.2,,TRUE,,,,,,,,BKN,3000,,,,,,,MVFR,,,,,,,,,,,,SPECI,245
CWSA 272212Z AUTO 21016KT 9SM FEW033 SCT076 01/M01 A2982 RMK SLP101,CWSA,2025-01-27T22:12:00Z,43.933,-60.002,1,-1,210,16,,9,29.82,1010.1,,TRUE,,,,,,,,FEW,3300,SCT,7600,,,,,VFR,,,,,,,,,,,,SPECI,4
PHNG 272211Z COR 04013KT 3SM -RA FEW016 BKN021 OVC036 22/20 A3001 RMK P0003 T02270200,PHNG,2025-01-27T22:11:00Z,21.45,-157.763,22.7,20,40,13,,3,30.01,,TRUE,,,,,,,,-RA,FEW,1600,BKN,2100,OVC,3600,,,MVFR,,,,,,0.03,,,,,,METAR,1
PAMH 272211Z AUTO 24007G17KT 210V280 10SM BKN029 OVC055 M09/M13 A2966 RMK AO2 FZRANO TSNO,PAMH,2025-01-27T22:11:00Z,63.889,-152.292,-9,-13,240,7,17,10+,29.66,,,TRUE,TRUE,,,TRUE,TRUE,,,BKN,2900,OVC,5500,,,,,MVFR,,,,,,,,,,,,SPECI,200
PAGH 272211Z AUTO 00000KT 3/4SM -SN BR BKN015 OVC023 M18/M20 A2956 RMK AO2 P0000 FZRANO,PAGH,2025-01-27T22:11:00Z,66.886,-157.159,-18,-20,0,0,,0.75,29.56,,,TRUE,TRUE,,,,TRUE,,-SN BR,BKN,1500,OVC,2300,,,,,LIFR,,,,,,0.005,,,,,,SPECI,56
KVPS 272211Z AUTO 29004KT 10SM -RA FEW004 OVC023 19/16 A3006 RMK AO2 DZE2156RAB11 SLP186 $,KVPS,2025-01-27T22:11:00Z,30.483,-86.526,19,16,290,4,,10+,30.06,1018.6,,TRUE,TRUE,TRUE,,,,,-RA,FEW,400,OVC,2300,,,,,MVFR,,,,,,,,,,,,SPECI,21
KLZU 272211Z 25008KT 2SM -RA BR OVC004 09/09 A3003 RMK AO2 P0000,KLZU,2025-01-27T22:11:00Z,33.9828,-83.9585,9,9,250,8,,2,30.03,,,,TRUE,,,,,,-RA BR,OVC,400,,,,,,,LIFR,,,,,,0.005,,,,,,SPECI,316
KEET 272211Z AUTO 30007KT 10SM BKN014 OVC021 10/08 A3011 RMK AO2 T01000078,KEET,2025-01-27T22:11:00Z,33.1783,-86.7818,10,7.8,300,7,,10+,30.11,,,TRUE,TRUE,,,,,,,BKN,1400,OVC,2100,,,,,MVFR,,,,,,,,,,,,SPECI,172
K9MN 272211Z AUTO 27010G17KT 10SM OVC100 03/M10 A2969 RMK AO1,K9MN,2025-01-27T22:11:00Z,44.0198,-92.4829,3,-10,270,10,17,10+,29.69,,,TRUE,TRUE,,,,,,,OVC,10000,,,,,,,VFR,,,,,,,,,,,,METAR,308
CYXT 272211Z 00000KT 5SM -SN BR OVC007 M02/M02 A3039 RMK SC8 SLP305,CYXT,2025-01-27T22:11:00Z,54.471,-128.577,-2,-2,0,0,,5,30.39,1030.5,,,,,,,,,-SN BR,OVC,700,,,,,,,IFR,,,,,,,,,,,,SPECI,213
CYVO 272211Z 31008G16KT 280V340 1SM R18/P6000FT/U -SN BLSN VV010 M09/M11 A2902 RMK SN8 SLP852,CYVO,2025-01-27T22:11:00Z,48.056,-77.779,-9,-11,310,8,16,1,29.02,985.2,,,,,,,,,BLSN -SN,OVX,0,,,,,,,IFR,,,,,,,,,,,1000,SPECI,329
CYUX 272211Z 34013KT 8SM -SN DRSN FEW035 BKN070 M27/M30 A2942 RMK SC1AC6 SLP967,CYUX,2025-01-27T22:11:00Z,68.772,-81.233,-27,-30,340,13,,8,29.42,996.7,,,,,,,,,-SN DRSN,FEW,3500,BKN,7000,,,,,VFR,,,,,,,,,,,,SPECI,8
VCBI 272210Z 03009KT 6000 FEW018 SCT030 23/22 Q1007 NOSIG,VCBI,2025-01-27T22:10:00Z,7.181,79.884,23,22,30,9,,3.73,29.73,,,,,,TRUE,,,,,FEW,1800,SCT,3000,,,,,MVFR,,,,,,,,,,,,METAR,10
RKSW 2210Z 30007KT 2400 -SN BR FEW000 SCT010 BKN030 M04/M04 A2997 RMK CIG030 FG FEW000 WR26,RKSW,2025-01-27T22:10:00Z,37.239,127.007,-4,-4,300,7,,1.49,29.97,,,,,,,,,,-SN BR,FEW,0,SCT,1000,BKN,3000,,,IFR,,,,,,,,,,,,SPECI,24
PFCB 272210Z AUTO 22012G20KT 180V250 10SM BKN039 BKN049 OVC120 04/M01 A2993 RMK AO2 T00411009 PWINO,PFCB,2025-01-27T22:10:00Z,60.0785,-147.995,4.1,-0.9,220,12,20,10+,29.93,,,TRUE,TRUE,,,,,TRUE,,BKN,3900,BKN,4900,OVC,12000,,,VFR,,,,,,,,,,,,METAR,22
PAVL 272210Z AUTO 01031G40KT FEW003 M19/M22 RMK AO2 PK WND 01040/2205 T11891217 PWINO FZRANO TSNO $,PAVL,2025-01-27T22:10:00Z,67.731,-164.548,-18.9,-21.7,10,31,40,,0.00,,,TRUE,TRUE,TRUE,,TRUE,TRUE,TRUE,,FEW,300,,,,,,,,,,,,,,,,,,,SPECI,6
PANI 272210Z AUTO 25012G19KT 1 1/2SM -SN BKN017 OVC040 M19/M22 A2996 RMK AO2 VIS 1 1/4V3 P0000 FZRANO $,PANI,2025-01-27T22:10:00Z,61.578,-159.539,-19,-22,250,12,19,1.5,29.96,,,TRUE,TRUE,TRUE,,,TRUE,,-SN,BKN,1700,OVC,4000,,,,,IFR,,,,,,0.005,,,,,,SPECI,21
PAKN 272210Z 27014KT 9SM BKN018 M09/M12 A3002 RMK AO2 T10891122,PAKN,2025-01-27T22:10:00Z,58.683,-156.656,-8.9,-12.2,270,14,,9,30.02,,,,TRUE,,,,,,,BKN,1800,,,,,,,MVFR,,,,,,,,,,,,SPECI,20
PABT 272210Z 12003KT 3/4SM -SN BR VV015 M12/M13 A2947 RMK AO2 T11171133 PNO $,PABT,2025-01-27T22:10:00Z,66.9176,-151.519,-11.7,-13.3,120,3,,0.75,29.47,,,,TRUE,TRUE,,,,,-SN BR,OVX,0,,,,,,,LIFR,,,,,,,,,,,1500,SPECI,195
KXBP 272210Z AUTO 00000KT 10SM CLR 10/M08 A3020 RMK AO2 T01011081,KXBP,2025-01-27T22:10:00Z,33.1729,-97.8268,10.1,-8.1,0,0,,10+,30.20,,,TRUE,TRUE,,,,,,,CLR,,,,,,,,VFR,,,,,,,,,,,,METAR,256
KW43 272210Z AUTO 31009KT 10SM CLR 03/M08 A3004 RMK AO2,KW43,2025-01-27T22:10:00Z,44.6607,-104.568,3,-8,310,9,,10+,30.04,,,TRUE,TRUE,,,,,,,CLR,,,,,,,,VFR,,,,,,,,,,,,METAR,1292
KVOA 272210Z AUTO VRB03KT 9SM BKN025 BKN034 OVC110 21/16 A3010 RMK A01,KVOA,2025-01-27T22:10:00Z,29.2289,-87.7808,21,16,VRB,3,,9,30.10,,,TRUE,TRUE,,,,,,,BKN,2500,BKN,3400,OVC,11000,,,MVFR,,,,,,,,,,,,METAR,53
KVES 272210Z AUTO 23013G21KT 10SM CLR 00/M10 A2987 RMK AO2,KVES,2025-01-27T22:10:00Z,40.2056,-84.5346,0,-10,230,13,21,10+,29.87,,,TRUE,TRUE,,,,,,,CLR,,,,,,,,VFR,,,,,,,,,,,,METAR,308
KUKF 272210Z AUTO 25003KT 10SM OVC043 09/01 A2999 RMK AO2,KUKF,2025-01-27T22:10:00Z,36.2188,-81.1002,9,1,250,3,,10+,29.99,,,TRUE,TRUE,,,,,,,OVC,4300,,,,,,,VFR,,,,,,,,,,,,METAR,383
KTTA 272210Z AUTO 20003KT 10SM OVC009 08/07 A2998 RMK AO2 T00770070,KTTA,2025-01-27T22:10:00Z,35.5762,-79.1035,7.7,7,200,3,,10+,29.98,,,TRUE,TRUE,,,,,,,OVC,900,,,,,,,IFR,,,,,,,,,,,,METAR,71
KTQV 272210Z AUTO 18007G13KT 150V210 10SM SCT070 OVC080 09/05 A2994 RMK A01,KTQV,2025-01-27T22:10:00Z,36.007,-78.937,9,5,180,7,13,10+,29.94,,,TRUE,TRUE,,,,,,,SCT,7000,OVC,8000,,,,,VFR,,,,,,,,,,,,METAR,230
KTMT 272210Z AUTO 34008KT 10SM CLR 04/M09 A3014 RMK AO2 T00351090,KTMT,2025-01-27T22:10:00Z,39.4643,-117.197,3.5,-9,340,8,,10+,30.14,,,TRUE,TRUE,,,,,,,CLR,,,,,,,,VFR,,,,,,,,,,,,METAR,1748
KTDF 272210Z AUTO 21005KT 10SM BKN060 OVC080 08/00 A2996 RMK AO2,KTDF,2025-01-27T22:10:00Z,36.284,-78.9884,8,0,210,5,,10+,29.96,,,TRUE,TRUE,,,,,,,BKN,6000,OVC,8000,,,,,VFR,,,,,,,,,,,,METAR,180
KSZT 272210Z AUTO 00000KT 10SM CLR 00/M08 A3039 RMK AO2,KSZT,2025-01-27T22:10:00Z,48.2945,-116.567,0,-8,0,0,,10+,30.39,,,TRUE,TRUE,,,,,,,CLR,,,,,,,,VFR,,,,,,,,,,,,METAR,649
KSXS 272210Z AUTO 00000KT 5SM -RA BR BKN005 OVC015 14/13 A3006 RMK AO2 RAE04RAB10 CIG 003V005 SLP181,KSXS,2025-01-27T22:10:00Z,31.364,-85.846,14,13,0,0,,5,30.06,1018.1,,TRUE,TRUE,,,,,,-RA BR,BKN,500,OVC,1500,,,,,IFR,,,,,,,,,,,,SPECI,120
KSSC 272210Z AUTO 23009KT 10SM OVC007 10/09 A3000 RMK AO2 SLP161 $,KSSC,2025-01-27T22:10:00Z,33.978,-80.466,10,9,230,9,,10+,30.00,1016.1,,TRUE,TRUE,TRUE,,,,,,OVC,700,,,,,,,IFR,,,,,,,,,,,,SPECI,71
KQFW 272210Z AUTO 18007G12KT 0800 FZFG OVC008 M06/M07 A2969 RMK A02 TSNO,KQFW,2025-01-27T22:10:00Z,-99.99,-99.99,-6,-7,180,7,12,0.5,29.69,,,TRUE,TRUE,,,TRUE,,,FZFG,OVC,800,,,,,,,LIFR,,,,,,,,,,,,METAR,9999
KQEY 272210Z AUTO 26006G13KT 0800 FZFG OVC008 M03/M03 A2968 RMK A02 TSNO,KQEY,2025-01-27T22:10:00Z,-99.99,-99.99,-3,-3,260,6,13,0.5,29.68,,,TRUE,TRUE,,,TRUE,,,FZFG,OVC,800,,,,,,,LIFR,,,,,,,,,,,,METAR,9999
KQER 272210Z AUTO 21005G13KT 2000 // OVC018 M08/M11 A2982 RMK A02 TSNO,KQER,2025-01-27T22:10:00Z,-99.99,-99.99,-8,-11,210,5,13,1.24,29.82,,,TRUE,TRUE,,,TRUE,,,,OVC,1800,,,,,,,IFR,,,,,,,,,,,,METAR,9999
KPVW 272210Z AUTO 25007KT 200V260 10SM CLR 09/M08 A3011 RMK AO2 T00901078,KPVW,2025-01-27T22:10:00Z,34.169,-101.723,9,-7.8,250,7,,10+,30.11,,,TRUE,TRUE,,,,,,,CLR,,,,,,,,VFR,,,,,,,,,,,,METAR,1029
KPGV 272210Z AUTO 21007KT 10SM -DZ 08/08 A2999 RMK AO2,KPGV,2025-01-27T22:10:00Z,35.6374,-77.3851,8,8,210,7,,10+,29.99,,,TRUE,TRUE,,,,,,-DZ,,,,,,,,,VFR,,,,,,,,,,,,METAR,6
KOSA 272210Z AUTO 00000KT 10SM CLR 11/04 A3020 RMK AO2 T01090038,KOSA,2025-01-27T22:10:00Z,33.0936,-94.9601,10.9,3.8,0,0,,10+,30.20,,,TRUE,TRUE,,,,,,,CLR,,,,,,,,VFR,,,,,,,,,,,,METAR,108
KONX 272210Z AUTO 20006KT 10SM OVC095 09/05 A2995 RMK AO2 T00880052,KONX,2025-01-27T22:10:00Z,36.399,-76.014,8.8,5.2,200,6,,10+,29.95,,,TRUE,TRUE,,,,,,,OVC,9500,,,,,,,VFR,,,,,,,,,,,,METAR,4
KOLY 272210Z AUTO 21007KT 10SM CLR 04/M08 A3002 RMK AO2 T00371076,KOLY,2025-01-27T22:10:00Z,38.7213,-88.1799,3.7,-7.6,210,7,,10+,30.02,,,TRUE,TRUE,,,,,,,CLR,,,,,,,,VFR,,,,,,,,,,,,METAR,144
KOAJ 272210Z 21007KT 5SM -RA BR OVC004 08/07 A3002 RMK AO2 P0000,KOAJ,2025-01-27T22:10:00Z,34.8251,-77.6189,8,7,210,7,,5,30.02,,,,TRUE,,,,,,-RA BR,OVC,400,,,,,,,LIFR,,,,,,0.005,,,,,,SPECI,26
KNOW 272210Z AUTO 06004KT 10SM CLR 06/04 A3036 RMK AO2 T00600036,KNOW,2025-01-27T22:10:00Z,48.1394,-123.403,6,3.6,60,4,,10+,30.36,,,TRUE,TRUE,,,,,,,CLR,,,,,,,,VFR,,,,,,,,,,,,METAR,3
KMWK 272210Z AUTO 00000KT 10SM BKN060 OVC080 09/M01 A2995 RMK AO2 T00861014,KMWK,2025-01-27T22:10:00Z,36.4568,-80.5548,8.6,-1.4,0,0,,10+,29.95,,,TRUE,TRUE,,,,,,,BKN,6000,OVC,8000,,,,,VFR,,,,,,,,,,,,METAR,374
KMQI 272210Z AUTO 23010KT 10SM OVC007 06/05 A2999 RMK AO2 T00580046 PWINO,KMQI,2025-01-27T22:10:00Z,35.9188,-75.6989,5.8,4.6,230,10,,10+,29.99,,,TRUE,TRUE,,,,,TRUE,,OVC,700,,,,,,,IFR,,,,,,,,,,,,METAR,3
KMKQ 272210Z AUTO 00000KT 10SM FEW046 OVC050 23/18 A3011 RMK A01,KMKQ,2025-01-27T22:10:00Z,27.5197,-90.0981,23,18,0,0,,10+,30.11,,,TRUE,TRUE,,,,,,,FEW,4600,OVC,5000,,,,,VFR,,,,,,,,,,,,METAR,40
KMHP 272210Z AUTO 30003KT 4SM -RA BR SCT017 BKN028 OVC060 11/10 A3006 RMK AO2 P0001 T01090105,KMHP,2025-01-27T22:10:00Z,32.374,-82.079,10.9,10.5,300,3,,4,30.06,,,TRUE,TRUE,,,,,,-RA BR,SCT,1700,BKN,2800,OVC,6000,,,MVFR,,,,,,0.01,,,,,,METAR,60
KM04 272210Z AUTO 30005KT 10SM 08/M10 A3014 RMK A01,KM04,2025-01-27T22:10:00Z,35.5819,-89.5858,8,-10,300,5,,10+,30.14,,,TRUE,TRUE,,,,,,,,,,,,,,,VFR,,,,,,,,,,,,METAR,83
KLSF 272210Z AUTO 20004KT 10SM OVC005 13/12 A3005 RMK AO2 SLP181 RVRNO VISNO RWY33 $,KLSF,2025-01-27T22:10:00Z,32.3239,-84.9826,13,12,200,4,,10+,30.05,1018.1,,TRUE,TRUE,TRUE,,,,,,OVC,500,,,,,,,IFR,,,,,,,,,,,,SPECI,68
KLSB 272210Z AUTO 22014G22KT 10SM CLR 18/M16 A2995 RMK AO2,KLSB,2025-01-27T22:10:00Z,32.334,-108.696,18,-16,220,14,22,10+,29.95,,,TRUE,TRUE,,,,,,,CLR,,,,,,,,VFR,,,,,,,,,,,,METAR,1308
KLHZ 272210Z AUTO 19007KT 10SM SCT016 OVC080 08/05 A2998 RMK AO2,KLHZ,2025-01-27T22:10:00Z,36.0229,-78.3341,8,5,190,7,,10+,29.98,,,TRUE,TRUE,,,,,,,SCT,1600,OVC,8000,,,,,VFR,,,,,,,,,,,,METAR,104
KJZP 272210Z AUTO 1 1/4SM BR OVC002 06/06 A3004 RMK AO2 T00640064,KJZP,2025-01-27T22:10:00Z,34.4542,-84.4597,6.4,6.4,,,,1.25,30.04,,,TRUE,TRUE,,,,,,BR,OVC,200,,,,,,,LIFR,,,,,,,,,,,,METAR,462
KJNX 272210Z AUTO 21004KT 10SM OVC006 08/07 A2998 RMK AO2,KJNX,2025-01-27T22:10:00Z,35.5369,-78.3934,8,7,210,4,,10+,29.98,,,TRUE,TRUE,,,,,,,OVC,600,,,,,,,IFR,,,,,,,,,,,,METAR,41
KJAU 272210Z AUTO 24005G10KT 10SM CLR 08/M01 A3004 RMK A01,KJAU,2025-01-27T22:10:00Z,36.3351,-84.1635,8,-1,240,5,10,10+,30.04,,,TRUE,TRUE,,,,,,,CLR,,,,,,,,VFR,,,,,,,,,,,,METAR,350
KHVE 272210Z AUTO 23004KT 10SM CLR 07/M13 A3005 RMK AO2,KHVE,2025-01-27T22:10:00Z,38.418,-110.704,7,-13,230,4,,10+,30.05,,,TRUE,TRUE,,,,,,,CLR,,,,,,,,VFR,,,,,,,,,,,,METAR,1351
KHRJ 272210Z AUTO 00000KT 1 1/2SM BR OVC003 08/ A3000 RMK AO2 T0079////,KHRJ,2025-01-27T22:10:00Z,35.3794,-78.7356,7.9,,0,0,,1.5,30.00,,,TRUE,TRUE,,,,,,BR,OVC,300,,,,,,,LIFR,,,,,,,,,,,,METAR,55
KHBI 272210Z AUTO 20006KT 7SM OVC005 08/07 A2999 RMK AO2 T00750065,KHBI,2025-01-27T22:10:00Z,35.6527,-79.8942,7.5,6.5,200,6,,7,29.99,,,TRUE,TRUE,,,,,,,OVC,500,,,,,,,IFR,,,,,,,,,,,,METAR,199
KGVT 272210Z AUTO 00000KT 10SM CLR 11/02 A3019 RMK AO2 TSNO,KGVT,2025-01-27T22:10:00Z,33.0669,-96.0614,11,2,0,0,,10+,30.19,,,TRUE,TRUE,,,TRUE,,,,CLR,,,,,,,,VFR,,,,,,,,,,,,METAR,165
KGSB 272210Z 22005KT 10SM OVC005 09/08 A2996 RMK AO2A RAE02 SLP149 $,KGSB,2025-01-27T22:10:00Z,35.3446,-77.9458,9,8,220,5,,10+,29.96,1014.9,,,TRUE,TRUE,,,,,,OVC,500,,,,,,,IFR,,,,,,,,,,,,SPECI,33
KGRY 272210Z AUTO 35007KT 10SM FEW050 21/16 A3011 RMK A01,KGRY,2025-01-27T22:10:00Z,27.6247,-90.4411,21,16,350,7,,10+,30.11,,,TRUE,TRUE,,,,,,,FEW,5000,,,,,,,VFR,,,,,,,,,,,,METAR,58
KGEV 272210Z AUTO 28008G15KT 10SM OVC010 02/01 A2992 RMK AO2 T00210005,KGEV,2025-01-27T22:10:00Z,36.4312,-81.4206,2.1,0.5,280,8,15,10+,29.92,,,TRUE,TRUE,,,,,,,OVC,1000,,,,,,,MVFR,,,,,,,,,,,,METAR,961
KGCD 272210Z AUTO 00000KT 10SM CLR 04/M16 A3026 RMK AO2 T00351159,KGCD,2025-01-27T22:10:00Z,44.4029,-118.967,3.5,-15.9,0,0,,10+,30.26,,,TRUE,TRUE,,,,,,,CLR,,,,,,,,VFR,,,,,,,,,,,,METAR,1122
KFOT 272210Z AUTO 31008KT 10SM CLR 13/03 A3015 RMK AO1,KFOT,2025-01-27T22:10:00Z,40.5529,-124.134,13,3,310,8,,10+,30.15,,,TRUE,TRUE,,,,,,,CLR,,,,,,,,VFR,,,,,,,,,,,,METAR,118
KFFA 272210Z AUTO 22007KT 10SM OVC009 06/05 A2997 RMK AO2 T00610045,KFFA,2025-01-27T22:10:00Z,36.0165,-75.6739,6.1,4.5,220,7,,10+,29.97,,,TRUE,TRUE,,,,,,,OVC,900,,,,,,,IFR,,,,,,,,,,,,METAR,2
KF45 272210Z AUTO 08007KT 10SM SCT048 BKN050 20/14 A3010 RMK AO2,KF45,2025-01-27T22:10:00Z,26.8419,-80.224,20,14,80,7,,10+,30.10,,,TRUE,TRUE,,,,,,,SCT,4800,BKN,5000,,,,,VFR,,,,,,,,,,,,METAR,6
KETN 272210Z AUTO 00000KT 10SM OVC075 09/M08 A3018 RMK AO2 T00911083,KETN,2025-01-27T22:10:00Z,32.4164,-98.8113,9.1,-8.3,0,0,,10+,30.18,,,TRUE,TRUE,,,,,,,OVC,7500,,,,,,,VFR,,,,,,,,,,,,METAR,445
KEDE 272210Z AUTO 22009KT 10SM SCT013 BKN055 OVC090 09/09 A2998 RMK AO2 T00880087,KEDE,2025-01-27T22:10:00Z,36.0286,-76.5668,8.8,8.7,220,9,,10+,29.98,,,TRUE,TRUE,,,,,,,SCT,1300,BKN,5500,OVC,9000,,,VFR,,,,,,,,,,,,METAR,4
KEBS 272210Z AUTO 28014G20KT 10SM CLR 08/M12 A2977 RMK AO2,KEBS,2025-01-27T22:10:00Z,42.4372,-93.8725,8,-12,280,14,20,10+,29.77,,,TRUE,TRUE,,,,,,,CLR,,,,,,,,VFR,,,,,,,,,,,,METAR,340
KD73 272210Z AUTO 3/4SM BR OVC002 09/ A3004 RMK AO2 T0087////,KD73,2025-01-27T22:10:00Z,33.7826,-83.6948,8.7,,,,,0.75,30.04,,,TRUE,TRUE,,,,,,BR,OVC,200,,,,,,,LIFR,,,,,,,,,,,,METAR,254
KCZT 272210Z AUTO 02003KT 2SM BR OVC006 10/10 A3017 RMK AO2,KCZT,2025-01-27T22:10:00Z,28.5204,-99.8192,10,10,20,3,,2,30.17,,,TRUE,TRUE,,,,,,BR,OVC,600,,,,,,,IFR,,,,,,,,,,,,METAR,176
KCQB 272210Z AUTO 23006KT 10SM CLR 10/M09 A3017 RMK AO2 T01001088,KCQB,2025-01-27T22:10:00Z,35.7223,-96.8187,10,-8.8,230,6,,10+,30.17,,,TRUE,TRUE,,,,,,,CLR,,,,,,,,VFR,,,,,,,,,,,,METAR,298
KCPC 272210Z AUTO 20005KT 7SM OVC004 09/08 A3004 RMK AO2 T00860076,KCPC,2025-01-27T22:10:00Z,34.2753,-78.7146,8.6,7.6,200,5,,7,30.04,,,TRUE,TRUE,,,,,,,OVC,400,,,,,,,LIFR,,,,,,,,,,,,METAR,27
KBCR 272210Z AUTO 21006KT 10SM SCT024 OVC031 17/14 A3008 RMK AO2 T01720139,KBCR,2025-01-27T22:10:00Z,30.8432,-85.6043,17.2,13.9,210,6,,10+,30.08,,,TRUE,TRUE,,,,,,,SCT,2400,OVC,3100,,,,,VFR,,,,,,,,,,,,SPECI,26
K2W6 272210Z AUTO 11003KT 10SM CLR 06/M07 A2991 RMK AO1,K2W6,2025-01-27T22:10:00Z,38.315,-76.55,6,-7,110,3,,10+,29.91,,,TRUE,TRUE,,,,,,,CLR,,,,,,,,VFR,,,,,,,,,,,,METAR,40
K2J5 272210Z AUTO 15003KT 3SM -DZ BR OVC003 09/09 A3006 RMK AO2 VIS 2 1/2V3 1/2 P0001 T00900086,K2J5,2025-01-27T22:10:00Z,32.8913,-81.9664,9,8.6,150,3,,3,30.06,,,TRUE,TRUE,,,,,,-DZ BR,OVC,300,,,,,,,LIFR,,,,,,0.01,,,,,,METAR,72
K24A 272210Z AUTO 32005KT 10SM OVC013 06/03 A2999 RMK AO2 T00550032,K24A,2025-01-27T22:10:00Z,35.3156,-83.2071,5.5,3.2,320,5,,10+,29.99,,,TRUE,TRUE,,,,,,,OVC,1300,,,,,,,MVFR,,,,,,,,,,,,METAR,864
K1V6 272210Z AUTO 15007KT 10SM CLR 12/M11 A3000 RMK AO2,K1V6,2025-01-27T22:10:00Z,38.4256,-105.105,12,-11,150,7,,10+,30.00,,,TRUE,TRUE,,,,,,,CLR,,,,,,,,VFR,,,,,,,,,,,,METAR,1658
K1A5 272210Z AUTO 36005KT 10SM OVC022 07/05 A3002 RMK AO2 T00710052,K1A5,2025-01-27T22:10:00Z,35.2228,-83.415,7.1,5.2,360,5,,10+,30.02,,,TRUE,TRUE,,,,,,,OVC,2200,,,,,,,MVFR,,,,,,,,,,,,METAR,611
K04V 272210Z AUTO 14003KT 10SM CLR 05/M16 A3007 RMK AO2,K04V,2025-01-27T22:10:00Z,38.099,-106.17,5,-16,140,3,,10+,30.07,,,TRUE,TRUE,,,,,,,CLR,,,,,,,,VFR,,,,,,,,,,,,METAR,2389
CYZY 272210Z AUTO 17013G19KT 9SM CLR M04/M08 A3022 RMK ICE SLP277,CYZY,2025-01-27T22:10:00Z,55.303,-123.135,-4,-8,170,13,19,9,30.22,1027.7,,TRUE,,,,,,,,CLR,,,,,,,,VFR,,,,,,,,,,,,SPECI,694
CYPO 272210Z AUTO 32011G24KT 1 3/4SM -SN OVC020 M22/M25 A2940 RMK SLP966,CYPO,2025-01-27T22:10:00Z,54.988,-85.439,-22,-25,320,11,24,1.75,29.40,996.6,,TRUE,,,,,,,-SN,OVC,2000,,,,,,,IFR,,,,,,,,,,,,SPECI,49
RKTF 272209Z 02004KT 1600 -SN BR BKN010 BKN030 M03/M04 A2998 RMK CIG010,RKTF,2025-01-27T22:09:00Z,36.372,127.372,-3,-4,20,4,,0.99,29.98,,,,,,,,,,-SN BR,BKN,1000,BKN,3000,,,,,LIFR,,,,,,,,,,,,SPECI,65
KSUT 272209Z AUTO 21005KT 10SM BKN046 OVC055 08/07 A3003 RMK AO2,KSUT,2025-01-27T22:09:00Z,33.9292,-78.0722,8,7,210,5,,10+,30.03,,,TRUE,TRUE,,,,,,,BKN,4600,OVC,5500,,,,,VFR,,,,,,,,,,,,METAR,6
KSKF 272209Z AUTO 11004KT 10SM SCT010 OVC015 12/07 A3013 RMK AO2 SLP203 $,KSKF,2025-01-27T22:09:00Z,29.392,-98.581,12,7,110,4,,10+,30.13,1020.3,,TRUE,TRUE,TRUE,,,,,,SCT,1000,OVC,1500,,,,,MVFR,,,,,,,,,,,,SPECI,214
KNOG 272209Z AUTO 01008KT 2SM BR OVC004 11/11 A3015 RMK AO2 T01060106 PNO $,KNOG,2025-01-27T22:09:00Z,27.895,-98.043,10.6,10.6,10,8,,2,30.15,,,TRUE,TRUE,TRUE,,,,,BR,OVC,400,,,,,,,LIFR,,,,,,,,,,,,SPECI,72
KHSE 272209Z AUTO 24013G24KT 10SM BKN010 BKN038 OVC110 09/09 A3001 RMK AO2 RAE05 P0000 T00940089 $,KHSE,2025-01-27T22:09:00Z,35.2324,-75.6223,9.4,8.9,240,13,24,10+,30.01,,,TRUE,TRUE,TRUE,,,,,,BKN,1000,BKN,3800,OVC,11000,,,MVFR,,,,,,0.005,,,,,,SPECI,4
KFME 272209Z AUTO 22004KT 10SM CLR 04/M06 A2989 RMK AO1,KFME,2025-01-27T22:09:00Z,39.086,-76.757,4,-6,220,4,,10+,29.89,,,TRUE,TRUE,,,,,,,CLR,,,,,,,,VFR,,,,,,,,,,,,METAR,43
KCEW 272209Z AUTO 29005KT 10SM -RA OVC014 18/16 A3009 RMK AO2 RAB04 P0000 T01780156,KCEW,2025-01-27T22:09:00Z,30.7771,-86.5194,17.8,15.6,290,5,,10+,30.09,,,TRUE,TRUE,,,,,,-RA,OVC,1400,,,,,,,MVFR,,,,,,0.005,,,,,,SPECI,47
KAFP 272209Z AUTO 20003KT 2 1/2SM BR OVC008 09/09 A2998 RMK AO2 T00900085,KAFP,2025-01-27T22:09:00Z,35.0194,-80.0784,9,8.5,200,3,,2.5,29.98,,,TRUE,TRUE,,,,,,BR,OVC,800,,,,,,,IFR,,,,,,,,,,,,METAR,91
KFFC 272208Z AUTO 31007KT 1 3/4SM BR OVC004 10/09 A3006 RMK AO2 T01000094,KFFC,2025-01-27T22:08:00Z,33.3543,-84.5689,10,9.4,310,7,,1.75,30.06,,,TRUE,TRUE,,,,,,BR,OVC,400,,,,,,,LIFR,,,,,,,,,,,,SPECI,242
CYVC 272208Z 12005KT 15SM -SN OVC009 M04/M05 A2966 RMK SC8 CIG RAG PRESFR SLP066,CYVC,2025-01-27T22:08:00Z,55.15,-105.264,-4,-5,120,5,,15,29.66,1006.6,,,,,,,,,-SN,OVC,900,,,,,,,IFR,,,,,,,,,,,,SPECI,378
PAPH 272207Z AUTO 32008KT 9SM FEW016 BKN030 OVC075 M03/M07 A3008 RMK AO2 SNE04 P0000 FZRANO $,PAPH,2025-01-27T22:07:00Z,56.959,-158.631,-3,-7,320,8,,9,30.08,,,TRUE,TRUE,TRUE,,,TRUE,,,FEW,1600,BKN,3000,OVC,7500,,,MVFR,,,,,,0.005,,,,,,SPECI,29
KPMH 272207Z AUTO 21007KT 10SM CLR 05/M16 A2997 RMK AO2,KPMH,2025-01-27T22:07:00Z,38.8387,-82.8493,5,-16,210,7,,10+,29.97,,,TRUE,TRUE,,,,,,,CLR,,,,,,,,VFR,,,,,,,,,,,,METAR,200
KLBT 272207Z AUTO 21007KT 5SM BR OVC006 09/08 A3000 RMK AO2 T00940083,KLBT,2025-01-27T22:07:00Z,34.6082,-79.059,9.4,8.3,210,7,,5,30.00,,,TRUE,TRUE,,,,,,BR,OVC,600,,,,,,,IFR,,,,,,,,,,,,SPECI,37
CYZT 272207Z 07003KT 20SM SCT010 BKN240 03/01 A3039 RMK SC4CI1 SLP295,CYZT,2025-01-27T22:07:00Z,50.685,-127.369,3,1,70,3,,20,30.39,1029.5,,,,,,,,,,SCT,1000,BKN,24000,,,,,VFR,,,,,,,,,,,,SPECI,13
CYAM 272207Z 34022G29KT 2SM -SN BLSN FEW007 SCT014 OVC022 M03/M04 A2928 RMK SN2SF1SC2NS4 SF TR VIS CHGG RPDLY PRESRR SLP927,CYAM,2025-01-27T22:07:00Z,46.484,-84.504,-3,-4,340,22,29,2,29.28,992.7,,,,,,,,,-SN BLSN,FEW,700,SCT,1400,OVC,2200,,,IFR,,,,,,,,,,,,SPECI,186
PAWM 272206Z AUTO 33013G18KT 3SM -SN OVC035 M19/M22 A2963 RMK AO2 P0000 FZRANO,PAWM,2025-01-27T22:06:00Z,64.688,-163.41,-19,-22,330,13,18,3,29.63,,,TRUE,TRUE,,,,TRUE,,-SN,OVC,3500,,,,,,,MVFR,,,,,,0.005,,,,,,SPECI,80
KLVJ 272206Z AUTO 05005KT 8SM SCT014 OVC026 14/11 A3017 RMK AO2 T01440111,KLVJ,2025-01-27T22:06:00Z,29.5192,-95.2423,14.4,11.1,50,5,,8,30.17,,,TRUE,TRUE,,,,,,,SCT,1400,OVC,2600,,,,,MVFR,,,,,,,,,,,,SPECI,11
KDVP 272206Z AUTO 31017G20KT 10SM OVC110 06/M07 A2977 RMK AO2,KDVP,2025-01-27T22:06:00Z,43.9906,-95.781,6,-7,310,17,20,10+,29.77,,,TRUE,TRUE,,,,,,,OVC,11000,,,,,,,VFR,,,,,,,,,,,,METAR,493
K0J4 272206Z AUTO 30003KT 7SM SCT003 SCT007 OVC011 16/13 A3010 RMK AO2 T01560133,K0J4,2025-01-27T22:06:00Z,31.0447,-86.3119,15.6,13.3,300,3,,7,30.10,,,TRUE,TRUE,,,,,,,SCT,300,SCT,700,OVC,1100,,,MVFR,,,,,,,,,,,,SPECI,96
CYPQ 272206Z AUTO 23018G32KT 7SM -SN BKN100 OVC120 M01/M07 A2938 RMK SLP958,CYPQ,2025-01-27T22:06:00Z,44.232,-78.36,-1,-7,230,18,32,7,29.38,995.8,,TRUE,,,,,,,-SN,BKN,10000,OVC,12000,,,,,VFR,,,,,,,,,,,,SPECI,190
SAWG 272205Z 24025G35KT 9999 VCSH FEW045 FEW050TCU 17/00 Q0993,SAWG,2025-01-27T22:05:00Z,-51.609,-69.306,17,0,240,25,35,6+,29.32,,,,,,,,,,VCSH,FEW,4500,FEW,5000,,,,,VFR,,,,,,,,,,,,SPECI,18
RKSO 272205Z AUTO 30009KT 7/8SM R27/3500VP6000FT -SN BR VV019 M02/M04 A2993 RMK AO2 SLP139 $,RKSO,2025-01-27T22:05:00Z,37.091,127.03,-2,-4,300,9,,0.88,29.93,1013.9,,TRUE,TRUE,TRUE,,,,,-SN BR,OVX,0,,,,,,,LIFR,,,,,,,,,,,1900,SPECI,10
PASV 272205Z AUTO 22005KT 7SM -SN FEW011 OVC024 M15/M17 A2979 RMK AO2 SLP128,PASV,2025-01-27T22:05:00Z,61.101,-155.577,-15,-17,220,5,,7,29.79,1012.8,,TRUE,TRUE,,,,,,-SN,FEW,1100,OVC,2400,,,,,MVFR,,,,,,,,,,,,SPECI,462
KXNO 272205Z AUTO 19007KT 10SM OVC005 10/09 A3001 RMK AO2 SLP166 $,KXNO,2025-01-27T22:05:00Z,33.612,-81.07,10,9,190,7,,10+,30.01,1016.6,,TRUE,TRUE,TRUE,,,,,,OVC,500,,,,,,,IFR,,,,,,,,,,,,SPECI,94
KW29 272205Z AUTO 17005KT 10SM CLR 05/M06 A2988 RMK AO2 T00511062,KW29,2025-01-27T22:05:00Z,38.9777,-76.3276,5.1,-6.2,170,5,,10+,29.88,,,TRUE,TRUE,,,,,,,CLR,,,,,,,,VFR,,,,,,,,,,,,METAR,1
KVUJ 272205Z AUTO 21006KT 10SM OVC006 08/07 A3001 RMK AO2 T00820072,KVUJ,2025-01-27T22:05:00Z,35.4173,-80.1508,8.2,7.2,210,6,,10+,30.01,,,TRUE,TRUE,,,,,,,OVC,600,,,,,,,IFR,,,,,,,,,,,,METAR,174
KSVH 272205Z AUTO 23006KT 10SM OVC016 09/06 A2996 RMK AO2 T00920060,KSVH,2025-01-27T22:05:00Z,35.7635,-80.9473,9.2,6,230,6,,10+,29.96,,,TRUE,TRUE,,,,,,,OVC,1600,,,,,,,MVFR,,,,,,,,,,,,METAR,286
KSIF 272205Z AUTO 24004KT 10SM OVC080 10/00 A2994 RMK AO2 T01000001,KSIF,2025-01-27T22:05:00Z,36.4408,-79.8544,10,0.1,240,4,,10+,29.94,,,TRUE,TRUE,,,,,,,OVC,8000,,,,,,,VFR,,,,,,,,,,,,METAR,206
KRWI 272205Z AUTO 19008KT 160V220 10SM OVC009 08/06 A2997 RMK AO2 T00830061,KRWI,2025-01-27T22:05:00Z,35.8502,-77.8951,8.3,6.1,190,8,,10+,29.97,,,TRUE,TRUE,,,,,,,OVC,900,,,,,,,IFR,,,,,,,,,,,,SPECI,46
KRUQ 272205Z AUTO 19007KT 10SM OVC010 08/06 A2996 RMK AO2 T00800058,KRUQ,2025-01-27T22:05:00Z,35.6441,-80.5236,8,5.8,190,7,,10+,29.96,,,TRUE,TRUE,,,,,,,OVC,1000,,,,,,,MVFR,,,,,,,,,,,,METAR,231
KRCZ 272205Z AUTO 21005KT 10SM OVC004 09/08 A2999 RMK AO2 T00860080,KRCZ,2025-01-27T22:05:00Z,34.8955,-79.7576,8.6,8,210,5,,10+,29.99,,,TRUE,TRUE,,,,,,,OVC,400,,,,,,,LIFR,,,,,,,,,,,,METAR,110
KMRN 272205Z AUTO 30005KT 10SM BKN046 OVC055 12/04 A2994 RMK AO2 T01180035,KMRN,2025-01-27T22:05:00Z,35.8192,-81.6097,11.8,3.5,300,5,,10+,29.94,,,TRUE,TRUE,,,,,,,BKN,4600,OVC,5500,,,,,VFR,,,,,,,,,,,,METAR,375
KMKG 272205Z 25024G40KT 5SM -SN BLSN OVC040 03/M06 A2961 RMK AO2 PK WND 24040/2159 SNB01 P0000 T00331056,KMKG,2025-01-27T22:05:00Z,43.1711,-86.2368,3.3,-5.6,250,24,40,5,29.61,,,,TRUE,,,,,,-SN BLSN,OVC,4000,,,,,,,MVFR,,,,,,0.005,,,,,,SPECI,190
KMCZ 272205Z AUTO 20008KT 10SM OVC008 08/07 A2998 RMK AO2 T00800071,KMCZ,2025-01-27T22:05:00Z,35.862,-77.178,8,7.1,200,8,,10+,29.98,,,TRUE,TRUE,,,,,,,OVC,800,,,,,,,IFR,,,,,,,,,,,,METAR,23
KK70 272205Z AUTO VRB04KT 10SM FEW075 23/17 RMK AO2,KK70,2025-01-27T22:05:00Z,25.322,-80.277,23,17,VRB,4,,10+,0.00,,,TRUE,TRUE,,,,,,,FEW,7500,,,,,,,VFR,,,,,,,,,,,,METAR,20
KIPJ 272205Z AUTO 22005KT 5SM BR OVC006 08/07 A2996 RMK AO2 T00770066,KIPJ,2025-01-27T22:05:00Z,35.4861,-81.1564,7.7,6.6,220,5,,5,29.96,,,TRUE,TRUE,,,,,,BR,OVC,600,,,,,,,IFR,,,,,,,,,,,,METAR,266
KHNZ 272205Z AUTO 21006KT 10SM SCT070 BKN080 08/M01 A2994 RMK AO2 T00751011,KHNZ,2025-01-27T22:05:00Z,36.3635,-78.5289,7.5,-1.1,210,6,,10+,29.94,,,TRUE,TRUE,,,,,,,SCT,7000,BKN,8000,,,,,VFR,,,,,,,,,,,,METAR,158
KGOV 272205Z AUTO 26012G19KT 1 1/4SM -SN BR OVC009 M01/M02 A2935 RMK AO2 SLP958 $,KGOV,2025-01-27T22:05:00Z,44.681,-84.727,-1,-2,260,12,19,1.25,29.35,995.8,,TRUE,TRUE,TRUE,,,,,-SN BR,OVC,900,,,,,,,IFR,,,,,,,,,,,,SPECI,350
KFQD 272205Z AUTO 19004KT 10SM BKN017 OVC050 09/06 A2997 RMK AO2,KFQD,2025-01-27T22:05:00Z,35.43,-81.936,9,6,190,4,,10+,29.97,,,TRUE,TRUE,,,,,,,BKN,1700,OVC,5000,,,,,MVFR,,,,,,,,,,,,METAR,325
KEYF 272205Z AUTO 20008KT 7SM OVC004 08/08 A3002 RMK AO2 T00820078,KEYF,2025-01-27T22:05:00Z,34.6042,-78.579,8.2,7.8,200,8,,7,30.02,,,TRUE,TRUE,,,,,,,OVC,400,,,,,,,LIFR,,,,,,,,,,,,METAR,39
KEXX 272205Z AUTO 17007KT 10SM OVC018 10/06 A2995 RMK AO2 T00960058,KEXX,2025-01-27T22:05:00Z,35.7804,-80.3084,9.6,5.8,170,7,,10+,29.95,,,TRUE,TRUE,,,,,,,OVC,1800,,,,,,,MVFR,,,,,,,,,,,,METAR,221
KEHO 272205Z AUTO 00000KT 7SM OVC007 08/07 A2997 RMK AO2 T00800070,KEHO,2025-01-27T22:05:00Z,35.2556,-81.5986,8,7,0,0,,7,29.97,,,TRUE,TRUE,,,,,,,OVC,700,,,,,,,IFR,,,,,,,,,,,,METAR,261
KDPL 272205Z AUTO 20005KT 5SM -RA BR OVC005 08/08 A3001 RMK AO2,KDPL,2025-01-27T22:05:00Z,34.9994,-77.9799,8,8,200,5,,5,30.01,,,TRUE,TRUE,,,,,,-RA BR,OVC,500,,,,,,,IFR,,,,,,,,,,,,METAR,39
KCTZ 272205Z AUTO 20004KT 7SM OVC006 08/08 A3001 RMK AO2 T00830083,KCTZ,2025-01-27T22:05:00Z,34.9752,-78.3627,8.3,8.3,200,4,,7,30.01,,,TRUE,TRUE,,,,,,,OVC,600,,,,,,,IFR,,,,,,,,,,,,METAR,43
KCGS 272205Z AUTO 17003KT 10SM CLR 09/M06 A2987 RMK AO2 T00861065,KCGS,2025-01-27T22:05:00Z,38.9806,-76.9251,8.6,-6.5,170,3,,10+,29.87,,,TRUE,TRUE,,,,,,,CLR,,,,,,,,VFR,,,,,,,,,,,,METAR,15
KCGE 272205Z AUTO 15006KT 10SM CLR 06/M06 A2990 RMK A01,KCGE,2025-01-27T22:05:00Z,38.5372,-76.0309,6,-6,150,6,,10+,29.90,,,TRUE,TRUE,,,,,,,CLR,,,,,,,,VFR,,,,,,,,,,,,METAR,5
KCBE 272205Z AUTO 23008KT 10SM CLR 05/M13 A2989 RMK AO2 T00471131,KCBE,2025-01-27T22:05:00Z,39.6182,-78.7598,4.7,-13.1,230,8,,10+,29.89,,,TRUE,TRUE,,,,,,,CLR,,,,,,,,VFR,,,,,,,,,,,,METAR,226
KASJ 272205Z AUTO 21005KT 10SM SCT070 OVC080 10/03 A2996 RMK AO2 T00970032,KASJ,2025-01-27T22:05:00Z,36.2941,-77.1724,9.7,3.2,210,5,,10+,29.96,,,TRUE,TRUE,,,,,,,SCT,7000,OVC,8000,,,,,VFR,,,,,,,,,,,,METAR,20
K2G4 272205Z AUTO 24016G22KT 10SM CLR M01/M15 A2977 RMK AO2,K2G4,2025-01-27T22:05:00Z,39.5827,-79.3418,-1,-15,240,16,22,10+,29.77,,,TRUE,TRUE,,,,,,,CLR,,,,,,,,VFR,,,,,,,,,,,,METAR,908
K0W3 272205Z AUTO 20008KT 10SM CLR 04/M07 A2984 RMK AO2 T00401075 $,K0W3,2025-01-27T22:05:00Z,39.566,-76.202,4,-7.5,200,8,,10+,29.84,,,TRUE,TRUE,TRUE,,,,,,CLR,,,,,,,,VFR,,,,,,,,,,,,METAR,125
UHHH 272204Z 04010MPS 3200 -SHSN BLSN SCT011 BKN022CB M11/M13 Q1018 R88/451045 NOSIG RMK QFE757/1010,UHHH,2025-01-27T22:04:00Z,48.527,135.184,-11,-13,40,19,,1.99,30.06,,,,,,TRUE,,,,-SHSN BLSN,SCT,1100,BKN,2200,,,,,IFR,,,,,,,,,,,,SPECI,74
PABL 272204Z AUTO 23016KT 2 1/2SM -SN BKN025 BKN031 OVC038 M19/M22 A2957 RMK AO2 P0000 FZRANO,PABL,2025-01-27T22:04:00Z,65.979,-161.146,-19,-22,230,16,,2.5,29.57,,,TRUE,TRUE,,,,TRUE,,-SN,BKN,2500,BKN,3100,OVC,3800,,,IFR,,,,,,0.005,,,,,,SPECI,7
KRDU 272204Z 20009KT 10SM BKN014 BKN050 OVC070 10/05 A2996 RMK AO2 T01000050,KRDU,2025-01-27T22:04:00Z,35.8923,-78.782,10,5,200,9,,10+,29.96,,,,TRUE,,,,,,,BKN,1400,BKN,5000,OVC,7000,,,MVFR,,,,,,,,,,,,SPECI,121
KMGM 272204Z 29007KT 10SM FEW009 OVC014 14/12 A3009 RMK AO2 T01390122,KMGM,2025-01-27T22:04:00Z,32.2997,-86.4074,13.9,12.2,290,7,,10+,30.09,,,,TRUE,,,,,,,FEW,900,OVC,1400,,,,,MVFR,,,,,,,,,,,,SPECI,64
KMCB 272204Z AUTO 33007KT 10SM OVC009 12/09 A3016 RMK AO2 T01170089 $,KMCB,2025-01-27T22:04:00Z,31.1823,-90.4721,11.7,8.9,330,7,,10+,30.16,,,TRUE,TRUE,TRUE,,,,,,OVC,900,,,,,,,IFR,,,,,,,,,,,,SPECI,124
KGCN 272204Z 15004KT 1/4SM SN FZFG FU BKN008 OVC043 M01/M03 A2999 RMK AO2 P0000 T10111028,KGCN,2025-01-27T22:04:00Z,35.9458,-112.155,-1.1,-2.8,150,4,,0.25,29.99,,,,TRUE,,,,,,SN FZFG FU,BKN,800,OVC,4300,,,,,LIFR,,,,,,0.005,,,,,,SPECI,1993
KABY 272204Z 30003KT 1SM RA BR BKN005 OVC012 12/11 A3011 RMK AO2 CIG 003V008 P0004 T01170111,KABY,2025-01-27T22:04:00Z,31.5364,-84.1958,11.7,11.1,300,3,,1,30.11,,,,TRUE,,,,,,RA BR,BKN,500,OVC,1200,,,,,IFR,,,,,,0.04,,,,,,SPECI,60
K4I3 272204Z AUTO 21008KT 10SM CLR 00/M12 A2985 RMK AO2,K4I3,2025-01-27T22:04:00Z,40.3268,-82.5201,0,-12,210,8,,10+,29.85,,,TRUE,TRUE,,,,,,,CLR,,,,,,,,VFR,,,,,,,,,,,,METAR,361
SVVL 272203Z AUTO NIL,SVVL,2025-01-27T22:03:00Z,9.34,-70.585,,,,,,,0.00,,,TRUE,,,,,,,,,,,,,,,,,,,,,,,,,,,,METAR,575
SVVA 272203Z AUTO 21003KT NCD 32/14 Q1010,SVVA,2025-01-27T22:03:00Z,10.154,-67.92,32,14,210,3,,,29.82,,,TRUE,,,,,,,,CLR,,,,,,,,,,,,,,,,,,,,METAR,428
SVSR 272203Z AUTO NIL,SVSR,2025-01-27T22:03:00Z,7.881,-67.443,,,,,,,0.00,,,TRUE,,,,,,,,,,,,,,,,,,,,,,,,,,,,METAR,49
SVSA 272203Z AUTO 11009KT NCD 32/13 Q1007,SVSA,2025-01-27T22:03:00Z,7.841,-72.441,32,13,110,9,,,29.73,,,TRUE,,,,,,,,CLR,,,,,,,,,,,,,,,,,,,,METAR,383
SVPR 272203Z AUTO NIL,SVPR,2025-01-27T22:03:00Z,8.288,-62.76,,,,,,,0.00,,,TRUE,,,,,,,,,,,,,,,,,,,,,,,,,,,,METAR,140
SVPA 272203Z AUTO NIL,SVPA,2025-01-27T22:03:00Z,5.622,-67.605,,,,,,,0.00,,,TRUE,,,,,,,,,,,,,,,,,,,,,,,,,,,,METAR,77
SVMT 272203Z AUTO 07006KT NCD 27/25 Q1012,SVMT,2025-01-27T22:03:00Z,9.748,-63.156,27,25,70,6,,,29.88,,,TRUE,,,,,,,,CLR,,,,,,,,,,,,,,,,,,,,METAR,67
SVMI 272203Z AUTO 07010KT NCD 26/20 Q1011,SVMI,2025-01-27T22:03:00Z,10.603,-66.991,26,20,70,10,,,29.85,,,TRUE,,,,,,,,CLR,,,,,,,,,,,,,,,,,,,,METAR,48
SVMG 272203Z AUTO NIL,SVMG,2025-01-27T22:03:00Z,10.913,-63.968,,,,,,,0.00,,,TRUE,,,,,,,,,,,,,,,,,,,,,,,,,,,,METAR,16
SVMC 272203Z AUTO 20003KT NCD 33/20 Q1007,SVMC,2025-01-27T22:03:00Z,10.558,-71.728,33,20,200,3,,,29.73,,,TRUE,,,,,,,,CLR,,,,,,,,,,,,,,,,,,,,METAR,76
SVLO 272203Z AUTO NIL,SVLO,2025-01-27T22:03:00Z,11.805,-66.192,,,,,,,0.00,,,TRUE,,,,,,,,,,,,,,,,,,,,,,,,,,,,METAR,3
SVJM 272203Z AUTO 26005KT NCD 31/16 Q1009,SVJM,2025-01-27T22:03:00Z,9.909,-67.377,31,16,260,5,,,29.79,,,TRUE,,,,,,,,CLR,,,,,,,,,,,,,,,,,,,,METAR,448
SVGU 272203Z AUTO ///01KT NCD ///// Q1010,SVGU,2025-01-27T22:03:00Z,9.027,-69.755,,,,,,,29.82,,,TRUE,,,,,,,,CLR,,,,,,,,,,,,,,,,,,,,METAR,165
SVGD 272203Z AUTO NIL,SVGD,2025-01-27T22:03:00Z,7.212,-70.755,,,,,,,0.00,,,TRUE,,,,,,,,,,,,,,,,,,,,,,,,,,,,METAR,129
SVFM 272203Z AUTO NIL,SVFM,2025-01-27T22:03:00Z,10.487,-66.846,,,,,,,0.00,,,TRUE,,,,,,,,,,,,,,,,,,,,,,,,,,,,METAR,852
SVCS 272203Z AUTO NIL,SVCS,2025-01-27T22:03:00Z,10.287,-66.816,,,,,,,0.00,,,TRUE,,,,,,,,,,,,,,,,,,,,,,,,,,,,METAR,656
SVCB 272203Z AUTO NIL,SVCB,2025-01-27T22:03:00Z,8.121,-63.533,,,,,,,0.00,,,TRUE,,,,,,,,,,,,,,,,,,,,,,,,,,,,METAR,47
SVBS 272203Z AUTO 24005KT NCD 31/17 Q1012,SVBS,2025-01-27T22:03:00Z,10.25,-67.649,31,17,240,5,,,29.88,,,TRUE,,,,,,,,CLR,,,,,,,,,,,,,,,,,,,,METAR,435
SVBM 272203Z AUTO 17012KT NCD 29/14 Q1012,SVBM,2025-01-27T22:03:00Z,10.043,-69.358,29,14,170,12,,,29.88,,,TRUE,,,,,,,,CLR,,,,,,,,,,,,,,,,,,,,METAR,624
SVBI 272203Z AUTO ///01KT NCD ///// Q////,SVBI,2025-01-27T22:03:00Z,8.62,-70.22,,,,,,,0.00,,,TRUE,,,,,,,,CLR,,,,,,,,,,,,,,,,,,,,METAR,185
SVBC 272203Z AUTO 02009KT NCD 31/22 Q1010,SVBC,2025-01-27T22:03:00Z,10.107,-64.689,31,22,20,9,,,29.82,,,TRUE,,,,,,,,CLR,,,,,,,,,,,,,,,,,,,,METAR,7
PABR 272203Z 06010KT 4SM -SN FEW026 OVC100 M19/M22 A2970,PABR,2025-01-27T22:03:00Z,71.2837,-156.784,-19,-22,60,10,,4,29.70,,,,,,,,,,-SN,FEW,2600,OVC,10000,,,,,MVFR,,,,,,,,,,,,SPECI,6
MPSM 272203Z 36014KT 9000 FEW030 31/22 Q1006,MPSM,2025-01-27T22:03:00Z,8.386,-80.131,31,22,360,14,,5.59,29.70,,,,,,,,,,,FEW,3000,,,,,,,VFR,,,,,,,,,,,,METAR,36
KSDB 272203Z AUTO 35009G16KT 10SM FEW009 01/M01 A3006 RMK AO2 T00111006,KSDB,2025-01-27T22:03:00Z,34.7433,-118.725,1.1,-0.6,350,9,16,10+,30.06,,,TRUE,TRUE,,,,,,,FEW,900,,,,,,,VFR,,,,,,,,,,,,SPECI,1377
KLHM 272202Z AUTO 28007KT 10SM CLR 17/M03 A3010 RMK AO1,KLHM,2025-01-27T22:02:00Z,38.9148,-121.352,17,-3,280,7,,10+,30.10,,,TRUE,TRUE,,,,,,,CLR,,,,,,,,VFR,,,,,,,,,,,,METAR,36
PAFS 272201Z AUTO 26019G25KT 9SM -SN OVC075 M13/M17 A2973 RMK AO2 PK WND 26028/2139 SNE2109B2133 SLP079 P0000 T11281167 FZRANO,PAFS,2025-01-27T22:01:00Z,63.015,-154.367,-12.8,-16.7,260,19,25,9,29.73,1007.9,,TRUE,TRUE,,,,TRUE,,-SN,OVC,7500,,,,,,,VFR,,,,,,0.005,,,,,,METAR,131
KRMG 272201Z AUTO 00000KT 10SM FEW013 BKN017 OVC024 10/07 A3005 RMK AO2 T01000072,KRMG,2025-01-27T22:01:00Z,34.3483,-85.1616,10,7.2,0,0,,10+,30.05,,,TRUE,TRUE,,,,,,,FEW,1300,BKN,1700,OVC,2400,,,MVFR,,,,,,,,,,,,SPECI,196
KFVE 272201Z AUTO 18013G27KT 2SM -SN OVC020 M04/M08 A2919 RMK AO2 PK WND 21027/2157 P0000 T10391078 $,KFVE,2025-01-27T22:01:00Z,47.2852,-68.3072,-3.9,-7.8,180,13,27,2,29.19,,,TRUE,TRUE,TRUE,,,,,-SN,OVC,2000,,,,,,,IFR,,,,,,0.005,,,,,,SPECI,299
ZYTX 272200Z 33004MPS 300V010 3000 -SN BR SCT013 OVC030 M12/M14 Q1019 NOSIG,ZYTX,2025-01-27T22:00:00Z,41.639,123.485,-12,-14,330,8,,1.86,30.09,,,,,,TRUE,,,,-SN BR,SCT,1300,OVC,3000,,,,,IFR,,,,,,,,,,,,METAR,56
ZYTL 272200Z 33005G10MPS 300V010 9999 BKN033 M06/M12 Q1021 NOSIG,ZYTL,2025-01-27T22:00:00Z,38.961,121.556,-6,-12,330,10,19,6+,30.15,,,,,,TRUE,,,,,BKN,3300,,,,,,,VFR,,,,,,,,,,,,METAR,33
ZYHB 272200Z 36005MPS 3000 -SN BR OVC030 M13/M15 Q1014 NOSIG,ZYHB,2025-01-27T22:00:00Z,45.628,126.259,-13,-15,360,10,,1.86,29.94,,,,,,TRUE,,,,-SN BR,OVC,3000,,,,,,,IFR,,,,,,,,,,,,METAR,134
ZYCC 272200Z 36003MPS 330V040 2000 -SN BR FEW010 OVC023 M13/M15 Q1012 BECMG TL2330 3000,ZYCC,2025-01-27T22:00:00Z,43.993,125.682,-13,-15,360,6,,1.24,29.88,,,,,,,,,,-SN BR,FEW,1000,OVC,2300,,,,,IFR,,,,,,,,,,,,METAR,211
ZWWW 272200Z 12001MPS 3000 BR NSC M20/M23 Q1030 NOSIG,ZWWW,2025-01-27T22:00:00Z,43.907,87.474,-20,-23,120,2,,1.86,30.41,,,,,,TRUE,,,,BR,CLR,,,,,,,,IFR,,,,,,,,,,,,METAR,654
ZWSH 272200Z 31003MPS 8000 NSC M07/M17 Q1026 NOSIG,ZWSH,2025-01-27T22:00:00Z,39.542,76.019,-7,-17,310,6,,4.97,30.30,,,,,,TRUE,,,,,CLR,,,,,,,,MVFR,,,,,,,,,,,,METAR,1374
ZUUU 272200Z 00000MPS 8000 NSC 02/00 Q1026 NOSIG,ZUUU,2025-01-27T22:00:00Z,30.576,103.95,2,0,0,0,,4.97,30.30,,,,,,TRUE,,,,,CLR,,,,,,,,MVFR,,,,,,,,,,,,METAR,494
ZUTF 272200Z 36001MPS CAVOK 02/01 Q1026 NOSIG,ZUTF,2025-01-27T22:00:00Z,30.304,104.436,2,1,360,2,,6+,30.30,,,,,,TRUE,,,,,CAVOK,,,,,,,,VFR,,,,,,,,,,,,METAR,443
ZUGY 272200Z 00000MPS 9999 FEW030 02/01 Q1024 NOSIG,ZUGY,2025-01-27T22:00:00Z,26.538,106.801,2,1,0,0,,6+,30.24,,,,,,TRUE,,,,,FEW,3000,,,,,,,VFR,,,,,,,,,,,,METAR,1130
ZUCK 272200Z 31002MPS 290V350 CAVOK 06/00 Q1026 NOSIG,ZUCK,2025-01-27T22:00:00Z,29.718,106.639,6,0,310,4,,6+,30.30,,,,,,TRUE,,,,,CAVOK,,,,,,,,VFR,,,,,,,,,,,,METAR,416
ZSSS 272200Z 29003MPS CAVOK M00/M10 Q1029 NOSIG,ZSSS,2025-01-27T22:00:00Z,31.209,121.337,0,-10,290,6,,6+,30.38,,,,,,TRUE,,,,,CAVOK,,,,,,,,VFR,,,,,,,,,,,,METAR,2
ZSQD 272200Z 29006MPS CAVOK M07/M18 Q1025 NOSIG,ZSQD,2025-01-27T22:00:00Z,36.362,120.087,-7,-18,290,12,,6+,30.27,,,,,,TRUE,,,,,CAVOK,,,,,,,,VFR,,,,,,,,,,,,METAR,2
ZSPD 272200Z 30005MPS CAVOK 01/M13 Q1028 NOSIG,ZSPD,2025-01-27T22:00:00Z,31.146,121.8,1,-13,300,10,,6+,30.35,,,,,,TRUE,,,,,CAVOK,,,,,,,,VFR,,,,,,,,,,,,METAR,4
ZSOF 272200Z 25003MPS CAVOK M03/M09 Q1029 NOSIG,ZSOF,2025-01-27T22:00:00Z,31.99,116.965,-3,-9,250,6,,6+,30.38,,,,,,TRUE,,,,,CAVOK,,,,,,,,VFR,,,,,,,,,,,,METAR,64
ZSNJ 272200Z 29001MPS CAVOK M06/M06 Q1028 NOSIG,ZSNJ,2025-01-27T22:00:00Z,31.739,118.863,-6,-6,290,2,,6+,30.35,,,,,,TRUE,,,,,CAVOK,,,,,,,,VFR,,,,,,,,,,,,METAR,27
ZSNB 272200Z 01002MPS 330V050 CAVOK 00/M10 Q1029 NOSIG,ZSNB,2025-01-27T22:00:00Z,29.827,121.462,0,-10,10,4,,6+,30.38,,,,,,TRUE,,,,,CAVOK,,,,,,,,VFR,,,,,,,,,,,,METAR,5
ZSHC 272200Z VRB01MPS CAVOK M01/M08 Q1029 NOSIG,ZSHC,2025-01-27T22:00:00Z,30.229,120.434,-1,-8,VRB,2,,6+,30.38,,,,,,TRUE,,,,,CAVOK,,,,,,,,VFR,,,,,,,,,,,,METAR,8
ZSFZ 272200Z 35002MPS 310V020 CAVOK 07/02 Q1027 NOSIG,ZSFZ,2025-01-27T22:00:00Z,25.936,119.666,7,2,350,4,,6+,30.32,,,,,,TRUE,,,,,CAVOK,,,,,,,,VFR,,,,,,,,,,,,METAR,14
ZSAM 272200Z 04004MPS CAVOK 09/M01 Q1026 NOSIG,ZSAM,2025-01-27T22:00:00Z,24.546,118.131,9,-1,40,8,,6+,30.30,,,,,,TRUE,,,,,CAVOK,,,,,,,,VFR,,,,,,,,,,,,METAR,13
ZPPP 272200Z 03003MPS 4000 BR SCT003 SCT016 OVC036 M00/M01 Q1022 NOSIG,ZPPP,2025-01-27T22:00:00Z,25.107,102.934,0,-1,30,6,,2.49,30.18,,,,,,TRUE,,,,BR,SCT,300,SCT,1600,OVC,3600,,,IFR,,,,,,,,,,,,METAR,2104
ZMUB 272200Z 00000MPS 6000 SCT100 M26/M29 Q1017 NOSIG RMK QFE655.2 69 NT,ZMUB,2025-01-27T22:00:00Z,47.843,106.766,-26,-29,0,0,,3.73,30.03,,,,,,TRUE,,,,,SCT,10000,,,,,,,MVFR,,,,,,,,,,,,METAR,1300
ZMCK 272200Z VRB02MPS 9999 SCT100 M27/M31 Q1015 NOSIG RMK QFE646.0 72 NT,ZMCK,2025-01-27T22:00:00Z,47.651,106.822,-27,-31,VRB,4,,6+,29.97,,,,,,TRUE,,,,,SCT,10000,,,,,,,VFR,,,,,,,,,,,,METAR,1366
ZLXY 272200Z VRB01MPS CAVOK M09/M11 Q1029 NOSIG,ZLXY,2025-01-27T22:00:00Z,34.449,108.752,-9,-11,VRB,2,,6+,30.38,,,,,,TRUE,,,,,CAVOK,,,,,,,,VFR,,,,,,,,,,,,METAR,478
ZLLL 272200Z 32002MPS 7000 NSC M18/M21 Q1021 NOSIG,ZLLL,2025-01-27T22:00:00Z,36.513,103.623,-18,-21,320,4,,4.35,30.15,,,,,,TRUE,,,,,CLR,,,,,,,,MVFR,,,,,,,,,,,,METAR,1939
ZJSY 272200Z 08006MPS 9999 BKN050 17/08 Q1019 NOSIG,ZJSY,2025-01-27T22:00:00Z,18.303,109.412,17,8,80,12,,6+,30.09,,,,,,TRUE,,,,,BKN,5000,,,,,,,VFR,,,,,,,,,,,,METAR,27
ZJHK 272200Z 05004MPS CAVOK 14/07 Q1022 NOSIG,ZJHK,2025-01-27T22:00:00Z,19.934,110.445,14,7,50,8,,6+,30.18,,,,,,TRUE,,,,,CAVOK,,,,,,,,VFR,,,,,,,,,,,,METAR,21
ZHHH 272200Z 05002MPS CAVOK M02/M05 Q1029 NOSIG,ZHHH,2025-01-27T22:00:00Z,30.783,114.205,-2,-5,50,4,,6+,30.38,,,,,,TRUE,,,,,CAVOK,,,,,,,,VFR,,,,,,,,,,,,METAR,33
ZHEC 272200Z VRB01MPS 8000 NSC M01/M03 Q1030 NOSIG,ZHEC,2025-01-27T22:00:00Z,30.3424,115.039,-1,-3,VRB,2,,4.97,30.41,,,,,,TRUE,,,,,CLR,,,,,,,,MVFR,,,,,,,,,,,,METAR,21
ZHCC 272200Z 32002MPS CAVOK M04/M14 Q1029 NOSIG,ZHCC,2025-01-27T22:00:00Z,34.52,113.834,-4,-14,320,4,,6+,30.38,,,,,,TRUE,,,,,CAVOK,,,,,,,,VFR,,,,,,,,,,,,METAR,149
ZGSZ 272200Z 03004MPS 360V080 CAVOK 12/M03 Q1024 NOSIG,ZGSZ,2025-01-27T22:00:00Z,22.639,113.803,12,-3,30,8,,6+,30.24,,,,,,TRUE,,,,,CAVOK,,,,,,,,VFR,,,,,,,,,,,,METAR,18
ZGOW 272200Z 02003MPS CAVOK 11/M03 Q1024 NOSIG,ZGOW,2025-01-27T22:00:00Z,23.55,116.505,11,-3,20,6,,6+,30.24,,,,,,TRUE,,,,,CAVOK,,,,,,,,VFR,,,,,,,,,,,,METAR,4
ZGNN 272200Z 03002MPS CAVOK 10/04 Q1025 NOSIG,ZGNN,2025-01-27T22:00:00Z,22.609,108.173,10,4,30,4,,6+,30.27,,,,,,TRUE,,,,,CAVOK,,,,,,,,VFR,,,,,,,,,,,,METAR,128
ZGKL 272200Z VRB01MPS CAVOK 07/03 Q1026 NOSIG,ZGKL,2025-01-27T22:00:00Z,25.22,110.04,7,3,VRB,2,,6+,30.30,,,,,,TRUE,,,,,CAVOK,,,,,,,,VFR,,,,,,,,,,,,METAR,151
ZGHA 272200Z 36001MPS 7000 NSC 01/M01 Q1029 NOSIG,ZGHA,2025-01-27T22:00:00Z,28.18,113.219,1,-1,360,2,,4.35,30.38,,,,,,TRUE,,,,,CLR,,,,,,,,MVFR,,,,,,,,,,,,METAR,61
ZGGG 272200Z 04005MPS CAVOK 11/M04 Q1025 NOSIG,ZGGG,2025-01-27T22:00:00Z,23.392,113.307,11,-4,40,10,,6+,30.27,,,,,,TRUE,,,,,CAVOK,,,,,,,,VFR,,,,,,,,,,,,METAR,11
ZBYN 272200Z 19002MPS 160V250 CAVOK M10/M24 Q1024 NOSIG,ZBYN,2025-01-27T22:00:00Z,37.747,112.628,-10,-24,190,4,,6+,30.24,,,,,,TRUE,,,,,CAVOK,,,,,,,,VFR,,,,,,,,,,,,METAR,778
ZBTJ 272200Z 32005MPS CAVOK M09/M24 Q1027 NOSIG,ZBTJ,2025-01-27T22:00:00Z,39.124,117.346,-9,-24,320,10,,6+,30.32,,,,,,TRUE,,,,,CAVOK,,,,,,,,VFR,,,,,,,,,,,,METAR,4
ZBSJ 272200Z VRB01MPS CAVOK M11/M19 Q1027 NOSIG,ZBSJ,2025-01-27T22:00:00Z,38.281,114.697,-11,-19,VRB,2,,6+,30.32,,,,,,TRUE,,,,,CAVOK,,,,,,,,VFR,,,,,,,,,,,,METAR,70
ZBHH 272200Z 05002MPS CAVOK M25/M28 Q1023 NOSIG,ZBHH,2025-01-27T22:00:00Z,40.854,111.827,-25,-28,50,4,,6+,30.21,,,,,,TRUE,,,,,CAVOK,,,,,,,,VFR,,,,,,,,,,,,METAR,1081
ZBAD 272200Z 01008MPS CAVOK M08/M23 Q1027 NOSIG,ZBAD,2025-01-27T22:00:00Z,39.501,116.412,-8,-23,10,16,,6+,30.32,,,,,,TRUE,,,,,CAVOK,,,,,,,,VFR,,,,,,,,,,,,METAR,25
ZBAA 272200Z 32007MPS CAVOK M08/M25 Q1028 NOSIG,ZBAA,2025-01-27T22:00:00Z,40.082,116.603,-8,-25,320,14,,6+,30.35,,,,,,TRUE,,,,,CAVOK,,,,,,,,VFR,,,,,,,,,,,,METAR,31
YWLM 272200Z 34005KT CAVOK 29/22 Q1010,YWLM,2025-01-27T22:00:00Z,-32.794,151.836,29,22,340,5,,6+,29.82,,,,,,,,,,,CAVOK,,,,,,,,VFR,,,,,,,,,,,,METAR,7
YSTW 272200Z AUTO 35009KT 9999 // NCD 29/19 Q1016,YSTW,2025-01-27T22:00:00Z,-31.084,150.847,29,19,350,9,,6+,30.00,,,TRUE,,,,,,,,CLR,,,,,,,,VFR,,,,,,,,,,,,METAR,404
YSSY 272200Z 30005KT CAVOK 28/21 Q1008,YSSY,2025-01-27T22:00:00Z,-33.946,151.173,28,21,300,5,,6+,29.76,,,,,,,,,,,CAVOK,,,,,,,,VFR,,,,,,,,,,,,METAR,3
YSRI 272200Z AUTO 06005KT 9999 // NCD 29/25 Q1008,YSRI,2025-01-27T22:00:00Z,-33.601,150.777,29,25,60,5,,6+,29.76,,,TRUE,,,,,,,,CLR,,,,,,,,VFR,,,,,,,,,,,,METAR,19
YSNF 272200Z 10012KT 9999 FEW030 24/17 Q1018,YSNF,2025-01-27T22:00:00Z,-29.039,167.941,24,17,100,12,,6+,30.06,,,,,,,,,,,FEW,3000,,,,,,,VFR,,,,,,,,,,,,METAR,113
YSDU 272200Z AUTO 34009KT 9999 // NCD 32/19 Q1013,YSDU,2025-01-27T22:00:00Z,-32.221,148.575,32,19,340,9,,6+,29.91,,,TRUE,,,,,,,,CLR,,,,,,,,VFR,,,,,,,,,,,,METAR,285
YSCB 272200Z AUTO 33017KT 9999 // NCD 28/16 Q1012,YSCB,2025-01-27T22:00:00Z,-35.309,149.2,28,16,330,17,,6+,29.88,,,TRUE,,,,,,,,CLR,,,,,,,,VFR,,,,,,,,,,,,METAR,577
YPXM 272200Z AUTO 30006KT 9999 // SCT046 24/23 Q1008,YPXM,2025-01-27T22:00:00Z,-10.453,105.688,24,23,300,6,,6+,29.76,,,TRUE,,,,,,,,SCT,4600,,,,,,,VFR,,,,,,,,,,,,METAR,262
YPWR 272200Z AUTO 15021KT 9999 // NCD 20/12 Q1016,YPWR,2025-01-27T22:00:00Z,-31.156,136.805,20,12,150,21,,6+,30.00,,,TRUE,,,,,,,,CLR,,,,,,,,VFR,,,,,,,,,,,,METAR,169
YPTN 272200Z AUTO 33002KT 9999 // NCD 27/24 Q1008,YPTN,2025-01-27T22:00:00Z,-14.523,132.383,27,24,330,2,,6+,29.76,,,TRUE,,,,,,,,CLR,,,,,,,,VFR,,,,,,,,,,,,METAR,135
YPPH 272200Z 03005KT 330V140 CAVOK 18/09 Q1017,YPPH,2025-01-27T22:00:00Z,-31.927,115.976,18,9,30,5,,6+,30.03,,,,,,,,,,,CAVOK,,,,,,,,VFR,,,,,,,,,,,,METAR,16
YPLM 272200Z AUTO 25005KT 9999 // NCD 28/25 Q1006,YPLM,2025-01-27T22:00:00Z,-22.241,114.097,28,25,250,5,,6+,29.70,,,TRUE,,,,,,,,CLR,,,,,,,,VFR,,,,,,,,,,,,METAR,5
YPKU 272200Z AUTO 35001KT 9999 -RA FEW042 BKN099 27/25 Q1007,YPKU,2025-01-27T22:00:00Z,-15.781,128.71,27,25,350,1,,6+,29.73,,,TRUE,,,,,,,-RA,FEW,4200,BKN,9900,,,,,VFR,,,,,,,,,,,,METAR,42
YPKG 272200Z AUTO 11013KT 9999 // NCD 18/10 Q1020,YPKG,2025-01-27T22:00:00Z,-30.785,121.453,18,10,110,13,,6+,30.12,,,TRUE,,,,,,,,CLR,,,,,,,,VFR,,,,,,,,,,,,METAR,372
YPJT 272200Z AUTO 10011KT 9999 // NCD 18/10 Q1018,YPJT,2025-01-27T22:00:00Z,-32.101,115.879,18,10,100,11,,6+,30.06,,,TRUE,,,,,,,,CLR,,,,,,,,VFR,,,,,,,,,,,,METAR,29
YPGV 272200Z AUTO 00000KT 9999 // NCD 27/25 Q1007,YPGV,2025-01-27T22:00:00Z,-12.274,136.82,27,25,0,0,,6+,29.73,,,TRUE,,,,,,,,CLR,,,,,,,,VFR,,,,,,,,,,,,METAR,53
YPEA 272200Z AUTO 14011G21KT 9999 // NCD 18/10 Q1017,YPEA,2025-01-27T22:00:00Z,-31.667,116.019,18,10,140,11,21,6+,30.03,,,TRUE,,,,,,,,CLR,,,,,,,,VFR,,,,,,,,,,,,METAR,38
YPDN 272200Z 24002KT 9999 FEW008 BKN320 29/27 Q1007,YPDN,2025-01-27T22:00:00Z,-12.424,130.893,29,27,240,2,,6+,29.73,,,,,,,,,,,FEW,800,BKN,32000,,,,,VFR,,,,,,,,,,,,METAR,32
YPCC 272200Z AUTO 11005KT 070V140 9999 // FEW019 SCT024 BKN120 26/25 Q1006 RESHRA,YPCC,2025-01-27T22:00:00Z,-12.189,96.834,26,25,110,5,,6+,29.70,,,TRUE,,,,,,,,FEW,1900,SCT,2400,BKN,12000,,,VFR,,,,,,,,,,,,METAR,3
YPAD 272200Z 18009KT 9999 FEW029 BKN040 20/12 Q1018,YPAD,2025-01-27T22:00:00Z,-34.952,138.52,20,12,180,9,,6+,30.06,,,,,,,,,,,FEW,2900,BKN,4000,,,,,VFR,,,,,,,,,,,,METAR,2
YMML 272200Z 22011G21KT 9999 FEW032 BKN038 19/09 Q1014,YMML,2025-01-27T22:00:00Z,-37.666,144.832,19,9,220,11,21,6+,29.94,,,,,,,,,,,FEW,3200,BKN,3800,,,,,VFR,,,,,,,,,,,,METAR,115
YMLT 272200Z AUTO 34007KT 9999 // NCD 17/09 Q1008,YMLT,2025-01-27T22:00:00Z,-41.544,147.213,17,9,340,7,,6+,29.76,,,TRUE,,,,,,,,CLR,,,,,,,,VFR,,,,,,,,,,,,METAR,167
YMHB 272200Z AUTO 29014KT 9999 // SCT056 19/05 Q1006,YMHB,2025-01-27T22:00:00Z,-42.834,147.503,19,5,290,14,,6+,29.70,,,TRUE,,,,,,,,SCT,5600,,,,,,,VFR,,,,,,,,,,,,METAR,2
YMAV 272200Z AUTO 23009KT 9999 // BKN042 19/10 Q1014,YMAV,2025-01-27T22:00:00Z,-38.029,144.478,19,10,230,9,,6+,29.94,,,TRUE,,,,,,,,BKN,4200,,,,,,,VFR,,,,,,,,,,,,METAR,11
YLHI 272200Z 07012KT 9999 FEW016 BKN042 25/20 Q1018,YLHI,2025-01-27T22:00:00Z,-31.538,159.077,25,20,70,12,,6+,30.06,,,,,,,,,,,FEW,1600,BKN,4200,,,,,VFR,,,,,,,,,,,,METAR,2
YHID 272200Z AUTO 10004KT 9999 // NCD 29/27 Q1007,YHID,2025-01-27T22:00:00Z,-10.584,142.29,29,27,100,4,,6+,29.73,,,TRUE,,,,,,,,CLR,,,,,,,,VFR,,,,,,,,,,,,METAR,5
YGLA 272200Z AUTO 14008KT 9999 // FEW055 28/22 Q1014,YGLA,2025-01-27T22:00:00Z,-23.87,151.221,28,22,140,8,,6+,29.94,,,TRUE,,,,,,,,FEW,5500,,,,,,,VFR,,,,,,,,,,,,METAR,17
YGEL 272200Z AUTO 14007KT 9999 // NCD 21/11 Q1010,YGEL,2025-01-27T22:00:00Z,-28.805,114.699,21,11,140,7,,6+,29.82,,,TRUE,,,,,,,,CLR,,,,,,,,VFR,,,,,,,,,,,,METAR,32
YFRT 272200Z AUTO 13010KT 9999 // BKN033 19/11 Q1020,YFRT,2025-01-27T22:00:00Z,-30.848,128.114,19,11,130,10,,6+,30.12,,,TRUE,,,,,,,,BKN,3300,,,,,,,VFR,,,,,,,,,,,,METAR,159
YCIN 272200Z AUTO 33005KT 9999 // NCD 25/24 Q1007,YCIN,2025-01-27T22:00:00Z,-17.574,123.831,25,24,330,5,,6+,29.73,,,TRUE,,,,,,,,CLR,,,,,,,,VFR,,,,,,,,,,,,METAR,83
YCFS 272200Z AUTO 01010KT 9999 // NCD 27/20 Q1014,YCFS,2025-01-27T22:00:00Z,-30.317,153.119,27,20,10,10,,6+,29.94,,,TRUE,,,,,,,,CLR,,,,,,,,VFR,,,,,,,,,,,,METAR,2
YBWW 272200Z AUTO 07005KT 9999 // BKN018 23/17 Q1017,YBWW,2025-01-27T22:00:00Z,-27.558,151.793,23,17,70,5,,6+,30.03,,,TRUE,,,,,,,,BKN,1800,,,,,,,MVFR,,,,,,,,,,,,METAR,460
YBTL 272200Z 16005KT 9999 -RA FEW007 SCT030 BKN040 25/24 Q1010,YBTL,2025-01-27T22:00:00Z,-19.248,146.766,25,24,160,5,,6+,29.82,,,,,,,,,,-RA,FEW,700,SCT,3000,BKN,4000,,,VFR,,,,,,,,,,,,METAR,4
YBSU 272200Z AUTO 14005KT 090V200 9999 // NCD 27/19 Q1016,YBSU,2025-01-27T22:00:00Z,-26.603,153.091,27,19,140,5,,6+,30.00,,,TRUE,,,,,,,,CLR,,,,,,,,VFR,,,,,,,,,,,,METAR,4
YBRK 272200Z AUTO 12009KT 9999 // FEW029 BKN037 BKN059 27/23 Q1014,YBRK,2025-01-27T22:00:00Z,-23.375,150.477,27,23,120,9,,6+,29.94,,,TRUE,,,,,,,,FEW,2900,BKN,3700,BKN,5900,,,VFR,,,,,,,,,,,,METAR,10
YBMA 272200Z AUTO 04008KT 9999 // NCD 31/22 Q1011,YBMA,2025-01-27T22:00:00Z,-20.678,139.488,31,22,40,8,,6+,29.85,,,TRUE,,,,,,,,CLR,,,,,,,,VFR,,,,,,,,,,,,METAR,346
YBLN 272200Z AUTO 11010KT 9999 // ////// 16/11 Q1020,YBLN,2025-01-27T22:00:00Z,-33.688,115.402,16,11,110,10,,6+,30.12,,,TRUE,,,,,,,,,,,,,,,,VFR,,,,,,,,,,,,METAR,17
YBHM 272200Z AUTO 11019KT 9999 // NCD 28/24 Q1011,YBHM,2025-01-27T22:00:00Z,-20.357,148.949,28,24,110,19,,6+,29.85,,,TRUE,,,,,,,,CLR,,,,,,,,VFR,,,,,,,,,,,,METAR,4
YBCG 272200Z AUTO 31006KT 9999 // NCD 27/20 Q1016,YBCG,2025-01-27T22:00:00Z,-28.168,153.505,27,20,310,6,,6+,30.00,,,TRUE,,,,,,,,CLR,,,,,,,,VFR,,,,,,,,,,,,METAR,5
YBBN 272200Z 02004KT 280V050 9999 FEW025 27/18 Q1016,YBBN,2025-01-27T22:00:00Z,-27.391,153.13,27,18,20,4,,6+,30.00,,,,,,,,,,,FEW,2500,,,,,,,VFR,,,,,,,,,,,,METAR,3
YBAS 272200Z AUTO 20006KT 9999 // NCD 30/06 Q1012,YBAS,2025-01-27T22:00:00Z,-23.795,133.889,30,6,200,6,,6+,29.88,,,TRUE,,,,,,,,CLR,,,,,,,,VFR,,,,,,,,,,,,METAR,549
YAMB 272200Z 12002KT 9999 FEW025 26/20 Q1016,YAMB,2025-01-27T22:00:00Z,-27.63,152.711,26,20,120,2,,6+,30.00,,,,,,,,,,,FEW,2500,,,,,,,VFR,,,,,,,,,,,,METAR,26
WSSS 272200Z 36007KT 9999 FEW016 SCT070 BKN150 25/23 Q1009 NOSIG,WSSS,2025-01-27T22:00:00Z,1.368,103.982,25,23,360,7,,6+,29.79,,,,,,TRUE,,,,,FEW,1600,SCT,7000,BKN,15000,,,VFR,,,,,,,,,,,,METAR,17
WSSL 272200Z 04006KT 9999 FEW016 BKN150 25/23 Q1009,WSSL,2025-01-27T22:00:00Z,1.417,103.866,25,23,40,6,,6+,29.79,,,,,,,,,,,FEW,1600,BKN,15000,,,,,VFR,,,,,,,,,,,,METAR,11
WSAP 272200Z 36002KT 9999 FEW016 BKN150 25/22 Q1010,WSAP,2025-01-27T22:00:00Z,1.36,103.909,25,22,360,2,,6+,29.82,,,,,,,,,,,FEW,1600,BKN,15000,,,,,VFR,,,,,,,,,,,,METAR,20
WMSA 272200Z VRB03KT 9999 FEW025 25/23 Q1010,WMSA,2025-01-27T22:00:00Z,3.13,101.552,25,23,VRB,3,,6+,29.82,,,,,,,,,,,FEW,2500,,,,,,,VFR,,,,,,,,,,,,METAR,19
WMKP 272200Z 02004KT 320V080 8000 FEW025 27/19 Q1008 NOSIG,WMKP,2025-01-27T22:00:00Z,5.297,100.277,27,19,20,4,,4.97,29.76,,,,,,TRUE,,,,,FEW,2500,,,,,,,MVFR,,,,,,,,,,,,METAR,4
WMKN 272200Z VRB04KT 9999 SCT020 26/23 Q1010,WMKN,2025-01-27T22:00:00Z,5.383,103.103,26,23,VRB,4,,6+,29.82,,,,,,,,,,,SCT,2000,,,,,,,VFR,,,,,,,,,,,,METAR,12
WMKM 272200Z 03007KT 330V100 9999 FEW028 25/22 Q1010,WMKM,2025-01-27T22:00:00Z,2.263,102.252,25,22,30,7,,6+,29.82,,,,,,,,,,,FEW,2800,,,,,,,VFR,,,,,,,,,,,,METAR,9
WMKL 272200Z 05003KT 330V110 9999 FEW025 27/21 Q1009,WMKL,2025-01-27T22:00:00Z,6.33,99.729,27,21,50,3,,6+,29.79,,,,,,,,,,,FEW,2500,,,,,,,VFR,,,,,,,,,,,,METAR,4
WMKK 272200Z 02005KT 300V060 9000 FEW017CB 24/22 Q1010 NOSIG,WMKK,2025-01-27T22:00:00Z,2.747,101.714,24,22,20,5,,5.59,29.82,,,,,,TRUE,,,,,FEW,1700,,,,,,,VFR,,,,,,,,,,,,METAR,21
WMKJ 272200Z 00000KT 8000 FEW008 24/22 Q1009,WMKJ,2025-01-27T22:00:00Z,1.641,103.67,24,22,0,0,,4.97,29.79,,,,,,,,,,,FEW,800,,,,,,,MVFR,,,,,,,,,,,,METAR,38
WMKI 272200Z 01005KT 340V050 7000 -RA FEW008 SCT023 23/22 Q1009,WMKI,2025-01-27T22:00:00Z,4.568,101.092,23,22,10,5,,4.35,29.79,,,,,,,,,,-RA,FEW,800,SCT,2300,,,,,MVFR,,,,,,,,,,,,METAR,37
WMKE 272200Z AUTO VRB06KT //// // ////// 26/22 Q1010,WMKE,2025-01-27T22:00:00Z,4.537,103.427,26,22,VRB,6,,,29.82,,,TRUE,,,,,,,,,,,,,,,,,,,,,,,,,,,,METAR,5
WMKD 272200Z 33005KT 290V040 8000 -RA FEW000 23/22 Q1010 NOSIG,WMKD,2025-01-27T22:00:00Z,3.775,103.209,23,22,330,5,,4.97,29.82,,,,,,TRUE,,,,-RA,FEW,0,,,,,,,MVFR,,,,,,,,,,,,METAR,18
WMKC 272200Z 09009KT 9999 SCT020 26/22 Q1010,WMKC,2025-01-27T22:00:00Z,6.167,102.293,26,22,90,9,,6+,29.82,,,,,,,,,,,SCT,2000,,,,,,,VFR,,,,,,,,,,,,METAR,7
WMKB 272200Z VRB02KT 8000 FEW024 25/17 Q1008 NOSIG,WMKB,2025-01-27T22:00:00Z,5.466,100.391,25,17,VRB,2,,4.97,29.76,,,,,,TRUE,,,,,FEW,2400,,,,,,,MVFR,,,,,,,,,,,,METAR,4
WMKA 272200Z 07004KT 350V140 9999 FEW030 26/20 Q1009,WMKA,2025-01-27T22:00:00Z,6.19,100.398,26,20,70,4,,6+,29.79,,,,,,,,,,,FEW,3000,,,,,,,VFR,,,,,,,,,,,,METAR,5
WMBA 272200Z VRB02KT 9000 FEW031 24/22 Q1009,WMBA,2025-01-27T22:00:00Z,4.221,100.701,24,22,VRB,2,,5.59,29.79,,,,,,,,,,,FEW,3100,,,,,,,VFR,,,,,,,,,,,,METAR,9
WMAU 272200Z 13008KT 9000 FEW025 26/24 Q1009,WMAU,2025-01-27T22:00:00Z,2.387,103.876,26,24,130,8,,5.59,29.79,,,,,,,,,,,FEW,2500,,,,,,,VFR,,,,,,,,,,,,METAR,5
WIPP 272200Z 33005KT 4000 BR BKN012 25/24 Q1008 NOSIG,WIPP,2025-01-27T22:00:00Z,-2.898,104.7,25,24,330,5,,2.49,29.76,,,,,,TRUE,,,,BR,BKN,1200,,,,,,,IFR,,,,,,,,,,,,METAR,7
WIOO 272200Z 36002KT 6000 -RA BKN008 23/23 Q1009 NOSIG,WIOO,2025-01-27T22:00:00Z,-0.151,109.404,23,23,360,2,,3.73,29.79,,,,,,TRUE,,,,-RA,BKN,800,,,,,,,IFR,,,,,,,,,,,,METAR,4
WIMM 272200Z 17003KT 7000 -RA BKN017 23/23 Q1009 NOSIG,WIMM,2025-01-27T22:00:00Z,3.636,98.874,23,23,170,3,,4.35,29.79,,,,,,TRUE,,,,-RA,BKN,1700,,,,,,,MVFR,,,,,,,,,,,,METAR,7
WILL 272200Z 31005KT 9999 FEW015 25/25 Q1008 NOSIG,WILL,2025-01-27T22:00:00Z,-5.242,105.179,25,25,310,5,,6+,29.76,,,,,,TRUE,,,,,FEW,1500,,,,,,,VFR,,,,,,,,,,,,METAR,83
WIII 272200Z 26004KT 8000 FEW020 25/24 Q1007 NOSIG,WIII,2025-01-27T22:00:00Z,-6.125,106.659,25,24,260,4,,4.97,29.73,,,,,,TRUE,,,,,FEW,2000,,,,,,,MVFR,,,,,,,,,,,,METAR,9
WIHH 272200Z 26004KT 8000 SCT020 26/24 Q1007 NOSIG,WIHH,2025-01-27T22:00:00Z,-6.267,106.891,26,24,260,4,,4.97,29.73,,,,,,TRUE,,,,,SCT,2000,,,,,,,MVFR,,,,,,,,,,,,METAR,26
WIEE 272200Z 35006KT 9000 -RA BKN018 24/23 Q1009 NOSIG,WIEE,2025-01-27T22:00:00Z,-0.783,100.283,24,23,350,6,,5.59,29.79,,,,,,TRUE,,,,-RA,BKN,1800,,,,,,,MVFR,,,,,,,,,,,,METAR,5
WIDD 272200Z 05012KT 9999 SCT014 27/24 Q1010 NOSIG,WIDD,2025-01-27T22:00:00Z,1.121,104.119,27,24,50,12,,6+,29.82,,,,,,TRUE,,,,,SCT,1400,,,,,,,VFR,,,,,,,,,,,,METAR,26
WIBB 272200Z 00000KT 3000 RA BKN006 FEW013CB 23/23 Q1009 RMK CB OVER THE FIELD,WIBB,2025-01-27T22:00:00Z,0.461,101.445,23,23,0,0,,1.86,29.79,,,,,,,,,,RA,BKN,600,FEW,1300,,,,,IFR,,,,,,,,,,,,METAR,41
WBSB 272200Z 05005KT 9999 FEW003 SCT014 BKN300 26/25 Q1008 NOSIG,WBSB,2025-01-27T22:00:00Z,4.944,114.928,26,25,50,5,,6+,29.76,,,,,,TRUE,,,,,FEW,300,SCT,1400,BKN,30000,,,VFR,,,,,,,,,,,,METAR,15
WBKW 272200Z 00000KT 9999 FEW015 25/23 Q1008,WBKW,2025-01-27T22:00:00Z,4.316,118.119,25,23,0,0,,6+,29.76,,,,,,,,,,,FEW,1500,,,,,,,VFR,,,,,,,,,,,,METAR,17
WBKT 272200Z AUTO 05006KT 350V140 //// // ////// 27/25 Q1009,WBKT,2025-01-27T22:00:00Z,6.922,116.837,27,25,50,6,,,29.79,,,TRUE,,,,,,,,,,,,,,,,,,,,,,,,,,,,METAR,11
WBKS 272200Z 31004KT 230V040 3000 RA FEW009 SCT040 26/25 Q1008,WBKS,2025-01-27T22:00:00Z,5.901,118.059,26,25,310,4,,1.86,29.76,,,,,,,,,,RA,FEW,900,SCT,4000,,,,,IFR,,,,,,,,,,,,METAR,13
WBKL 272200Z 05004KT 360V080 9999 FEW014 26/24 Q1008,WBKL,2025-01-27T22:00:00Z,5.301,115.25,26,24,50,4,,6+,29.76,,,,,,,,,,,FEW,1400,,,,,,,VFR,,,,,,,,,,,,METAR,29
WBKK 272200Z VRB02KT 9999 FEW014 24/23 Q1008 NOSIG,WBKK,2025-01-27T22:00:00Z,5.937,116.051,24,23,VRB,2,,6+,29.76,,,,,,TRUE,,,,,FEW,1400,,,,,,,VFR,,,,,,,,,,,,METAR,9
WBGY 272200Z AUTO 00000KT //// // ////// 24/23 Q1009,WBGY,2025-01-27T22:00:00Z,1.222,111.466,24,23,0,0,,,29.79,,,TRUE,,,,,,,,,,,,,,,,,,,,,,,,,,,,METAR,13
WBGS 272200Z VRB02KT 8000 -RA FEW005 SCT016 24/23 Q1009,WBGS,2025-01-27T22:00:00Z,2.264,111.983,24,23,VRB,2,,4.97,29.79,,,,,,,,,,-RA,FEW,500,SCT,1600,,,,,MVFR,,,,,,,,,,,,METAR,26
WBGR 272200Z 03005KT 340V120 8000 -RA SCT014 24/24 Q1008,WBGR,2025-01-27T22:00:00Z,4.322,113.987,24,24,30,5,,4.97,29.76,,,,,,,,,,-RA,SCT,1400,,,,,,,MVFR,,,,,,,,,,,,METAR,18
WBGG 272200Z VRB02KT 6000 -RA SCT018 24/24 Q1009 NOSIG,WBGG,2025-01-27T22:00:00Z,1.484,110.34,24,24,VRB,2,,3.73,29.79,,,,,,TRUE,,,,-RA,SCT,1800,,,,,,,MVFR,,,,,,,,,,,,METAR,26
WBGB 272200Z 00000KT 9999 -RA SCT016 24/24 Q1008,WBGB,2025-01-27T22:00:00Z,3.12,113.025,24,24,0,0,,6+,29.76,,,,,,,,,,-RA,SCT,1600,,,,,,,VFR,,,,,,,,,,,,METAR,34
WAYY 272200Z 35005KT 4000 -RA FEW012CB BKN013 25/24 Q1010 NOSIG CB TO N,WAYY,2025-01-27T22:00:00Z,-4.528,136.887,25,24,350,5,,2.49,29.82,,,,,,TRUE,,,,-RA,FEW,1200,BKN,1300,,,,,IFR,,,,,,,,,,,,METAR,32
WATT 272200Z 18003KT 9000 BKN015 24/24 Q1008 NOSIG,WATT,2025-01-27T22:00:00Z,-10.172,123.671,24,24,180,3,,5.59,29.76,,,,,,TRUE,,,,,BKN,1500,,,,,,,MVFR,,,,,,,,,,,,METAR,104
WARR 272200Z 25002KT 5000 HZ FEW020 24/23 Q1007 NOSIG METAR ,WARR,2025-01-27T22:00:00Z,-7.38,112.787,24,23,250,2,,3.11,29.73,,,,,,TRUE,,,,HZ,FEW,2000,,,,,,,MVFR,,,,,,,,,,,,METAR,3
WAQQ 272200Z 35003KT 8000 SCT010 26/24 Q1008,WAQQ,2025-01-27T22:00:00Z,3.327,117.568,26,24,350,3,,4.97,29.76,,,,,,,,,,,SCT,1000,,,,,,,MVFR,,,,,,,,,,,,METAR,6
WAPP 272200Z 01003KT 350V070 9999 SCT016 25/24 Q1007 NOSIG,WAPP,2025-01-27T22:00:00Z,-3.71,128.089,25,24,10,3,,6+,29.73,,,,,,TRUE,,,,,SCT,1600,,,,,,,VFR,,,,,,,,,,,,METAR,20
WAOO 272200Z AUTO 02003KT 9999 BKN170 25/24 Q1008,WAOO,2025-01-27T22:00:00Z,-3.44,114.759,25,24,20,3,,6+,29.76,,,TRUE,,,,,,,,BKN,17000,,,,,,,VFR,,,,,,,,,,,,METAR,23
WAMM 272200Z VRB02KT 9999 FEW030 24/23 Q1011 NOSIG,WAMM,2025-01-27T22:00:00Z,1.541,124.926,24,23,VRB,2,,6+,29.85,,,,,,TRUE,,,,,FEW,3000,,,,,,,VFR,,,,,,,,,,,,METAR,86
WALL 272200Z 31004KT 9000 SCT020 25/25 Q1008 NOSIG,WALL,2025-01-27T22:00:00Z,-1.268,116.894,25,25,310,4,,5.59,29.76,,,,,,TRUE,,,,,SCT,2000,,,,,,,VFR,,,,,,,,,,,,METAR,3
WAKK 272200Z 01003KT 5000 -RA BKN015 25/25 Q1008 NOSIG,WAKK,2025-01-27T22:00:00Z,-8.52,140.417,25,25,10,3,,3.11,29.76,,,,,,TRUE,,,,-RA,BKN,1500,,,,,,,MVFR,,,,,,,,,,,,METAR,5
WAJJ 272200Z VRB01KT 9999 SCT013 26/25 Q1009,WAJJ,2025-01-27T22:00:00Z,-2.573,140.514,26,25,VRB,1,,6+,29.79,,,,,,,,,,,SCT,1300,,,,,,,VFR,,,,,,,,,,,,METAR,93
WAHS 272200Z 00000KT 6000 TS FEW013CB SCT014 25/24 Q1006 NOSIG RMK CB TO NW AND N,WAHS,2025-01-27T22:00:00Z,-6.973,110.375,25,24,0,0,,3.73,29.70,,,,,,TRUE,,,,TS,FEW,1300,SCT,1400,,,,,MVFR,,,,,,,,,,,,METAR,3
WADD 272200Z VRB02KT 9999 SCT015 26/25 Q1007 NOSIG,WADD,2025-01-27T22:00:00Z,-8.748,115.167,26,25,VRB,2,,6+,29.73,,,,,,TRUE,,,,,SCT,1500,,,,,,,VFR,,,,,,,,,,,,METAR,3
WABB 272200Z 00000KT 9999 SCT015 SCT100 26/25 Q1009 NOSIG,WABB,2025-01-27T22:00:00Z,-1.19,136.108,26,25,0,0,,6+,29.79,,,,,,TRUE,,,,,SCT,1500,SCT,10000,,,,,VFR,,,,,,,,,,,,METAR,12
WAAA 272200Z 19005KT 150V230 9000 FEW017CB SCT018 25/25 Q1009 RERA TEMPO FM2220 TL2300 28015G25KT 3000 RA RMK CB IN APCH,WAAA,2025-01-27T22:00:00Z,-5.062,119.554,25,25,190,5,,5.59,29.79,,,,,,,,,,,FEW,1700,SCT,1800,,,,,VFR,,,,,,,,,,,,METAR,13
VYYY 272200Z 28002KT 6000 FEW020 SCT110 23/21 Q1010 NOSIG,VYYY,2025-01-27T22:00:00Z,16.906,96.137,23,21,280,2,,3.73,29.82,,,,,,TRUE,,,,,FEW,2000,SCT,11000,,,,,MVFR,,,,,,,,,,,,METAR,31
VVVD 272200Z 06005KT 030V090 CAVOK 13/04 Q1024 NOSIG,VVVD,2025-01-27T22:00:00Z,21.118,107.414,13,4,60,5,,6+,30.24,,,,,,TRUE,,,,,CAVOK,,,,,,,,VFR,,,,,,,,,,,,METAR,8
VVTS 272200Z 04003KT CAVOK 21/17 Q1011 NOSIG,VVTS,2025-01-27T22:00:00Z,10.817,106.667,21,17,40,3,,6+,29.85,,,,,,TRUE,,,,,CAVOK,,,,,,,,VFR,,,,,,,,,,,,METAR,10
VVPQ 272200Z 08004KT CAVOK 25/22 Q1011 NOSIG,VVPQ,2025-01-27T22:00:00Z,10.169,103.995,25,22,80,4,,6+,29.85,,,,,,TRUE,,,,,CAVOK,,,,,,,,VFR,,,,,,,,,,,,METAR,8
VVPB 272200Z 27006KT 9999 SCT017 BKN040 15/13 Q1020 NOSIG,VVPB,2025-01-27T22:00:00Z,16.399,107.699,15,13,270,6,,6+,30.12,,,,,,TRUE,,,,,SCT,1700,BKN,4000,,,,,VFR,,,,,,,,,,,,METAR,15
VVNB 272200Z 05004KT CAVOK 13/06 Q1024 NOSIG,VVNB,2025-01-27T22:00:00Z,21.218,105.805,13,6,50,4,,6+,30.24,,,,,,TRUE,,,,,CAVOK,,,,,,,,VFR,,,,,,,,,,,,METAR,6
VVDN 272200Z VRB01KT 9999 FEW020 OVC037 18/13 Q1020 NOSIG,VVDN,2025-01-27T22:00:00Z,16.044,108.199,18,13,VRB,1,,6+,30.12,,,,,,TRUE,,,,,FEW,2000,OVC,3700,,,,,VFR,,,,,,,,,,,,METAR,7
VVCT 272200Z VRB02KT 9999 FEW015 23/22 Q1011 NOSIG,VVCT,2025-01-27T22:00:00Z,10.085,105.712,23,22,VRB,2,,6+,29.85,,,,,,TRUE,,,,,FEW,1500,,,,,,,VFR,,,,,,,,,,,,METAR,6
VVCR 272200Z 35011KT CAVOK 22/16 Q1015 NOSIG,VVCR,2025-01-27T22:00:00Z,11.998,109.219,22,16,350,11,,6+,29.97,,,,,,TRUE,,,,,CAVOK,,,,,,,,VFR,,,,,,,,,,,,METAR,12
VVCI 272200Z 07004KT CAVOK 14/04 Q1023 NOSIG,VVCI,2025-01-27T22:00:00Z,20.823,106.727,14,4,70,4,,6+,30.21,,,,,,TRUE,,,,,CAVOK,,,,,,,,VFR,,,,,,,,,,,,METAR,6
VTUW 272200Z 14005KT 8000 NSC 12/08 Q1017 NOSIG,VTUW,2025-01-27T22:00:00Z,17.384,104.643,12,8,140,5,,4.97,30.03,,,,,,TRUE,,,,,CLR,,,,,,,,MVFR,,,,,,,,,,,,METAR,167
VTUV 272200Z 06006KT CAVOK 13/09 Q1017 NOSIG,VTUV,2025-01-27T22:00:00Z,16.117,103.772,13,9,60,6,,6+,30.03,,,,,,TRUE,,,,,CAVOK,,,,,,,,VFR,,,,,,,,,,,,METAR,136
VTUU 272200Z 04008KT CAVOK 14/11 Q1016 NOSIG,VTUU,2025-01-27T22:00:00Z,15.251,104.87,14,11,40,8,,6+,30.00,,,,,,TRUE,,,,,CAVOK,,,,,,,,VFR,,,,,,,,,,,,METAR,119
VTUQ 272200Z 07004KT 8000 NSC 14/09 Q1016 NOSIG,VTUQ,2025-01-27T22:00:00Z,14.95,102.313,14,9,70,4,,4.97,30.00,,,,,,TRUE,,,,,CLR,,,,,,,,MVFR,,,,,,,,,,,,METAR,225
VTUO 272200Z 07007KT 9999 SCT012 13/09 Q1016 NOSIG,VTUO,2025-01-27T22:00:00Z,15.227,103.244,13,9,70,7,,6+,30.00,,,,,,TRUE,,,,,SCT,1200,,,,,,,VFR,,,,,,,,,,,,METAR,182
VTUL 272200Z 00000KT CAVOK 12/11 Q1017 NOSIG,VTUL,2025-01-27T22:00:00Z,17.445,101.725,12,11,0,0,,6+,30.03,,,,,,TRUE,,,,,CAVOK,,,,,,,,VFR,,,,,,,,,,,,METAR,257
VTUK 272200Z 09002KT CAVOK 13/09 Q1017 NOSIG,VTUK,2025-01-27T22:00:00Z,16.462,102.786,13,9,90,2,,6+,30.03,,,,,,TRUE,,,,,CAVOK,,,,,,,,VFR,,,,,,,,,,,,METAR,190
VTUI 272200Z 12006KT 8000 NSC 13/09 Q1017 NOSIG,VTUI,2025-01-27T22:00:00Z,17.195,104.119,13,9,120,6,,4.97,30.03,,,,,,TRUE,,,,,CLR,,,,,,,,MVFR,,,,,,,,,,,,METAR,162
VTUD 272200Z 10003KT CAVOK 14/09 Q1017 NOSIG,VTUD,2025-01-27T22:00:00Z,17.382,102.799,14,9,100,3,,6+,30.03,,,,,,TRUE,,,,,CAVOK,,,,,,,,VFR,,,,,,,,,,,,METAR,177
VTST 272200Z 00000KT 9999 FEW030 SCT100 23/23 Q1008 NOSIG,VTST,2025-01-27T22:00:00Z,7.512,99.621,23,23,0,0,,6+,29.76,,,,,,TRUE,,,,,FEW,3000,SCT,10000,,,,,VFR,,,,,,,,,,,,METAR,17
VTSS 272200Z 05005KT 9999 FEW020 BKN100 26/21 Q1010 NOSIG,VTSS,2025-01-27T22:00:00Z,6.933,100.393,26,21,50,5,,6+,29.82,,,,,,TRUE,,,,,FEW,2000,BKN,10000,,,,,VFR,,,,,,,,,,,,METAR,28
VTSR 272200Z 10015G32KT 360V160 9999 VCSH SCT020 27/21 Q1007 NOSIG,VTSR,2025-01-27T22:00:00Z,9.773,98.587,27,21,100,15,32,6+,29.73,,,,,,TRUE,,,,VCSH,SCT,2000,,,,,,,VFR,,,,,,,,,,,,METAR,23
VTSP 272200Z 10017KT 9999 FEW020 27/21 Q1008 NOSIG,VTSP,2025-01-27T22:00:00Z,8.105,98.308,27,21,100,17,,6+,29.76,,,,,,TRUE,,,,,FEW,2000,,,,,,,VFR,,,,,,,,,,,,METAR,12
VTSM 272200Z 13008KT 9999 FEW020 27/23 Q1010 NOSIG,VTSM,2025-01-27T22:00:00Z,9.548,100.062,27,23,130,8,,6+,29.82,,,,,,TRUE,,,,,FEW,2000,,,,,,,VFR,,,,,,,,,,,,METAR,12
VTSG 272200Z 06006KT 030V090 9999 FEW030 24/22 Q1009 NOSIG,VTSG,2025-01-27T22:00:00Z,8.099,98.986,24,22,60,6,,6+,29.79,,,,,,TRUE,,,,,FEW,3000,,,,,,,VFR,,,,,,,,,,,,METAR,32
VTSF 272200Z 00000KT 7000 FEW018 23/22 Q1010 NOSIG,VTSF,2025-01-27T22:00:00Z,8.546,99.94,23,22,0,0,,4.35,29.82,,,,,,TRUE,,,,,FEW,1800,,,,,,,MVFR,,,,,,,,,,,,METAR,6
VTSC 272200Z 10010KT 060V130 9999 FEW018 26/22 Q1010 NOSIG,VTSC,2025-01-27T22:00:00Z,6.52,101.743,26,22,100,10,,6+,29.82,,,,,,TRUE,,,,,FEW,1800,,,,,,,VFR,,,,,,,,,,,,METAR,5
VTSB 272200Z VRB02KT 6000 FEW020 24/24 Q1009 NOSIG,VTSB,2025-01-27T22:00:00Z,9.133,99.152,24,24,VRB,2,,3.73,29.79,,,,,,TRUE,,,,,FEW,2000,,,,,,,MVFR,,,,,,,,,,,,METAR,10
VTPT 272200Z /////KT 8000 NSC 18/15 Q1014 NOSIG,VTPT,2025-01-27T22:00:00Z,16.897,99.254,18,15,,,,4.97,29.94,,,,,,TRUE,,,,,CLR,,,,,,,,MVFR,,,,,,,,,,,,METAR,148
VTPP 272200Z VRB01KT CAVOK 18/14 Q1014 NOSIG,VTPP,2025-01-27T22:00:00Z,16.792,100.274,18,14,VRB,1,,6+,29.94,,,,,,TRUE,,,,,CAVOK,,,,,,,,VFR,,,,,,,,,,,,METAR,45
VTPO 272200Z 35003KT 9999 FEW040 18/15 Q1014 NOSIG,VTPO,2025-01-27T22:00:00Z,17.238,99.818,18,15,350,3,,6+,29.94,,,,,,TRUE,,,,,FEW,4000,,,,,,,VFR,,,,,,,,,,,,METAR,58
VTPM 272200Z 00000KT 7000 NSC 16/14 Q1013 NOSIG,VTPM,2025-01-27T22:00:00Z,16.703,98.542,16,14,0,0,,4.35,29.91,,,,,,TRUE,,,,,CLR,,,,,,,,MVFR,,,,,,,,,,,,METAR,211
VTPH 272200Z 34005KT 250V030 9999 FEW030 23/13 Q1012 NOSIG,VTPH,2025-01-27T22:00:00Z,12.633,99.951,23,13,340,5,,6+,29.88,,,,,,TRUE,,,,,FEW,3000,,,,,,,VFR,,,,,,,,,,,,METAR,12
VTPB 272200Z VRB02KT 8000 NSC 15/10 Q1015 NOSIG,VTPB,2025-01-27T22:00:00Z,16.676,101.195,15,10,VRB,2,,4.97,29.97,,,,,,TRUE,,,,,CLR,,,,,,,,MVFR,,,,,,,,,,,,METAR,134
VTCT 272200Z 06005KT 9999 FEW040 13/10 Q1017 NOSIG,VTCT,2025-01-27T22:00:00Z,19.961,99.881,13,10,60,5,,6+,30.03,,,,,,TRUE,,,,,FEW,4000,,,,,,,VFR,,,,,,,,,,,,METAR,389
VTCP 272200Z 00000KT 8000 NSC 15/12 Q1015 NOSIG,VTCP,2025-01-27T22:00:00Z,18.129,100.162,15,12,0,0,,4.97,29.97,,,,,,TRUE,,,,,CLR,,,,,,,,MVFR,,,,,,,,,,,,METAR,166
VTCN 272200Z 03003KT 9999 SCT040 15/14 Q1016 NOSIG,VTCN,2025-01-27T22:00:00Z,18.807,100.787,15,14,30,3,,6+,30.00,,,,,,TRUE,,,,,SCT,4000,,,,,,,VFR,,,,,,,,,,,,METAR,211
VTCH 272200Z 00000KT 2000 BR FEW012 BKN025 17/16 Q1012 BECMG 0700 FG,VTCH,2025-01-27T22:00:00Z,19.302,97.972,17,16,0,0,,1.24,29.88,,,,,,,,,,BR,FEW,1200,BKN,2500,,,,,IFR,,,,,,,,,,,,METAR,266
VTCC 272200Z VRB02KT 9999 BKN040 18/13 Q1015 NOSIG,VTCC,2025-01-27T22:00:00Z,18.771,98.963,18,13,VRB,2,,6+,29.97,,,,,,TRUE,,,,,BKN,4000,,,,,,,VFR,,,,,,,,,,,,METAR,308
VTBU 272200Z 01006KT 8000 NSC 23/11 Q1011 NOSIG,VTBU,2025-01-27T22:00:00Z,12.68,101.001,23,11,10,6,,4.97,29.85,,,,,,TRUE,,,,,CLR,,,,,,,,MVFR,,,,,,,,,,,,METAR,12
VTBS 272200Z 06007KT 030V090 CAVOK 22/14 Q1013 NOSIG,VTBS,2025-01-27T22:00:00Z,13.686,100.767,22,14,60,7,,6+,29.91,,,,,,TRUE,,,,,CAVOK,,,,,,,,VFR,,,,,,,,,,,,METAR,1
VTBO 272200Z 07008KT 4000 HZ NSC 22/13 Q1009,VTBO,2025-01-27T22:00:00Z,12.275,102.319,22,13,70,8,,2.49,29.79,,,,,,,,,,HZ,CLR,,,,,,,,IFR,,,,,,,,,,,,METAR,25
VTBD 272200Z 03003KT CAVOK 21/13 Q1013 NOSIG,VTBD,2025-01-27T22:00:00Z,13.913,100.607,21,13,30,3,,6+,29.91,,,,,,TRUE,,,,,CAVOK,,,,,,,,VFR,,,,,,,,,,,,METAR,6
VRMM 272200Z 24007KT 9000 -RA SCT017TCU OVC110 26/24 Q1008 NOSIG,VRMM,2025-01-27T22:00:00Z,4.192,73.529,26,24,240,7,,5.59,29.76,,,,,,TRUE,,,,-RA,SCT,1700,OVC,11000,,,,,VFR,,,,,,,,,,,,METAR,2
VRMH 272200Z 10010KT 6000 FEW018TCU BKN250 28/24 Q1008,VRMH,2025-01-27T22:00:00Z,6.744,73.171,28,24,100,10,,3.73,29.76,,,,,,,,,,,FEW,1800,BKN,25000,,,,,MVFR,,,,,,,,,,,,METAR,1
VRMG 272200Z 31008KT 9000 FEW017 FEW018CB BKN110 27/25 Q1006 CB NW NOSIG,VRMG,2025-01-27T22:00:00Z,-0.693,73.156,27,25,310,8,,5.59,29.70,,,,,,TRUE,,,,,FEW,1700,FEW,1800,BKN,11000,,,VFR,,,,,,,,,,,,METAR,2
VOVZ 272200Z VRB02KT 2000 BR FEW018 SCT220 21/21 Q1010 NOSIG,VOVZ,2025-01-27T22:00:00Z,17.722,83.228,21,21,VRB,2,,1.24,29.82,,,,,,TRUE,,,,BR,FEW,1800,SCT,22000,,,,,IFR,,,,,,,,,,,,METAR,4
VOTV 272200Z VRB01KT 3000 BR FEW015 FEW025CB SCT080 25/22 Q1007 NOSIG,VOTV,2025-01-27T22:00:00Z,8.484,76.919,25,22,VRB,1,,1.86,29.73,,,,,,TRUE,,,,BR,FEW,1500,FEW,2500,SCT,8000,,,IFR,,,,,,,,,,,,METAR,9
VOPB 272200Z VRB02KT 5000 BR FEW014 BKN220 26/23 Q1008 NOSIG,VOPB,2025-01-27T22:00:00Z,11.641,92.73,26,23,VRB,2,,3.11,29.76,,,,,,TRUE,,,,BR,FEW,1400,BKN,22000,,,,,MVFR,,,,,,,,,,,,METAR,1
VOMM 272200Z VRB02KT 2100 BR FEW020 SCT100 24/22 Q1009 NOSIG,VOMM,2025-01-27T22:00:00Z,12.994,80.18,24,22,VRB,2,,1.3,29.79,,,,,,TRUE,,,,BR,FEW,2000,SCT,10000,,,,,IFR,,,,,,,,,,,,METAR,7
VOML 272200Z 07003KT 6000 NSC 22/19 Q1008 NOSIG,VOML,2025-01-27T22:00:00Z,12.961,74.89,22,19,70,3,,3.73,29.76,,,,,,TRUE,,,,,CLR,,,,,,,,MVFR,,,,,,,,,,,,METAR,100
VOMD 272200Z 01003KT 3500 BR FEW020 SCT100 22/20 Q1009 NOSIG,VOMD,2025-01-27T22:00:00Z,9.835,78.093,22,20,10,3,,2.17,29.79,,,,,,TRUE,,,,BR,FEW,2000,SCT,10000,,,,,IFR,,,,,,,,,,,,METAR,135
VOKN 272200Z 08007KT 4000 BR FEW012 22/15 Q1008 NOSIG,VOKN,2025-01-27T22:00:00Z,11.917,75.547,22,15,80,7,,2.49,29.76,,,,,,TRUE,,,,BR,FEW,1200,,,,,,,IFR,,,,,,,,,,,,METAR,105
VOHS 272200Z 14006KT 5000 HZ NSC 18/13 Q1012 NOSIG,VOHS,2025-01-27T22:00:00Z,17.233,78.429,18,13,140,6,,3.11,29.88,,,,,,TRUE,,,,HZ,CLR,,,,,,,,MVFR,,,,,,,,,,,,METAR,607
VOGO 272200Z VRB02KT 5000 BR NSC 22/19 Q1008 NOSIG,VOGO,2025-01-27T22:00:00Z,15.378,73.828,22,19,VRB,2,,3.11,29.76,,,,,,TRUE,,,,BR,CLR,,,,,,,,MVFR,,,,,,,,,,,,METAR,56
VOGA 272200Z 00004KT 3000 HZ NSC 24/12 Q1009 NOSIG,VOGA,2025-01-27T22:00:00Z,15.7426,73.8631,24,12,VRB,4,,1.86,29.79,,,,,,TRUE,,,,HZ,CLR,,,,,,,,IFR,,,,,,,,,,,,METAR,168
VOCL 272200Z 10003KT 6000 FEW012 22/19 Q1008 NOSIG,VOCL,2025-01-27T22:00:00Z,11.137,75.955,22,19,100,3,,3.73,29.76,,,,,,TRUE,,,,,FEW,1200,,,,,,,MVFR,,,,,,,,,,,,METAR,104
VOCB 272200Z VRB02KT 4000 HZ FEW015 21/16 Q1012 NOSIG,VOCB,2025-01-27T22:00:00Z,11.03,77.043,21,16,VRB,2,,2.49,29.88,,,,,,TRUE,,,,HZ,FEW,1500,,,,,,,IFR,,,,,,,,,,,,METAR,394
VOBL 272200Z 12003KT 2000 BR NSC 16/14 Q1014 TEMPO 1500 BR,VOBL,2025-01-27T22:00:00Z,13.205,77.704,16,14,120,3,,1.24,29.94,,,,,,,,,,BR,CLR,,,,,,,,IFR,,,,,,,,,,,,METAR,908
VNKT 272200Z 08003KT 5000 BR FEW015 SCT030 08/08 Q1014 NOSIG,VNKT,2025-01-27T22:00:00Z,27.697,85.359,8,8,80,3,,3.11,29.94,,,,,,TRUE,,,,BR,FEW,1500,SCT,3000,,,,,MVFR,,,,,,,,,,,,METAR,1334
VMMC 272200Z 01017KT CAVOK 13/03 Q1023 NOSIG,VMMC,2025-01-27T22:00:00Z,22.141,113.596,13,3,10,17,,6+,30.21,,,,,,TRUE,,,,,CAVOK,,,,,,,,VFR,,,,,,,,,,,,METAR,1
VILK 272200Z 26004KT 1800 BR NSC 11/09 Q1011 BECMG 1500 BR,VILK,2025-01-27T22:00:00Z,26.761,80.889,11,9,260,4,,1.12,29.85,,,,,,,,,,BR,CLR,,,,,,,,IFR,,,,,,,,,,,,METAR,121
VIJP 272200Z 00000KT 3000 HZ NSC 10/05 Q1013 NOSIG,VIJP,2025-01-27T22:00:00Z,26.824,75.812,10,5,0,0,,1.86,29.91,,,,,,TRUE,,,,HZ,CLR,,,,,,,,IFR,,,,,,,,,,,,METAR,383
VIDP 272200Z 00000KT 3500 BR NSC 09/06 Q1012 NOSIG,VIDP,2025-01-27T22:00:00Z,28.567,77.117,9,6,0,0,,2.17,29.88,,,,,,TRUE,,,,BR,CLR,,,,,,,,IFR,,,,,,,,,,,,METAR,236
VHHH 272200Z 05009KT 020V080 CAVOK 12/M04 Q1024 NOSIG,VHHH,2025-01-27T22:00:00Z,22.309,113.922,12,-4,50,9,,6+,30.24,,,,,,TRUE,,,,,CAVOK,,,,,,,,VFR,,,,,,,,,,,,METAR,9
VGHS 272200Z 00000KT 1300 BR NSC 16/14 Q1010 TEMPO S/VIS 1200M,VGHS,2025-01-27T22:00:00Z,23.846,90.4,16,14,0,0,,0.81,29.82,,,,,,,,,,BR,CLR,,,,,,,,LIFR,,,,,,,,,,,,METAR,11
VEMN 272200Z 00000KT 2500 BR NSC 14/13 Q1010 NOSIG,VEMN,2025-01-27T22:00:00Z,27.481,95.014,14,13,0,0,,1.55,29.82,,,,,,TRUE,,,,BR,CLR,,,,,,,,IFR,,,,,,,,,,,,METAR,111
VECC 272200Z 00000KT 2000 BR NSC 15/12 Q1010 NOSIG,VECC,2025-01-27T22:00:00Z,22.651,88.445,15,12,0,0,,1.24,29.82,,,,,,TRUE,,,,BR,CLR,,,,,,,,IFR,,,,,,,,,,,,METAR,11
VEBS 272200Z 00000KT 0600 R14/1600 R32/2000 FG NSC 20/20 Q1009 NOSIG,VEBS,2025-01-27T22:00:00Z,20.244,85.818,20,20,0,0,,0.37,29.79,,,,,,TRUE,,,,FG,CLR,,,,,,,,LIFR,,,,,,,,,,,,METAR,42
VEBN 272200Z 23003KT 1500 BR NSC 11/08 Q1011 NOSIG,VEBN,2025-01-27T22:00:00Z,25.452,82.859,11,8,230,3,,0.93,29.85,,,,,,TRUE,,,,BR,CLR,,,,,,,,LIFR,,,,,,,,,,,,METAR,81
VDSV 272200Z 05003KT 9000 FEW015 22/19 Q1010,VDSV,2025-01-27T22:00:00Z,10.582,103.637,22,19,50,3,,5.59,29.82,,,,,,,,,,,FEW,1500,,,,,,,VFR,,,,,,,,,,,,METAR,1
VDSA 272200Z 05010KT 9000 FEW017 18/11 Q1014,VDSA,2025-01-27T22:00:00Z,13.371,104.225,18,11,50,10,,5.59,29.94,,,,,,,,,,,FEW,1700,,,,,,,VFR,,,,,,,,,,,,METAR,59
VDPP 272200Z 04008KT CAVOK 22/18 Q1012,VDPP,2025-01-27T22:00:00Z,11.547,104.844,22,18,40,8,,6+,29.88,,,,,,,,,,,CAVOK,,,,,,,,VFR,,,,,,,,,,,,METAR,10
VANP 272200Z 00000KT 3000 HZ NSC 16/11 Q1011 NOSIG,VANP,2025-01-27T22:00:00Z,21.089,79.055,16,11,0,0,,1.86,29.85,,,,,,TRUE,,,,HZ,CLR,,,,,,,,IFR,,,,,,,,,,,,METAR,309
VABB 272200Z 00000KT 3000 FU NSC 24/13 Q1008 NOSIG,VABB,2025-01-27T22:00:00Z,19.1,72.859,24,13,0,0,,1.86,29.76,,,,,,TRUE,,,,FU,CLR,,,,,,,,IFR,,,,,,,,,,,,METAR,14
VAAH 272200Z 00000KT 4000 FU SCT080 19/11 Q1010 NOSIG,VAAH,2025-01-27T22:00:00Z,23.077,72.635,19,11,0,0,,2.49,29.82,,,,,,TRUE,,,,FU,SCT,8000,,,,,,,IFR,,,,,,,,,,,,METAR,52
UWWW 272200Z 23006MPS 9999 BKN010 02/01 Q1019 R15/520145 NOSIG RMK QFE753/1004,UWWW,2025-01-27T22:00:00Z,53.509,50.163,2,1,230,12,,6+,30.09,,,,,,TRUE,,,,,BKN,1000,,,,,,,MVFR,,,,,,,,,,,,METAR,124
UWUU 272200Z 19005MPS 160V220 4500 -FZRA -SN OVC020 M03/M05 Q1019 R14R/390230 TEMPO 0300 +SN OVC004,UWUU,2025-01-27T22:00:00Z,54.57,55.87,-3,-5,190,10,,2.8,30.09,,,,,,,,,,-FZRA -SN,OVC,2000,,,,,,,IFR,,,,,,,,,,,,METAR,137
UWSG 272200Z 23003MPS 9999 BKN008 OVC040 01/M00 Q1024 R26/CLRD70 NOSIG RMK QFE765/1020,UWSG,2025-01-27T22:00:00Z,51.713,46.171,1,0,230,6,,6+,30.24,,,,,,TRUE,,,,,BKN,800,OVC,4000,,,,,IFR,,,,,,,,,,,,METAR,31
UWPS 272200Z 23007MPS 6000 -DZ OVC004 01/00 Q1018 R20/190052 TEMPO OVC001 RMK QBB120 QFE746,UWPS,2025-01-27T22:00:00Z,54.116,45.203,1,0,230,14,,3.73,30.06,,,,,,,,,,-DZ,OVC,400,,,,,,,LIFR,,,,,,,,,,,,METAR,206
UWOR 272200Z 26007MPS 9999 OVC007 M06/M06 Q1025 R25/090060 NOSIG RMK QFE745/0994,UWOR,2025-01-27T22:00:00Z,51.07,58.597,-6,-6,260,14,,6+,30.27,,,,,,TRUE,,,,,OVC,700,,,,,,,IFR,,,,,,,,,,,,METAR,270
UWLW 272200Z 23006MPS 9999 OVC016 02/01 Q1018 R20/290250 NOSIG RMK QFE758/1011,UWLW,2025-01-27T22:00:00Z,54.402,48.8,2,1,230,12,,6+,30.06,,,,,,TRUE,,,,,OVC,1600,,,,,,,MVFR,,,,,,,,,,,,METAR,67
UWLL 272200Z 23006MPS 9999 OVC012 02/00 Q1018 R20/290150 NOSIG RMK QFE753/1004,UWLL,2025-01-27T22:00:00Z,54.274,48.236,2,0,230,12,,6+,30.06,,,,,,TRUE,,,,,OVC,1200,,,,,,,MVFR,,,,,,,,,,,,METAR,119
UWKS 272200Z 24009MPS 8000 -RA OVC005 01/01 Q1013 R24/290255 NOSIG RMK QFE745,UWKS,2025-01-27T22:00:00Z,56.09,47.347,1,1,240,17,,4.97,29.91,,,,,,TRUE,,,,-RA,OVC,500,,,,,,,IFR,,,,,,,,,,,,METAR,165
UWKD 272200Z 24005MPS 9999 OVC008 02/01 Q1014 R29/650340 NOSIG RMK QFE750/1000,UWKD,2025-01-27T22:00:00Z,55.61,49.275,2,1,240,10,,6+,29.94,,,,,,TRUE,,,,,OVC,800,,,,,,,IFR,,,,,,,,,,,,METAR,114
UWGG 272200Z 23006MPS 7000 -DZ OVC005 03/03 Q1013 R18L/290050 NOSIG,UWGG,2025-01-27T22:00:00Z,56.225,43.786,3,3,230,12,,4.35,29.91,,,,,,TRUE,,,,-DZ,OVC,500,,,,,,,IFR,,,,,,,,,,,,METAR,73
UUYY 272200Z 14002MPS 1600 R18/P2000N SHSN SCT006 BKN014CB OVC020 M02/M02 Q1005 R18/490533 NOSIG RMK QFE745/0993,UUYY,2025-01-27T22:00:00Z,61.647,50.845,-2,-2,140,4,,0.99,29.68,,,,,,TRUE,,,,SHSN,SCT,600,BKN,1400,OVC,2000,,,LIFR,,,,,,,,,,,,METAR,107
UUOO 272200Z 21005MPS 3400 -DZ OVC002 03/03 Q1020 R12/290150 NOSIG RMK QFE751,UUOO,2025-01-27T22:00:00Z,51.814,39.228,3,3,210,10,,2.11,30.12,,,,,,TRUE,,,,-DZ,OVC,200,,,,,,,LIFR,,,,,,,,,,,,METAR,154
UUOL 272200Z AUTO 22004MPS 3700 BR ///008 03/03 Q1019,UUOL,2025-01-27T22:00:00Z,52.702,39.534,3,3,220,8,,2.3,30.09,,,TRUE,,,,,,,BR,,,,,,,,,IFR,,,,,,,,,,,,METAR,176
UUOK 272200Z AUTO 21005MPS 2300 BR ///002/// 04/04 Q1019 RMK QBB070 QFE746/0995,UUOK,2025-01-27T22:00:00Z,51.751,36.297,4,4,210,10,,1.43,30.09,,,TRUE,,,,,,,BR,,,,,,,,,IFR,,,,,,,,,,,,METAR,203
UUOB 272200Z 19004MPS 5000 BR OVC005 03/03 Q1021 R11/190065 NOSIG,UUOB,2025-01-27T22:00:00Z,50.644,36.59,3,3,190,8,,3.11,30.15,,,,,,TRUE,,,,BR,OVC,500,,,,,,,IFR,,,,,,,,,,,,METAR,218
UUEE 272200Z 23005MPS 9000 OVC006 04/03 Q1012 R24L/290140 R24C/290140 NOSIG,UUEE,2025-01-27T22:00:00Z,55.973,37.415,4,3,230,10,,5.59,29.88,,,,,,TRUE,,,,,OVC,600,,,,,,,IFR,,,,,,,,,,,,METAR,186
UUDL 272200Z 23005MPS 9999 OVC008 04/03 Q1010 R23/290155 NOSIG RMK QFE749,UUDL,2025-01-27T22:00:00Z,57.561,40.157,4,3,230,10,,6+,29.82,,,,,,TRUE,,,,,OVC,800,,,,,,,IFR,,,,,,,,,,,,METAR,88
UUDD 272200Z 23005MPS 3400 -DZ BR OVC004 04/04 Q1014 R14R/290042 NOSIG,UUDD,2025-01-27T22:00:00Z,55.409,37.906,4,4,230,10,,2.11,29.94,,,,,,TRUE,,,,-DZ BR,OVC,400,,,,,,,LIFR,,,,,,,,,,,,METAR,165
UUBC 272200Z 24003MPS 6000 OVC005 04/04 Q1015 R13/290150 NOSIG RMK QFE743/0991,UUBC,2025-01-27T22:00:00Z,54.552,36.37,4,4,240,6,,3.73,29.97,,,,,,TRUE,,,,,OVC,500,,,,,,,IFR,,,,,,,,,,,,METAR,198
UTTT 272200Z 00000KT 1500 R08R/P2000N BR NSC 02/M01 Q1024 R08R/CLRD70 NOSIG,UTTT,2025-01-27T22:00:00Z,41.258,69.281,2,-1,0,0,,0.93,30.24,,,,,,TRUE,,,,BR,CLR,,,,,,,,LIFR,,,,,,,,,,,,METAR,429
UTST 272200Z 29002KT 5000 BR NSC 03/M01 Q1021 R25/CLRD70 NOSIG,UTST,2025-01-27T22:00:00Z,37.287,67.318,3,-1,290,2,,3.11,30.15,,,,,,TRUE,,,,BR,CLR,,,,,,,,MVFR,,,,,,,,,,,,METAR,311
UTSS 272200Z 13008KT 9999 NSC 01/M04 Q1021 R09/70D NOSIG,UTSS,2025-01-27T22:00:00Z,39.7,66.974,1,-4,130,8,,6+,30.15,,,,,,TRUE,,,,,CLR,,,,,,,,VFR,,,,,,,,,,,,METAR,665
UTSK 272200Z 01004KT CAVOK 04/M01 Q1022 R16/CLRD70,UTSK,2025-01-27T22:00:00Z,38.804,65.773,4,-1,10,4,,6+,30.18,,,,,,,,,,,CAVOK,,,,,,,,VFR,,,,,,,,,,,,METAR,399
UTSB 272200Z 34010KT CAVOK 00/M07 Q1024 R01/CLRD70 NOSIG,UTSB,2025-01-27T22:00:00Z,39.775,64.483,0,-7,340,10,,6+,30.24,,,,,,TRUE,,,,,CAVOK,,,,,,,,VFR,,,,,,,,,,,,METAR,225
UTSA 272200Z VRB02KT 4200 BR FU NSC M01/M05 Q1023 R25/CLRD70 NOSIG,UTSA,2025-01-27T22:00:00Z,40.116,65.167,-1,-5,VRB,2,,2.61,30.21,,,,,,TRUE,,,,BR FU,CLR,,,,,,,,IFR,,,,,,,,,,,,METAR,346
UTNU 272200Z 04012KT OVC004 M06/M07 Q1029 R31/CLRD70 NOSIG RMK BASE400,UTNU,2025-01-27T22:00:00Z,41.584,60.642,-6,-7,40,12,,,30.38,,,,,,TRUE,,,,,OVC,400,,,,,,,,,,,,,,,,,,,METAR,97
UTNN 272200Z 01006KT 9999 OVC005 M04/M05 Q1031 R33/CLRD60 NOSIG RMK BASE530,UTNN,2025-01-27T22:00:00Z,42.488,59.623,-4,-5,10,6,,6+,30.44,,,,,,TRUE,,,,,OVC,500,,,,,,,IFR,,,,,,,,,,,,METAR,76
UTFN 272200Z 32006KT 6000 NSC 00/M05 Q1022 R28/CLRD70 NOSIG,UTFN,2025-01-27T22:00:00Z,40.983,71.573,0,-5,320,6,,3.73,30.18,,,,,,TRUE,,,,,CLR,,,,,,,,MVFR,,,,,,,,,,,,METAR,477
UTFF 272200Z 18006KT 5000 BR NSC M02/M07 Q1022 R18/CLRD70,UTFF,2025-01-27T22:00:00Z,40.356,71.745,-2,-7,180,6,,3.11,30.18,,,,,,,,,,BR,CLR,,,,,,,,MVFR,,,,,,,,,,,,METAR,612
UTDT 272200Z 04001MPS 6000 FEW130 03/03 Q1019 R35/CLRD70 RMK QFE725/0966,UTDT,2025-01-27T22:00:00Z,37.866,68.865,3,3,40,2,,3.73,30.09,,,,,,,,,,,FEW,13000,,,,,,,MVFR,,,,,,,,,,,,METAR,443
UTDL 272200Z 28001MPS 4800 BR NSC M00/M02 Q1024 R26/CLRD70 NOSIG RMK QFE730/0973,UTDL,2025-01-27T22:00:00Z,40.215,69.695,0,-2,280,2,,2.98,30.24,,,,,,TRUE,,,,BR,CLR,,,,,,,,IFR,,,,,,,,,,,,METAR,436
UTDK 272200Z 02003MPS 9999 NSC 04/M00 Q1019 R01/09//70 RMK QFE707/0943,UTDK,2025-01-27T22:00:00Z,37.988,69.805,4,0,20,6,,6+,30.09,,,,,,,,,,,CLR,,,,,,,,VFR,,,,,,,,,,,,METAR,675
UTDD 272200Z VRB01MPS 3900 BR FU NSC 01/M02 Q1020 R09/D NOSIG RMK QFE696/0928,UTDD,2025-01-27T22:00:00Z,38.543,68.825,1,-2,VRB,2,,2.42,30.12,,,,,,TRUE,,,,BR FU,CLR,,,,,,,,IFR,,,,,,,,,,,,METAR,785
UTAV 272200Z 32008KT CAVOK 01/M06 Q1024 R31/CLRD70 NOSIG,UTAV,2025-01-27T22:00:00Z,39.083,63.613,1,-6,320,8,,6+,30.24,,,,,,TRUE,,,,,CAVOK,,,,,,,,VFR,,,,,,,,,,,,METAR,187
UTAT 272200Z 03010KT 9999 OVC003 M05/M05 Q1030 R08/CLRD70 NOSIG RMK QBB330,UTAT,2025-01-27T22:00:00Z,41.761,59.827,-5,-5,30,10,,6+,30.41,,,,,,TRUE,,,,,OVC,300,,,,,,,LIFR,,,,,,,,,,,,METAR,84
UTAM 272200Z 36004KT 6000 BKN066 OVC100 03/M04 Q1027 R88/CLRD70 NOSIG,UTAM,2025-01-27T22:00:00Z,37.619,61.897,3,-4,360,4,,3.73,30.32,,,,,,TRUE,,,,,BKN,6600,OVC,10000,,,,,MVFR,,,,,,,,,,,,METAR,218
UTAK 272200Z 10006KT CAVOK 00/M03 Q1028 R16R/CLRD70 NOSIG,UTAK,2025-01-27T22:00:00Z,40.054,53.007,0,-3,100,6,,6+,30.35,,,,,,TRUE,,,,,CAVOK,,,,,,,,VFR,,,,,,,,,,,,METAR,83
UTAE 272200Z 36006KT CAVOK 01/M00 Q1022 R16/CLRD70 NOSIG,UTAE,2025-01-27T22:00:00Z,37.8223,65.1354,1,0,360,6,,6+,30.18,,,,,,TRUE,,,,,CAVOK,,,,,,,,VFR,,,,,,,,,,,,METAR,243
UTAA 272200Z 23006KT 9000 FEW033CB BKN033 OVC100 05/00 Q1026 R88/190065 NOSIG,UTAA,2025-01-27T22:00:00Z,37.975,58.371,5,0,230,6,,5.59,30.30,,,,,,TRUE,,,,,FEW,3300,BKN,3300,OVC,10000,,,VFR,,,,,,,,,,,,METAR,207
USTR 272200Z 30004MPS 9999 SCT029 M11/M12 Q1019 R21/450555 R30/////99 NOSIG,USTR,2025-01-27T22:00:00Z,57.19,65.324,-11,-12,300,8,,6+,30.09,,,,,,TRUE,,,,,SCT,2900,,,,,,,VFR,,,,,,,,,,,,METAR,93
USSS 272200Z 22002MPS 9999 OVC020 M06/M08 Q1018 R26L/81//50 NOSIG RMK QFE743/0991,USSS,2025-01-27T22:00:00Z,56.745,60.792,-6,-8,220,4,,6+,30.06,,,,,,TRUE,,,,,OVC,2000,,,,,,,MVFR,,,,,,,,,,,,METAR,222
USRR 272200Z 08003MPS 9000 -SHSN FEW039CB M15/M16 Q1016 R07/450536 RMK OBST OBSC QFE757,USRR,2025-01-27T22:00:00Z,61.342,73.422,-15,-16,80,6,,5.59,30.00,,,,,,,,,,-SHSN,FEW,3900,,,,,,,VFR,,,,,,,,,,,,METAR,52
USNN 272200Z 10005MPS CAVOK M13/M16 Q1016 R03/452055 NOSIG RMK QFE758,USNN,2025-01-27T22:00:00Z,60.959,76.497,-13,-16,100,10,,6+,30.00,,,,,,TRUE,,,,,CAVOK,,,,,,,,VFR,,,,,,,,,,,,METAR,52
USHH 272200Z 36002MPS 320V050 9999 FEW005 M19/M22 Q1017 R06/490245 TEMPO SCT003,USHH,2025-01-27T22:00:00Z,61.029,69.086,-19,-22,360,4,,6+,30.03,,,,,,,,,,,FEW,500,,,,,,,VFR,,,,,,,,,,,,METAR,46
USDA 272200Z AUTO 15009MPS 1800 1300W R04/1800D // ///004/// M28/M31 Q1029 RMK QFE770/1027,USDA,2025-01-27T22:00:00Z,71.216,72.05,-28,-31,150,17,,1.12,30.38,,,TRUE,,,,,,,,,,,,,,,,IFR,,,,,,,,,,,,METAR,5
USCM 272200Z 23006MPS 9999 SCT020 M03/M06 Q1019 R18/990134 TEMPO -FZDZ OVC007 RMK QFE726,USCM,2025-01-27T22:00:00Z,53.393,58.756,-3,-6,230,12,,6+,30.09,,,,,,,,,,,SCT,2000,,,,,,,VFR,,,,,,,,,,,,METAR,425
USCC 272200Z 12002MPS 9999 BKN026 M05/M06 Q1018 R09/420350 NOSIG RMK QFE743,USCC,2025-01-27T22:00:00Z,55.306,61.503,-5,-6,120,4,,6+,30.06,,,,,,TRUE,,,,,BKN,2600,,,,,,,MVFR,,,,,,,,,,,,METAR,227
URWW 272200Z 18005MPS 9999 OVC012 01/01 Q1026 R23/150060 NOSIG,URWW,2025-01-27T22:00:00Z,48.788,44.336,1,1,180,10,,6+,30.30,,,,,,TRUE,,,,,OVC,1200,,,,,,,MVFR,,,,,,,,,,,,METAR,131
URWI 272200Z AUTO 17008MPS 9000 // ///005/// 02/01 Q1027,URWI,2025-01-27T22:00:00Z,46.374,44.331,2,1,170,16,,5.59,30.32,,,TRUE,,,,,,,,,,,,,,,,VFR,,,,,,,,,,,,METAR,145
URWA 272200Z 13004MPS 9999 OVC015 M01/M01 Q1032 R09/010070 NOSIG RMK QFE776/1034,URWA,2025-01-27T22:00:00Z,46.286,47.995,-1,-1,130,8,,6+,30.47,,,,,,TRUE,,,,,OVC,1500,,,,,,,MVFR,,,,,,,,,,,,METAR,-19
URSS 272200Z 07004MPS 9999 NSC 03/M00 Q1024 R06/010070 R02/////// NOSIG RMK R02/04004MPS QFE767,URSS,2025-01-27T22:00:00Z,43.438,39.926,3,0,70,8,,6+,30.24,,,,,,TRUE,,,,,CLR,,,,,,,,VFR,,,,,,,,,,,,METAR,4
URMT 272200Z 18003MPS CAVOK M03/M04 Q1024 R07/190060 NOSIG RMK QFE728,URMT,2025-01-27T22:00:00Z,45.108,42.1,-3,-4,180,6,,6+,30.24,,,,,,TRUE,,,,,CAVOK,,,,,,,,VFR,,,,,,,,,,,,METAR,448
URMO 272200Z 11002MPS 0050 R09/0300N FZFG VV001 M02/M02 Q1025 R09/190060 NOSIG RMK QBB050 MT OBSC QFE725/0966,URMO,2025-01-27T22:00:00Z,43.204,44.608,-2,-2,110,4,,0.03,30.27,,,,,,TRUE,,,,FZFG,OVX,0,,,,,,,LIFR,,,,,,,,,,,100,METAR,505
URMM 272200Z 20002MPS 6000 OVC008 01/M01 Q1026 R11/010070 NOSIG RMK MT OBSC QFE741/0988,URMM,2025-01-27T22:00:00Z,44.225,43.082,1,-1,200,4,,3.73,30.30,,,,,,TRUE,,,,,OVC,800,,,,,,,IFR,,,,,,,,,,,,METAR,318
URMG 272200Z 00000MPS 5000 BR OVC015 03/02 Q1027 R26/090070 NOSIG RMK QFE755/1007,URMG,2025-01-27T22:00:00Z,43.387,45.702,3,2,0,0,,3.11,30.32,,,,,,TRUE,,,,BR,OVC,1500,,,,,,,MVFR,,,,,,,,,,,,METAR,160
URKA 272200Z 14002MPS CAVOK 01/01 Q1023 R21/010065 NOSIG RMK QFE763/1017,URKA,2025-01-27T22:00:00Z,44.995,37.341,1,1,140,4,,6+,30.21,,,,,,TRUE,,,,,CAVOK,,,,,,,,VFR,,,,,,,,,,,,METAR,41
UOOO 272200Z 10002MPS CAVOK M27/M30 Q1037 R19/39//41 NOSIG RMK QFE761/1015,UOOO,2025-01-27T22:00:00Z,69.308,87.322,-27,-30,100,4,,6+,30.62,,,,,,TRUE,,,,,CAVOK,,,,,,,,VFR,,,,,,,,,,,,METAR,177
UNWW 272200Z 11001MPS 8000 NSC M15/M17 Q1020 R19/910249 NOSIG RMK QFE738,UNWW,2025-01-27T22:00:00Z,53.811,86.878,-15,-17,110,2,,4.97,30.12,,,,,,TRUE,,,,,CLR,,,,,,,,MVFR,,,,,,,,,,,,METAR,307
UNTT 272200Z 13003MPS CAVOK M11/M19 Q1018 R21/490150 NOSIG RMK QFE748,UNTT,2025-01-27T22:00:00Z,56.381,85.207,-11,-19,130,6,,6+,30.06,,,,,,TRUE,,,,,CAVOK,,,,,,,,VFR,,,,,,,,,,,,METAR,179
UNOO 272200Z 28005MPS 9999 -SHSN BKN015 BKN025CB M12/M15 Q1017 R25/CLRD60 NOSIG RMK QFE754,UNOO,2025-01-27T22:00:00Z,54.964,73.32,-12,-15,280,10,,6+,30.03,,,,,,TRUE,,,,-SHSN,BKN,1500,BKN,2500,,,,,MVFR,,,,,,,,,,,,METAR,85
UNNT 272200Z 16004MPS CAVOK M12/M17 Q1017 R25/820250 R34/////// NOSIG RMK QFE753/1004,UNNT,2025-01-27T22:00:00Z,55.013,82.651,-12,-17,160,8,,6+,30.03,,,,,,TRUE,,,,,CAVOK,,,,,,,,VFR,,,,,,,,,,,,METAR,106
UNKL 272200Z 14001MPS CAVOK M21/M24 Q1028 R11/420145 NOSIG RMK QFE745,UNKL,2025-01-27T22:00:00Z,56.173,92.493,-21,-24,140,2,,6+,30.35,,,,,,TRUE,,,,,CAVOK,,,,,,,,VFR,,,,,,,,,,,,METAR,278
UNEE 272200Z 13003MPS CAVOK M12/M18 Q1018 R23/810250 NOSIG RMK QFE741,UNEE,2025-01-27T22:00:00Z,55.27,86.107,-12,-18,130,6,,6+,30.06,,,,,,TRUE,,,,,CAVOK,,,,,,,,VFR,,,,,,,,,,,,METAR,261
UNBB 272200Z 18003MPS CAVOK M12/M18 Q1019 R24/810359 NOSIG RMK QFE742,UNBB,2025-01-27T22:00:00Z,53.362,83.54,-12,-18,180,6,,6+,30.09,,,,,,TRUE,,,,,CAVOK,,,,,,,,VFR,,,,,,,,,,,,METAR,249
UNAA 272200Z 28002MPS 9000 NSC M16/M18 Q1025 R02/410165 NOSIG RMK QFE746,UNAA,2025-01-27T22:00:00Z,53.74,91.385,-16,-18,280,4,,5.59,30.27,,,,,,TRUE,,,,,CLR,,,,,,,,VFR,,,,,,,,,,,,METAR,249
UMMS 272200Z 18005MPS 9000 SCT005 04/03 Q1010 NOSIG RMK QBB170,UMMS,2025-01-27T22:00:00Z,53.883,28.031,4,3,180,10,,5.59,29.82,,,,,,TRUE,,,,,SCT,500,,,,,,,VFR,,,,,,,,,,,,METAR,196
UMKK 272200Z 18003MPS 9999 -SHRA BKN043CB 08/05 Q1001 R24/CLRD95 NOSIG RMK QFE750/1000,UMKK,2025-01-27T22:00:00Z,54.885,20.583,8,5,180,6,,6+,29.56,,,,,,TRUE,,,,-SHRA,BKN,4300,,,,,,,VFR,,,,,,,,,,,,METAR,6
UMIO 272200Z 19005MPS 9000 BKN006 04/04 Q1011 NOSIG RMK QBB200 QFE741/0988,UMIO,2025-01-27T22:00:00Z,54.44,30.297,4,4,190,10,,5.59,29.85,,,,,,TRUE,,,,,BKN,600,,,,,,,IFR,,,,,,,,,,,,METAR,189
UMGG 272200Z 17005G08MPS 4300 BR OVC005 05/04 Q1015 NOSIG RMK QBB160,UMGG,2025-01-27T22:00:00Z,52.525,31.015,5,4,170,10,16,2.67,29.97,,,,,,TRUE,,,,BR,OVC,500,,,,,,,IFR,,,,,,,,,,,,METAR,135
ULPB 272200Z AUTO VRB01MPS 9999 // ///004/// 00/M00 Q1006 RMK QBB140 QFE751/1001,ULPB,2025-01-27T22:00:00Z,61.885,34.155,0,0,VRB,2,,6+,29.70,,,TRUE,,,,,,,,,,,,,,,,VFR,,,,,,,,,,,,METAR,41
ULOO 272200Z 14002MPS 9999 SCT016 02/01 Q1007 NOSIG RMK QFE751,ULOO,2025-01-27T22:00:00Z,57.79,28.397,2,1,140,4,,6+,29.73,,,,,,TRUE,,,,,SCT,1600,,,,,,,VFR,,,,,,,,,,,,METAR,46
ULLI 272200Z 00000MPS 9000 SCT005 OVC021 01/00 Q1007 R28L/290050 TEMPO 0500 FG OVC002 RMK OBST OBSC,ULLI,2025-01-27T22:00:00Z,59.798,30.267,1,0,0,0,,5.59,29.73,,,,,,,,,,,SCT,500,OVC,2100,,,,,MVFR,,,,,,,,,,,,METAR,25
ULAA 272200Z 04001MPS 0500 0450S R26/1200N FZFG VV003 M00/M00 Q1006 R26/690141 NOSIG RMK QBB110 QFE753/1004,ULAA,2025-01-27T22:00:00Z,64.599,40.712,0,0,40,2,,0.31,29.70,,,,,,TRUE,,,,FZFG,OVX,0,,,,,,,LIFR,,,,,,,,,,,300,METAR,10
UIUU 272200Z 00000MPS 2700 FU FEW016 M34/M37 Q1028 R26/821055 NOSIG RMK MT OBSC QFE727/0969,UIUU,2025-01-27T22:00:00Z,51.808,107.443,-34,-37,0,0,,1.68,30.35,,,,,,TRUE,,,,FU,FEW,1600,,,,,,,IFR,,,,,,,,,,,,METAR,508
UIAA 272200Z 03001MPS 4400 BR NSC M35/M38 Q1023 R29/410160 NOSIG RMK QFE709/0945,UIAA,2025-01-27T22:00:00Z,52.026,113.31,-35,-38,30,2,,2.73,30.21,,,,,,TRUE,,,,BR,CLR,,,,,,,,IFR,,,,,,,,,,,,METAR,650
UHWW 272200Z 33006MPS 9999 SCT040 M12/M15 Q1010 R25L/0///70 NOSIG RMK QFE756,UHWW,2025-01-27T22:00:00Z,43.399,132.146,-12,-15,330,12,,6+,29.82,,,,,,TRUE,,,,,SCT,4000,,,,,,,VFR,,,,,,,,,,,,METAR,11
UHSS 272200Z 36012MPS 0750 R01/1300N +SHSN BLSN SCT009 OVC025CB M04/M05 Q1009 R01/451045 NOSIG RMK MT OBSC QFE755/1007,UHSS,2025-01-27T22:00:00Z,46.887,142.719,-4,-5,360,23,,0.47,29.79,,,,,,TRUE,,,,+SHSN BLSN,SCT,900,OVC,2500,,,,,LIFR,,,,,,,,,,,,METAR,14
UHPP 272200Z 36004MPS 9999 BKN026 M10/M17 Q1022 R34L/CLRD60 NOSIG RMK MT OBSC QFE762/1017,UHPP,2025-01-27T22:00:00Z,53.175,158.444,-10,-17,360,8,,6+,30.18,,,,,,TRUE,,,,,BKN,2600,,,,,,,MVFR,,,,,,,,,,,,METAR,33
UHMM 272200Z 09001MPS 9999 NSC M38/M42 Q1032 R10/85//65 NOSIG RMK QFE759 R28/12002MPS,UHMM,2025-01-27T22:00:00Z,59.911,150.725,-38,-42,90,2,,6+,30.47,,,,,,TRUE,,,,,CLR,,,,,,,,VFR,,,,,,,,,,,,METAR,175
UHMD 272200Z 01007MPS CAVOK M22/M27 Q1018 RMK QFE763/1017,UHMD,2025-01-27T22:00:00Z,64.378,-173.243,-22,-27,10,14,,6+,30.06,,,,,,,,,,,CAVOK,,,,,,,,VFR,,,,,,,,,,,,METAR,40
UHMA 272200Z 01005MPS 9999 DRSN VCFG FEW006 M33/M37 Q1028 R02/450360 NOSIG RMK MID 01004MPS END R02/36006MPS QFE767/1023,UHMA,2025-01-27T22:00:00Z,64.733,177.739,-33,-37,10,10,,6+,30.35,,,,,,TRUE,,,,DRSN VCFG,FEW,600,,,,,,,VFR,,,,,,,,,,,,METAR,53
UHBB 272200Z 36003MPS 9999 SCT033 M19/M21 Q1021 R36/810255 NOSIG RMK QFE748/0997,UHBB,2025-01-27T22:00:00Z,50.425,127.412,-19,-21,360,6,,6+,30.15,,,,,,TRUE,,,,,SCT,3300,,,,,,,VFR,,,,,,,,,,,,METAR,185
UGTB 272200Z 05003KT 9999 OVC048 M01/M03 Q1029 NOSIG,UGTB,2025-01-27T22:00:00Z,41.669,44.955,-1,-3,50,3,,6+,30.38,,,,,,TRUE,,,,,OVC,4800,,,,,,,VFR,,,,,,,,,,,,METAR,468
UGSB 272200Z 13014KT CAVOK 07/M01 Q1024 NOSIG,UGSB,2025-01-27T22:00:00Z,41.61,41.6,7,-1,130,14,,6+,30.24,,,,,,TRUE,,,,,CAVOK,,,,,,,,VFR,,,,,,,,,,,,METAR,32
UGMS 272200Z AUTO 12001KT //// ////// M10/M13 Q1024,UGMS,2025-01-27T22:00:00Z,43.055,42.75,-10,-13,120,1,,,30.24,,,TRUE,,,,,,,,,,,,,,,,,,,,,,,,,,,,METAR,1442
UGKO 272200Z 09015KT CAVOK 07/M02 Q1024 NOSIG,UGKO,2025-01-27T22:00:00Z,42.177,42.483,7,-2,90,15,,6+,30.24,,,,,,TRUE,,,,,CAVOK,,,,,,,,VFR,,,,,,,,,,,,METAR,44
UGAM 272200Z AUTO 10003KT 080V140 //// ////// M02/M05 Q1026,UGAM,2025-01-27T22:00:00Z,42.527,43.135,-2,-5,100,3,,,30.30,,,TRUE,,,,,,,,,,,,,,,,,,,,,,,,,,,,METAR,544
UERR 272200Z 00000MPS 9999 SCT010 M35/M38 Q1033 R25/810545 NOSIG RMK QFE743/0991,UERR,2025-01-27T22:00:00Z,62.538,114.056,-35,-38,0,0,,6+,30.50,,,,,,TRUE,,,,,SCT,1000,,,,,,,VFR,,,,,,,,,,,,METAR,352
UERP 272200Z 27004MPS 9999 -SN SCT008 OVC100 M21/M23 Q1025 R36/850339 NOSIG RMK QFE724,UERP,2025-01-27T22:00:00Z,66.4,112.03,-21,-23,270,8,,6+,30.27,,,,,,TRUE,,,,-SN,SCT,800,OVC,10000,,,,,VFR,,,,,,,,,,,,METAR,514
UEEE 272200Z 35002MPS 0500 0450SW R23/1300D FG NSC M42/M46 Q1043 R23/490140 NOSIG RMK QFE773,UEEE,2025-01-27T22:00:00Z,62.093,129.774,-42,-46,350,4,,0.31,30.80,,,,,,TRUE,,,,FG,CLR,,,,,,,,LIFR,,,,,,,,,,,,METAR,106
UDYZ 272200Z 00000KT 6000 NSC M03/M07 Q1027 NOSIG,UDYZ,2025-01-27T22:00:00Z,40.147,44.396,-3,-7,0,0,,3.73,30.32,,,,,,TRUE,,,,,CLR,,,,,,,,MVFR,,,,,,,,,,,,METAR,851
UDSG 272200Z 07002KT 3500 BR NSC M18/M20 Q1026 NOSIG,UDSG,2025-01-27T22:00:00Z,40.75,43.859,-18,-20,70,2,,2.17,30.30,,,,,,TRUE,,,,BR,CLR,,,,,,,,IFR,,,,,,,,,,,,METAR,1515
UCFO 272200Z 19004MPS 7000 NSC M02/M07 Q1021 NOSIG,UCFO,2025-01-27T22:00:00Z,40.61,72.791,-2,-7,190,8,,4.35,30.15,,,,,,TRUE,,,,,CLR,,,,,,,,MVFR,,,,,,,,,,,,METAR,881
UCFM 272200Z 20004MPS 3100 BR FU NSC M05/M08 Q1024 NOSIG,UCFM,2025-01-27T22:00:00Z,43.061,74.478,-5,-8,200,8,,1.93,30.24,,,,,,TRUE,,,,BR FU,CLR,,,,,,,,IFR,,,,,,,,,,,,METAR,632
UCFL 272200Z 33005MPS 9999 SCT030CB M05/M09 Q1024,UCFL,2025-01-27T22:00:00Z,42.585,76.702,-5,-9,330,10,,6+,30.24,,,,,,,,,,,SCT,3000,,,,,,,VFR,,,,,,,,,,,,METAR,1654
UBBZ 272200Z AUTO 32004KT 9999 // ///073/// 02/00 Q1029,UBBZ,2025-01-27T22:00:00Z,39.094,46.734,2,0,320,4,,6+,30.38,,,TRUE,,,,,,,,,,,,,,,,VFR,,,,,,,,,,,,METAR,489
UBBY 272200Z 13004KT 8000 BKN050 04/02 Q1032 NOSIG,UBBY,2025-01-27T22:00:00Z,41.561,46.667,4,2,130,4,,4.97,30.47,,,,,,TRUE,,,,,BKN,5000,,,,,,,MVFR,,,,,,,,,,,,METAR,383
UBBQ 272200Z 13003KT 9999 OVC023 02/M01 Q1029 NOSIG RMK MT OBSC,UBBQ,2025-01-27T22:00:00Z,40.809,47.729,2,-1,130,3,,6+,30.38,,,,,,TRUE,,,,,OVC,2300,,,,,,,MVFR,,,,,,,,,,,,METAR,339
UBBN 272200Z 02008KT 8000 NSC M03/M07 Q1025 NOSIG RMK MT OBSC QFE693,UBBN,2025-01-27T22:00:00Z,39.189,45.458,-3,-7,20,8,,4.97,30.27,,,,,,TRUE,,,,,CLR,,,,,,,,MVFR,,,,,,,,,,,,METAR,857
UBBL 272200Z 00000KT 6000 BKN045 05/05 Q1030 NOSIG,UBBL,2025-01-27T22:00:00Z,38.746,48.818,5,5,0,0,,3.73,30.41,,,,,,TRUE,,,,,BKN,4500,,,,,,,MVFR,,,,,,,,,,,,METAR,-11
UBBG 272200Z 18004KT 6000 BKN050 03/01 Q1029 NOSIG,UBBG,2025-01-27T22:00:00Z,40.738,46.318,3,1,180,4,,3.73,30.38,,,,,,TRUE,,,,,BKN,5000,,,,,,,MVFR,,,,,,,,,,,,METAR,333
UBBF 272200Z AUTO 30008KT 9999 // ///////// 01/M01 Q1028,UBBF,2025-01-27T22:00:00Z,39.595,47.196,1,-1,300,8,,6+,30.35,,,TRUE,,,,,,,,,,,,,,,,VFR,,,,,,,,,,,,METAR,370
UBBB 272200Z 04006KT 9999 OVC027 05/03 Q1030 NOSIG,UBBB,2025-01-27T22:00:00Z,40.469,50.061,5,3,40,6,,6+,30.41,,,,,,TRUE,,,,,OVC,2700,,,,,,,MVFR,,,,,,,,,,,,METAR,94
UAUU 272200Z 20004MPS 9999 OVC023 M10/M12 Q1022 NOSIG RMK QFE751/1001,UAUU,2025-01-27T22:00:00Z,53.215,63.553,-10,-12,200,8,,6+,30.18,,,,,,TRUE,,,,,OVC,2300,,,,,,,MVFR,,,,,,,,,,,,METAR,177
UATG 272200Z 19003MPS 0250 R14/0800N -FZDZ FZFG VV001 M04/M05 Q1033 NOSIG RMK QBB030 QFE776/1035,UATG,2025-01-27T22:00:00Z,47.122,51.829,-4,-5,190,6,,0.16,30.50,,,,,,TRUE,,,,-FZDZ FZFG,OVX,0,,,,,,,LIFR,,,,,,,,,,,100,METAR,-23
UATE 272200Z 13004MPS 9999 OVC018 00/M02 Q1032 NOSIG RMK QFE772/1029,UATE,2025-01-27T22:00:00Z,43.86,51.092,0,-2,130,8,,6+,30.47,,,,,,TRUE,,,,,OVC,1800,,,,,,,MVFR,,,,,,,,,,,,METAR,21
UASP 272200Z 26007MPS CAVOK M15/M19 Q1020 NOSIG RMK QFE754/1005,UASP,2025-01-27T22:00:00Z,52.202,77.078,-15,-19,260,14,,6+,30.12,,,,,,TRUE,,,,,CAVOK,,,,,,,,VFR,,,,,,,,,,,,METAR,122
UASK 272200Z 01002MPS 320V060 9999 BKN160 M13/M18 Q1024 NOSIG RMK QFE743/0991,UASK,2025-01-27T22:00:00Z,50.027,82.5,-13,-18,10,4,,6+,30.24,,,,,,TRUE,,,,,BKN,16000,,,,,,,VFR,,,,,,,,,,,,METAR,285
UARR 272200Z 22007MPS 9999 BKN005 OVC016 00/M01 Q1026 NOSIG RMK QBB150 QFE766/1021,UARR,2025-01-27T22:00:00Z,51.151,51.541,0,-1,220,14,,6+,30.30,,,,,,TRUE,,,,,BKN,500,OVC,1600,,,,,IFR,,,,,,,,,,,,METAR,33
UAOO 272200Z 04004MPS 360V060 9999 OVC004 M08/M10 Q1030 NOSIG RMK QBB130 QFE761/1014,UAOO,2025-01-27T22:00:00Z,44.707,65.593,-8,-10,40,8,,6+,30.41,,,,,,TRUE,,,,,OVC,400,,,,,,,LIFR,,,,,,,,,,,,METAR,130
UAKK 272200Z 22005MPS 9000 SCT003 M18/M20 Q1023 NOSIG RMK QBB100 QFE720/0960,UAKK,2025-01-27T22:00:00Z,49.672,73.333,-18,-20,220,10,,5.59,30.21,,,,,,TRUE,,,,,SCT,300,,,,,,,VFR,,,,,,,,,,,,METAR,532
UAIT 272200Z 36002MPS 9999 SCT046 M04/M06 Q1025 NOSIG RMK QFE742/0990,UAIT,2025-01-27T22:00:00Z,43.311,68.55,-4,-6,360,4,,6+,30.27,,,,,,TRUE,,,,,SCT,4600,,,,,,,VFR,,,,,,,,,,,,METAR,301
UAII 272200Z 00000MPS 1900 R10/P2000 BR NSC M03/M04 Q1024 NOSIG RMK QFE733/0977,UAII,2025-01-27T22:00:00Z,42.366,69.476,-3,-4,0,0,,1.18,30.24,,,,,,TRUE,,,,BR,CLR,,,,,,,,IFR,,,,,,,,,,,,METAR,410
UADD 272200Z 02001MPS 9999 SCT050 OVC100 M05/M07 Q1025 NOSIG RMK QFE712/0949,UADD,2025-01-27T22:00:00Z,42.854,71.304,-5,-7,20,2,,6+,30.27,,,,,,TRUE,,,,,SCT,5000,OVC,10000,,,,,VFR,,,,,,,,,,,,METAR,663
UACC 272200Z 24006MPS 8000 SCT013 M20/M22 Q1023 NOSIG RMK QFE736/0981,UACC,2025-01-27T22:00:00Z,51.024,71.468,-20,-22,240,12,,4.97,30.21,,,,,,TRUE,,,,,SCT,1300,,,,,,,MVFR,,,,,,,,,,,,METAR,354
UAAA 272200Z 23001MPS 1000 R05R/P2000 BR FU SCT100 M10/M12 Q1025 NOSIG,UAAA,2025-01-27T22:00:00Z,43.35,77.027,-10,-12,230,2,,0.62,30.27,,,,,,TRUE,,,,FU BR,SCT,10000,,,,,,,LIFR,,,,,,,,,,,,METAR,673
TVSA 272200Z 03008KT 9999 SCT018 SCT036 25/22 Q1013 NOSIG ,TVSA,2025-01-27T22:00:00Z,13.156,-61.15,25,22,30,8,,6+,29.91,,,,,,TRUE,,,,,SCT,1800,SCT,3600,,,,,VFR,,,,,,,,,,,,METAR,3
TUPJ 272200Z 10011KT 10SM SCT019 27/21 A3000 RMK Q1015 VIS16KM,TUPJ,2025-01-27T22:00:00Z,18.445,-64.543,27,21,100,11,,10+,30.00,,,,,,,,,,,SCT,1900,,,,,,,VFR,,,,,,,,,,,,METAR,6
TTPP 272200Z 00000KT 9999 VCSH FEW016 27/24 Q1012 NOSIG VCSH-NE,TTPP,2025-01-27T22:00:00Z,10.593,-61.348,27,24,0,0,,6+,29.88,,,,,,TRUE,,,,VCSH VCSH,FEW,1600,,,,,,,VFR,,,,,,,,,,,,METAR,11
TTCP 272200Z 09008KT 9999 FEW016 27/22 Q1012 NOSIG,TTCP,2025-01-27T22:00:00Z,11.149,-60.836,27,22,90,8,,6+,29.88,,,,,,TRUE,,,,,FEW,1600,,,,,,,VFR,,,,,,,,,,,,METAR,13
TRPG 272200Z 10018KT 060V130 9999 SCT018 26/23 Q1015,TRPG,2025-01-27T22:00:00Z,16.792,-62.194,26,23,100,18,,6+,29.97,,,,,,,,,,,SCT,1800,,,,,,,VFR,,,,,,,,,,,,METAR,170
TQPF 272200Z 09010KT 9999 FEW017 SCT034 26/24 Q1014,TQPF,2025-01-27T22:00:00Z,18.205,-63.055,26,24,90,10,,6+,29.94,,,,,,,,,,,FEW,1700,SCT,3400,,,,,VFR,,,,,,,,,,,,METAR,33
TNCM 272200Z 06009KT 020V100 9999 VCSH FEW016 26/24 Q1015 NOSIG RMK VCSH W,TNCM,2025-01-27T22:00:00Z,18.041,-63.109,26,24,60,9,,6+,29.97,,,,,,TRUE,,,,VCSH,FEW,1600,,,,,,,VFR,,,,,,,,,,,,METAR,9
TNCC 272200Z 11014G24KT 9999 SCT020 28/24 Q1010 NOSIG,TNCC,2025-01-27T22:00:00Z,12.189,-68.96,28,24,110,14,24,6+,29.82,,,,,,TRUE,,,,,SCT,2000,,,,,,,VFR,,,,,,,,,,,,METAR,10
TNCA 272200Z 10016KT 9999 FEW021 28/22 Q1010 NOSIG,TNCA,2025-01-27T22:00:00Z,12.501,-70.015,28,22,100,16,,6+,29.82,,,,,,TRUE,,,,,FEW,2100,,,,,,,VFR,,,,,,,,,,,,METAR,7
TLPL 272200Z 06014KT 9999 FEW008 SCT040 26/24 Q1013 NOSIG,TLPL,2025-01-27T22:00:00Z,13.743,-60.948,26,24,60,14,,6+,29.91,,,,,,TRUE,,,,,FEW,800,SCT,4000,,,,,VFR,,,,,,,,,,,,METAR,13
TLPC 272200Z 09003KT 9999 FEW014 BKN040 26/24 Q1013 NOSIG,TLPC,2025-01-27T22:00:00Z,14.021,-60.993,26,24,90,3,,6+,29.91,,,,,,TRUE,,,,,FEW,1400,BKN,4000,,,,,VFR,,,,,,,,,,,,METAR,8
TKPK 272200Z 06015KT 9999 FEW018 26/22 Q1015,TKPK,2025-01-27T22:00:00Z,17.312,-62.72,26,22,60,15,,6+,29.97,,,,,,,,,,,FEW,1800,,,,,,,VFR,,,,,,,,,,,,METAR,62
TGPY 272200Z 10011KT 9999 FEW017 SCT038 BKN080 26/23 Q1012 NOSIG,TGPY,2025-01-27T22:00:00Z,12.006,-61.797,26,23,100,11,,6+,29.88,,,,,,TRUE,,,,,FEW,1700,SCT,3800,BKN,8000,,,VFR,,,,,,,,,,,,METAR,12
TFFR 272200Z AUTO 11008KT 9999 FEW012 SCT018 BKN024 24/22 Q1015 NOSIG,TFFR,2025-01-27T22:00:00Z,16.265,-61.532,24,22,110,8,,6+,29.97,,,TRUE,,,TRUE,,,,,FEW,1200,SCT,1800,BKN,2400,,,MVFR,,,,,,,,,,,,METAR,6
TFFJ 272200Z AUTO 09013KT 060V120 9999 BKN029 27/22 Q1015,TFFJ,2025-01-27T22:00:00Z,17.904,-62.844,27,22,90,13,,6+,29.97,,,TRUE,,,,,,,,BKN,2900,,,,,,,MVFR,,,,,,,,,,,,METAR,13
TFFF 272200Z AUTO 08006KT 040V100 CAVOK 26/23 Q1013 NOSIG,TFFF,2025-01-27T22:00:00Z,14.591,-61.003,26,23,80,6,,6+,29.91,,,TRUE,,,TRUE,,,,,CAVOK,,,,,,,,VFR,,,,,,,,,,,,METAR,3
TDPD 272200Z 10003KT 9999 -RA SCT016 BKN031 25/24 Q1015,TDPD,2025-01-27T22:00:00Z,15.547,-61.299,25,24,100,3,,6+,29.97,,,,,,,,,,-RA,SCT,1600,BKN,3100,,,,,VFR,,,,,,,,,,,,METAR,13
TBPB 272200Z 08013KT 9999 FEW018 27/21 Q1013 NOSIG,TBPB,2025-01-27T22:00:00Z,13.075,-59.492,27,21,80,13,,6+,29.91,,,,,,TRUE,,,,,FEW,1800,,,,,,,VFR,,,,,,,,,,,,METAR,55
TAPA 272200Z 09010KT 060V130 9999 VCSH SCT021 BKN040 26/21 Q1015 NOSIG,TAPA,2025-01-27T22:00:00Z,17.135,-61.797,26,21,90,10,,6+,29.97,,,,,,TRUE,,,,VCSH,SCT,2100,BKN,4000,,,,,VFR,,,,,,,,,,,,METAR,15
SYEC 272200Z 03008KT 9999 FEW018 SCT036 28/23 Q1010 NOSIG,SYEC,2025-01-27T22:00:00Z,6.809,-58.104,28,23,30,8,,6+,29.82,,,,,,TRUE,,,,,FEW,1800,SCT,3600,,,,,VFR,,,,,,,,,,,,METAR,2
SYCJ 272200Z 05010KT 9999 FEW020 SCT038 28/24 Q1010 NOSIG,SYCJ,2025-01-27T22:00:00Z,6.499,-58.254,28,24,50,10,,6+,29.82,,,,,,TRUE,,,,,FEW,2000,SCT,3800,,,,,VFR,,,,,,,,,,,,METAR,30
SUMU 272200Z 22007KT CAVOK 28/20 Q1009 NOSIG,SUMU,2025-01-27T22:00:00Z,-34.838,-56.031,28,20,220,7,,6+,29.79,,,,,,TRUE,,,,,CAVOK,,,,,,,,VFR,,,,,,,,,,,,METAR,32
SULS 272200Z 10010KT CAVOK 27/20 Q1008,SULS,2025-01-27T22:00:00Z,-34.855,-55.094,27,20,100,10,,6+,29.76,,,,,,,,,,,CAVOK,,,,,,,,VFR,,,,,,,,,,,,METAR,22
SUCA 272200Z 02007KT 9999 FEW030 BKN080 BKN200 26/21 Q1008,SUCA,2025-01-27T22:00:00Z,-34.452,-57.768,26,21,20,7,,6+,29.76,,,,,,,,,,,FEW,3000,BKN,8000,BKN,20000,,,VFR,,,,,,,,,,,,METAR,26
SUAA 272200Z 31004KT CAVOK 27/20 Q1009,SUAA,2025-01-27T22:00:00Z,-34.788,-56.263,27,20,310,4,,6+,29.79,,,,,,,,,,,CAVOK,,,,,,,,VFR,,,,,,,,,,,,METAR,48
SPZO 272200Z 28007KT 250V320 9999 RA VCSH FEW046TCU BKN080 13/09 Q1027 NOSIG RMK BIRD HAZARD RWY 10/28 TX21.3 PP015,SPZO,2025-01-27T22:00:00Z,-13.536,-71.939,13,9,280,7,,6+,30.32,,,,,,TRUE,,,,RA VCSH,FEW,4600,BKN,8000,,,,,VFR,,,,,,,,,,,,METAR,3249
SPYL 272200Z 21010KT CAVOK 27/17 Q1007 RMK TX30.3 BIRD HAZARD RWY 17/35 PP000,SPYL,2025-01-27T22:00:00Z,-4.577,-81.254,27,17,210,10,,6+,29.73,,,,,,,,,,,CAVOK,,,,,,,,VFR,,,,,,,,,,,,METAR,89
SPUR 272200Z 24013KT CAVOK 31/18 Q1006 RMK TX34.3 BIRD HAZARD RWY 19/01 PP000,SPUR,2025-01-27T22:00:00Z,-5.206,-80.616,31,18,240,13,,6+,29.70,,,,,,,,,,,CAVOK,,,,,,,,VFR,,,,,,,,,,,,METAR,30
SPTU 272200Z 08003KT 040V120 9999 FEW030 SCT100 29/25 Q1005 RMK TX35.1 BIRD HAZARD RWY 01/19 PP000,SPTU,2025-01-27T22:00:00Z,-12.603,-69.228,29,25,80,3,,6+,29.68,,,,,,,,,,,FEW,3000,SCT,10000,,,,,VFR,,,,,,,,,,,,METAR,213
SPTN 272200Z 22011KT 9999 SCT120 OVC200 22/14 Q1011 RMK TX28.3 PP000,SPTN,2025-01-27T22:00:00Z,-18.049,-70.277,22,14,220,11,,6+,29.85,,,,,,,,,,,SCT,12000,OVC,20000,,,,,VFR,,,,,,,,,,,,METAR,459
SPST 272200Z 16005KT 7000 -RA SCT010 BKN080 25/25 Q1008 RMK TX32.5 PP011,SPST,2025-01-27T22:00:00Z,-6.509,-76.373,25,25,160,5,,4.35,29.76,,,,,,,,,,-RA,SCT,1000,BKN,8000,,,,,MVFR,,,,,,,,,,,,METAR,282
SPSO 272200Z 22020KT CAVOK 24/19 Q1007 RMK TX26.7 BIRD HAZARD RWY 22/04 PP000,SPSO,2025-01-27T22:00:00Z,-13.744,-76.221,24,19,220,20,,6+,29.73,,,,,,,,,,,CAVOK,,,,,,,,VFR,,,,,,,,,,,,METAR,8
SPRU 272200Z 20006KT 9000 NSC 22/18 Q1008 RMK TX21.8 PP000,SPRU,2025-01-27T22:00:00Z,-8.087,-79.109,22,18,200,6,,5.59,29.76,,,,,,,,,,,CLR,,,,,,,,VFR,,,,,,,,,,,,METAR,23
SPQU 272200Z 25006KT 210V280 9999 FEW030 BKN100 14/11 Q1023 NOSIG RMK TX22.0 PP001,SPQU,2025-01-27T22:00:00Z,-16.341,-71.583,14,11,250,6,,6+,30.21,,,,,,TRUE,,,,,FEW,3000,BKN,10000,,,,,VFR,,,,,,,,,,,,METAR,2527
SPQT 272200Z 34003KT 300V030 9999 SCT020 31/22 Q1006 NOSIG RMK BIRD HAZARD RWY 06/24 TX31.6 PP000,SPQT,2025-01-27T22:00:00Z,-3.786,-73.306,31,22,340,3,,6+,29.70,,,,,,TRUE,,,,,SCT,2000,,,,,,,VFR,,,,,,,,,,,,METAR,92
SPNC 272200Z 06012KT 9999 FEW040 27/13 Q1015 RMK TX29.4 PP000,SPNC,2025-01-27T22:00:00Z,-9.879,-76.207,27,13,60,12,,6+,29.97,,,,,,,,,,,FEW,4000,,,,,,,VFR,,,,,,,,,,,,METAR,1856
SPMS 272200Z 32004KT 9999 SCT015 BKN080 23/23 Q1008 RMK TX28.6 DZ CESO 2144Z BIRD HAZARD RWY 09/27 PP042,SPMS,2025-01-27T22:00:00Z,-5.895,-76.111,23,23,320,4,,6+,29.76,,,,,,,,,,,SCT,1500,BKN,8000,,,,,VFR,,,,,,,,,,,,METAR,149
SPME 272200Z 30007KT 9999 SCT020 SCT030 28/21 Q1007 RMK BIRD HAZARD RWY 32/14 PP000,SPME,2025-01-27T22:00:00Z,-3.551,-80.385,28,21,300,7,,6+,29.73,,,,,,,,,,,SCT,2000,SCT,3000,,,,,VFR,,,,,,,,,,,,METAR,26
SPJR 272200Z 08005KT 030V140 8000 -RA SCT020 BKN050 16/13 Q1022 RMK TX21.0 PP006,SPJR,2025-01-27T22:00:00Z,-7.139,-78.489,16,13,80,5,,4.97,30.18,,,,,,,,,,-RA,SCT,2000,BKN,5000,,,,,MVFR,,,,,,,,,,,,METAR,2622
SPJL 272200Z 07005KT 9999 VCSH SCT025 15/04 Q1031 RMK SH S BIRD HAZARD RWY 12/30 TX14.8 PP000,SPJL,2025-01-27T22:00:00Z,-15.467,-70.158,15,4,70,5,,6+,30.44,,,,,,,,,,VCSH,SCT,2500,,,,,,,VFR,,,,,,,,,,,,METAR,3837
SPJJ 272200Z 03004KT 9999 SCT040 BKN080 15/08 Q1027 RMK TX15.5 PP000,SPJJ,2025-01-27T22:00:00Z,-11.783,-75.473,15,8,30,4,,6+,30.32,,,,,,,,,,,SCT,4000,BKN,8000,,,,,VFR,,,,,,,,,,,,METAR,3363
SPJC 272200Z 19008KT CAVOK 24/18 Q1008 NOSIG RMK BIRD HAZARD RWY 16 TX25.6 PP000,SPJC,2025-01-27T22:00:00Z,-12.024,-77.113,24,18,190,8,,6+,29.76,,,,,,TRUE,,,,,CAVOK,,,,,,,,VFR,,,,,,,,,,,,METAR,26
SPHO 272200Z VRB04KT 9999 VCSH SCT040TCU SCT080 23/08 Q1021 RMK SH N BIRD HAZARD RWY 02/20 TX24.6 PP000,SPHO,2025-01-27T22:00:00Z,-13.155,-74.204,23,8,VRB,4,,6+,30.15,,,,,,,,,,VCSH,SCT,4000,SCT,8000,,,,,VFR,,,,,,,,,,,,METAR,2743
SPHI 272200Z 18017KT CAVOK 25/18 Q1007 RMK TX26.1 BIRD HAZARD RWY 19/01 PP000,SPHI,2025-01-27T22:00:00Z,-6.787,-79.828,25,18,180,17,,6+,29.73,,,,,,,,,,,CAVOK,,,,,,,,VFR,,,,,,,,,,,,METAR,33
SPCL 272200Z VRB02KT 9999 SCT020 SCT070 32/22 Q1007 RMK TX32.8 BIRD HAZARD RWY 02/20 PP000,SPCL,2025-01-27T22:00:00Z,-8.378,-74.574,32,22,VRB,2,,6+,29.73,,,,,,,,,,,SCT,2000,SCT,7000,,,,,VFR,,,,,,,,,,,,METAR,154
SOCA 272200Z AUTO VRB02KT CAVOK 27/25 Q1010 NOSIG,SOCA,2025-01-27T22:00:00Z,4.822,-52.365,27,25,VRB,2,,6+,29.82,,,TRUE,,,TRUE,,,,,CAVOK,,,,,,,,VFR,,,,,,,,,,,,METAR,7
SLVR 272200Z 36013G23KT 9999 FEW017 BKN200 30/23 Q1006,SLVR,2025-01-27T22:00:00Z,-17.645,-63.135,30,23,360,13,23,6+,29.70,,,,,,,,,,,FEW,1700,BKN,20000,,,,,VFR,,,,,,,,,,,,METAR,377
SLTR 272200Z 33004KT 9999 FEW017 FEW020CB BKN200 27/24 Q1006,SLTR,2025-01-27T22:00:00Z,-14.819,-64.918,27,24,330,4,,6+,29.70,,,,,,,,,,,FEW,1700,FEW,2000,BKN,20000,,,VFR,,,,,,,,,,,,METAR,157
SLTJ 272200Z 15004KT 9999 TS SCT030 FEW040CB SCT070 BKN200 23/18 Q1015,SLTJ,2025-01-27T22:00:00Z,-21.556,-64.701,23,18,150,4,,6+,29.97,,,,,,,,,,TS,SCT,3000,FEW,4000,SCT,7000,BKN,20000,VFR,,,,,,,,,,,,METAR,1850
SLSV 272200Z 36006KT 9999 BKN017 FEW025CB BKN200 26/24 Q1007,SLSV,2025-01-27T22:00:00Z,-16.401,-61.046,26,24,360,6,,6+,29.73,,,,,,,,,,,BKN,1700,FEW,2500,BKN,20000,,,MVFR,,,,,,,,,,,,METAR,450
SLSA 272200Z 32006KT 9999 FEW020 FEW025CB BKN200 32/23 Q1008,SLSA,2025-01-27T22:00:00Z,-13.762,-65.435,32,23,320,6,,6+,29.76,,,,,,,,,,,FEW,2000,FEW,2500,BKN,20000,,,VFR,,,,,,,,,,,,METAR,144
SLRQ 272200Z 33004KT 9999 FEW020 FEW025CB BKN200 32/26 Q1005,SLRQ,2025-01-27T22:00:00Z,-14.429,-67.503,32,26,330,4,,6+,29.68,,,,,,,,,,,FEW,2000,FEW,2500,BKN,20000,,,VFR,,,,,,,,,,,,METAR,209
SLRI 272200Z 00000KT 9999 FEW017 FEW020CB BKN200 31/25 Q1009,SLRI,2025-01-27T22:00:00Z,-11.007,-66.076,31,25,0,0,,6+,29.79,,,,,,,,,,,FEW,1700,FEW,2000,BKN,20000,,,VFR,,,,,,,,,,,,METAR,136
SLRB 272200Z 00000KT 9999 SCT020 33/25 Q1009,SLRB,2025-01-27T22:00:00Z,-18.33,-59.763,33,25,0,0,,6+,29.79,,,,,,,,,,,SCT,2000,,,,,,,VFR,,,,,,,,,,,,METAR,266
SLPS 272200Z 00000KT 9999 FEW017 BKN200 33/23 Q1006,SLPS,2025-01-27T22:00:00Z,-18.981,-57.821,33,23,0,0,,6+,29.70,,,,,,,,,,,FEW,1700,BKN,20000,,,,,VFR,,,,,,,,,,,,METAR,136
SLPO 272200Z 06015KT 9999 SCT020 FEW027CB BKN200 13/05 Q1038,SLPO,2025-01-27T22:00:00Z,-19.543,-65.724,13,5,60,15,,6+,30.65,,,,,,,,,,,SCT,2000,FEW,2700,BKN,20000,,,VFR,,,,,,,,,,,,METAR,3915
SLMG 272200Z 00000KT 9999 FEW017 FEW023CB BKN200 29/25 Q1006,SLMG,2025-01-27T22:00:00Z,-13.262,-64.059,29,25,0,0,,6+,29.70,,,,,,,,,,,FEW,1700,FEW,2300,BKN,20000,,,VFR,,,,,,,,,,,,METAR,146
SLLP 272200Z 32006KT 9999 FEW017 FEW020CB BKN200 12/06 Q1034,SLLP,2025-01-27T22:00:00Z,-16.511,-68.182,12,6,320,6,,6+,30.53,,,,,,,,,,,FEW,1700,FEW,2000,BKN,20000,,,VFR,,,,,,,,,,,,METAR,4061
SLJE 272200Z 35004KT 9999 FEW020 32/24 Q1009,SLJE,2025-01-27T22:00:00Z,-17.832,-60.744,32,24,350,4,,6+,29.79,,,,,,,,,,,FEW,2000,,,,,,,VFR,,,,,,,,,,,,METAR,286
SLET 272200Z 34013G24KT 9999 FEW017 BKN200 31/23 Q1006,SLET,2025-01-27T22:00:00Z,-17.812,-63.172,31,23,340,13,24,6+,29.70,,,,,,,,,,,FEW,1700,BKN,20000,,,,,VFR,,,,,,,,,,,,METAR,421
SLCP 272200Z 36005KT 9999 SCT017 BKN200 28/24 Q1011,SLCP,2025-01-27T22:00:00Z,-16.138,-62.028,28,24,360,5,,6+,29.85,,,,,,,,,,,SCT,1700,BKN,20000,,,,,VFR,,,,,,,,,,,,METAR,502
SLCO 272200Z 02004KT 9999 FEW025 30/24 Q1006,SLCO,2025-01-27T22:00:00Z,-11.04,-68.782,30,24,20,4,,6+,29.70,,,,,,,,,,,FEW,2500,,,,,,,VFR,,,,,,,,,,,,METAR,238
SLCB 272200Z 27008KT 200V290 9999 FEW030 FEW033CB BKN200 26/09 Q1018,SLCB,2025-01-27T22:00:00Z,-17.421,-66.179,26,9,270,8,,6+,30.06,,,,,,,,,,,FEW,3000,FEW,3300,BKN,20000,,,VFR,,,,,,,,,,,,METAR,2560
SLCA 272200Z 36003KT 9999 FEW036 BKN200 34/20 Q1008,SLCA,2025-01-27T22:00:00Z,-20.006,-63.528,34,20,360,3,,6+,29.76,,,,,,,,,,,FEW,3600,BKN,20000,,,,,VFR,,,,,,,,,,,,METAR,796
SLAL 272200Z 06015KT 9999 SCT023 FEW030CB SCT200 19/10 Q1025,SLAL,2025-01-27T22:00:00Z,-19.247,-65.15,19,10,60,15,,6+,30.27,,,,,,,,,,,SCT,2300,FEW,3000,SCT,20000,,,VFR,,,,,,,,,,,,METAR,3109
SKYP 272200Z 06008KT 9999 FEW040 31/18 Q1008,SKYP,2025-01-27T22:00:00Z,5.319,-72.384,31,18,60,8,,6+,29.76,,,,,,,,,,,FEW,4000,,,,,,,VFR,,,,,,,,,,,,METAR,312
SKVV 272200Z 08004KT 9999 FEW023 30/20 Q1009,SKVV,2025-01-27T22:00:00Z,4.162,-73.618,30,20,80,4,,6+,29.79,,,,,,,,,,,FEW,2300,,,,,,,VFR,,,,,,,,,,,,METAR,421
SKVP 272200Z 06005KT 9999 FEW020 36/15 Q1006,SKVP,2025-01-27T22:00:00Z,10.436,-73.248,36,15,60,5,,6+,29.70,,,,,,,,,,,FEW,2000,,,,,,,VFR,,,,,,,,,,,,METAR,137
SKUI 272200Z 03007KT 8000 TS VCSH BKN020 FEW022CB 27/25 Q1006 RMK CB VCSH/NE,SKUI,2025-01-27T22:00:00Z,5.691,-76.644,27,25,30,7,,4.97,29.70,,,,,,,,,,TS VCSH,BKN,2000,FEW,2200,,,,,MVFR,,,,,,,,,,,,METAR,55
SKUC 272200Z 36002KT 9999 FEW025 32/20 Q1008,SKUC,2025-01-27T22:00:00Z,7.066,-70.735,32,20,360,2,,6+,29.76,,,,,,,,,,,FEW,2500,,,,,,,VFR,,,,,,,,,,,,METAR,127
SKTM 272200Z AUTO 35008KT 320V020 CAVOK 30/18 Q1010,SKTM,2025-01-27T22:00:00Z,6.451,-71.76,30,18,350,8,,6+,29.82,,,TRUE,,,,,,,,CAVOK,,,,,,,,VFR,,,,,,,,,,,,METAR,361
SKSP 272200Z 06012KT 9999 FEW017 29/24 Q1010,SKSP,2025-01-27T22:00:00Z,12.587,-81.704,29,24,60,12,,6+,29.82,,,,,,,,,,,FEW,1700,,,,,,,VFR,,,,,,,,,,,,METAR,6
SKSM 272200Z 02013KT 9999 FEW020 32/22 Q1006,SKSM,2025-01-27T22:00:00Z,11.12,-74.231,32,22,20,13,,6+,29.70,,,,,,,,,,,FEW,2000,,,,,,,VFR,,,,,,,,,,,,METAR,5
SKSJ 272200Z 06009KT 9999 NSC 30/23 Q1012,SKSJ,2025-01-27T22:00:00Z,2.574,-72.64,30,23,60,9,,6+,29.88,,,,,,,,,,,CLR,,,,,,,,VFR,,,,,,,,,,,,METAR,185
SKSA 272200Z AUTO 24005KT 190V280 CAVOK 30/19 Q1008,SKSA,2025-01-27T22:00:00Z,6.955,-71.86,30,19,240,5,,6+,29.76,,,TRUE,,,,,,,,CAVOK,,,,,,,,VFR,,,,,,,,,,,,METAR,207
SKRH 272200Z 07006KT CAVOK 33/22 Q1006,SKRH,2025-01-27T22:00:00Z,11.528,-72.918,33,22,70,6,,6+,29.70,,,,,,,,,,,CAVOK,,,,,,,,VFR,,,,,,,,,,,,METAR,11
SKRG 272200Z 10004KT 9999 FEW020 20/14 Q1021 NOSIG,SKRG,2025-01-27T22:00:00Z,6.169,-75.426,20,14,100,4,,6+,30.15,,,,,,TRUE,,,,,FEW,2000,,,,,,,VFR,,,,,,,,,,,,METAR,2132
SKQU 272200Z VRB01KT 9999 FEW070 30/21 Q1005,SKQU,2025-01-27T22:00:00Z,5.213,-74.884,30,21,VRB,1,,6+,29.68,,,,,,,,,,,FEW,7000,,,,,,,VFR,,,,,,,,,,,,METAR,467
SKPV 272200Z AUTO 08007KT 050V140 9999NDV // BKN021/// BKN052/// 28/24 Q1010,SKPV,2025-01-27T22:00:00Z,13.358,-81.358,28,24,80,7,,,29.82,,,TRUE,,,,,,,,BKN,2100,BKN,5200,,,,,,,,,,,,,,,,,METAR,7
SKPS 272200Z 34004KT 9999 BKN023 21/17 Q1016,SKPS,2025-01-27T22:00:00Z,1.394,-77.291,21,17,340,4,,6+,30.00,,,,,,,,,,,BKN,2300,,,,,,,MVFR,,,,,,,,,,,,METAR,1798
SKPP 272200Z VRB02KT 9999 SCT040 21/18 Q1015 REDZ,SKPP,2025-01-27T22:00:00Z,2.453,-76.609,21,18,VRB,2,,6+,29.97,,,,,,,,,,,SCT,4000,,,,,,,VFR,,,,,,,,,,,,METAR,1726
SKPE 272200Z 33007KT 300V010 4000 -RA SCT017CB BKN080 24/18 Q1012 RMK CB/S/SW,SKPE,2025-01-27T22:00:00Z,4.814,-75.735,24,18,330,7,,2.49,29.88,,,,,,,,,,-RA,SCT,1700,BKN,8000,,,,,IFR,,,,,,,,,,,,METAR,1341
SKPD 272200Z 35004KT 9999 SCT040 32/23 Q1007,SKPD,2025-01-27T22:00:00Z,3.854,-67.906,32,23,350,4,,6+,29.73,,,,,,,,,,,SCT,4000,,,,,,,VFR,,,,,,,,,,,,METAR,140
SKPC 272200Z 08007KT 9999 FEW023 35/20 Q1006,SKPC,2025-01-27T22:00:00Z,6.184,-67.491,35,20,80,7,,6+,29.70,,,,,,,,,,,FEW,2300,,,,,,,VFR,,,,,,,,,,,,METAR,51
SKNV 272200Z 20006KT 9999 FEW035 31/19 Q1008,SKNV,2025-01-27T22:00:00Z,2.949,-75.294,31,19,200,6,,6+,29.76,,,,,,,,,,,FEW,3500,,,,,,,VFR,,,,,,,,,,,,METAR,449
SKMZ 272200Z 15002KT 9000 BKN070 20/14 Q1022,SKMZ,2025-01-27T22:00:00Z,5.03,-75.47,20,14,150,2,,5.59,30.18,,,,,,,,,,,BKN,7000,,,,,,,VFR,,,,,,,,,,,,METAR,2075
SKMU 272200Z 03003KT 9999 NSC 27/23 Q1007,SKMU,2025-01-27T22:00:00Z,1.117,-70.083,27,23,30,3,,6+,29.73,,,,,,,,,,,CLR,,,,,,,,VFR,,,,,,,,,,,,METAR,207
SKMR 272200Z 31012KT 280V340 9999 FEW020 33/24 Q1005,SKMR,2025-01-27T22:00:00Z,8.826,-75.825,33,24,310,12,,6+,29.68,,,,,,,,,,,FEW,2000,,,,,,,VFR,,,,,,,,,,,,METAR,12
SKMD 272200Z 08008KT 9999 SCT035 SCT080 28/14 Q1014,SKMD,2025-01-27T22:00:00Z,6.221,-75.59,28,14,80,8,,6+,29.94,,,,,,,,,,,SCT,3500,SCT,8000,,,,,VFR,,,,,,,,,,,,METAR,1491
SKLT 272200Z 05003KT 9999 VCSH SCT017TCU 28/26 Q1006 RMK TCU VCSH/NW,SKLT,2025-01-27T22:00:00Z,-4.196,-69.943,28,26,50,3,,6+,29.70,,,,,,,,,,VCSH,SCT,1700,,,,,,,VFR,,,,,,,,,,,,METAR,78
SKLC 272200Z 34009KT 9999 FEW022 30/25 Q1006,SKLC,2025-01-27T22:00:00Z,7.817,-76.718,30,25,340,9,,6+,29.70,,,,,,,,,,,FEW,2200,,,,,,,VFR,,,,,,,,,,,,METAR,20
SKIP 272200Z 08007KT 9999 SCT016 SCT070 14/10 Q1026,SKIP,2025-01-27T22:00:00Z,0.858,-77.677,14,10,80,7,,6+,30.30,,,,,,,,,,,SCT,1600,SCT,7000,,,,,VFR,,,,,,,,,,,,METAR,2964
SKIB 272200Z AUTO 14007KT 110V180 //// R32///// // ////// 28/18 Q1013,SKIB,2025-01-27T22:00:00Z,4.418,-75.13,28,18,140,7,,,29.91,,,TRUE,,,,,,,,,,,,,,,,,,,,,,,,,,,,METAR,899
SKGY 272200Z 17006KT 140V210 9000 BKN053 17/10 Q1024,SKGY,2025-01-27T22:00:00Z,4.812,-74.065,17,10,170,6,,5.59,30.24,,,,,,,,,,,BKN,5300,,,,,,,VFR,,,,,,,,,,,,METAR,2557
SKGP 272200Z VRB02KT 3500 BR BKN010 BKN040 26/26 Q1006 RMK REDZ,SKGP,2025-01-27T22:00:00Z,2.57,-77.899,26,26,VRB,2,,2.17,29.70,,,,,,,,,,BR,BKN,1000,BKN,4000,,,,,IFR,,,,,,,,,,,,METAR,2
SKGO 272200Z 34003KT 280V020 9999 VCSH FEW060 SCT120 30/19 Q1009,SKGO,2025-01-27T22:00:00Z,4.758,-75.956,30,19,340,3,,6+,29.79,,,,,,,,,,VCSH,FEW,6000,SCT,12000,,,,,VFR,,,,,,,,,,,,METAR,908
SKGI 272200Z 14006KT 9999 NSC 32/19 Q1004,SKGI,2025-01-27T22:00:00Z,4.276,-74.797,32,19,140,6,,6+,29.65,,,,,,,,,,,CLR,,,,,,,,VFR,,,,,,,,,,,,METAR,282
SKFL 272200Z 23004KT 200V280 9999 SCT025 31/23 Q1008,SKFL,2025-01-27T22:00:00Z,1.589,-75.564,31,23,230,4,,6+,29.76,,,,,,,,,,,SCT,2500,,,,,,,VFR,,,,,,,,,,,,METAR,244
SKEJ 272200Z 13004KT 9999 FEW020 34/22 Q1004,SKEJ,2025-01-27T22:00:00Z,7.026,-73.809,34,22,130,4,,6+,29.65,,,,,,,,,,,FEW,2000,,,,,,,VFR,,,,,,,,,,,,METAR,123
SKCZ 272200Z AUTO 31009KT CAVOK 31/24 Q1005,SKCZ,2025-01-27T22:00:00Z,9.334,-75.283,31,24,310,9,,6+,29.68,,,TRUE,,,,,,,,CAVOK,,,,,,,,VFR,,,,,,,,,,,,METAR,81
SKCO 272200Z 27010KT 240V300 9999 SCT025 BKN035 29/24 Q1006,SKCO,2025-01-27T22:00:00Z,1.814,-78.749,29,24,270,10,,6+,29.70,,,,,,,,,,,SCT,2500,BKN,3500,,,,,VFR,,,,,,,,,,,,METAR,6
SKCL 272200Z 32011KT 9999 FEW030 BKN100 29/18 Q1009 NOSIG,SKCL,2025-01-27T22:00:00Z,3.543,-76.382,29,18,320,11,,6+,29.79,,,,,,TRUE,,,,,FEW,3000,BKN,10000,,,,,VFR,,,,,,,,,,,,METAR,967
SKCG 272200Z 36010KT CAVOK 29/23 Q1006,SKCG,2025-01-27T22:00:00Z,10.447,-75.516,29,23,360,10,,6+,29.70,,,,,,,,,,,CAVOK,,,,,,,,VFR,,,,,,,,,,,,METAR,6
SKCC 272200Z 34008KT 9999 FEW017 SCT080 29/20 Q1009,SKCC,2025-01-27T22:00:00Z,7.93,-72.509,29,20,340,8,,6+,29.79,,,,,,,,,,,FEW,1700,SCT,8000,,,,,VFR,,,,,,,,,,,,METAR,308
SKBU 272200Z 00000KT 8000 DZ SCT025 27/25 Q1006,SKBU,2025-01-27T22:00:00Z,3.82,-76.992,27,25,0,0,,4.97,29.70,,,,,,,,,,DZ,SCT,2500,,,,,,,MVFR,,,,,,,,,,,,METAR,14
SKBS 272200Z 15005KT 9999 OVC020 26/25 Q1006,SKBS,2025-01-27T22:00:00Z,6.203,-77.395,26,25,150,5,,6+,29.70,,,,,,,,,,,OVC,2000,,,,,,,MVFR,,,,,,,,,,,,METAR,24
SKBQ 272200Z 02011KT 350V050 CAVOK 28/23 Q1006 NOSIG,SKBQ,2025-01-27T22:00:00Z,10.883,-74.78,28,23,20,11,,6+,29.70,,,,,,TRUE,,,,,CAVOK,,,,,,,,VFR,,,,,,,,,,,,METAR,23
SKBO 272200Z 10006KT 040V150 9999 SCT020 18/09 Q1023 NOSIG,SKBO,2025-01-27T22:00:00Z,4.706,-74.151,18,9,100,6,,6+,30.21,,,,,,TRUE,,,,,SCT,2000,,,,,,,VFR,,,,,,,,,,,,METAR,2547
SKBG 272200Z 32005KT 9999 SCT015 SCT070 26/21 Q1011 WS R35,SKBG,2025-01-27T22:00:00Z,7.127,-73.185,26,21,320,5,,6+,29.85,,,,,,,,,,,SCT,1500,SCT,7000,,,,,VFR,,,,,,,,,,,,METAR,1187
SKAS 272200Z 32006KT 9999 SCT045 27/22 Q1008,SKAS,2025-01-27T22:00:00Z,0.505,-76.501,27,22,320,6,,6+,29.76,,,,,,,,,,,SCT,4500,,,,,,,VFR,,,,,,,,,,,,METAR,251
SKAR 272200Z 00000KT 9999 FEW020CB SCT023 SCT100 28/19 Q1011 RMK CB N,SKAR,2025-01-27T22:00:00Z,4.455,-75.766,28,19,0,0,,6+,29.85,,,,,,,,,,,FEW,2000,SCT,2300,SCT,10000,,,VFR,,,,,,,,,,,,METAR,1214
SGES 272200Z 12006KT 9999 SCT030 FEW040TCUBKN070 27/25 Q1009,SGES,2025-01-27T22:00:00Z,-25.461,-54.849,27,25,120,6,,6+,29.79,,,,,,,,,,,SCT,3000,BKN,7000,,,,,VFR,,,,,,,,,,,,METAR,256
SGAS 272200Z 15008KT CAVOK 28/23 Q1007,SGAS,2025-01-27T22:00:00Z,-25.248,-57.519,28,23,150,8,,6+,29.73,,,,,,,,,,,CAVOK,,,,,,,,VFR,,,,,,,,,,,,METAR,83
SETN 272200Z 27009KT 9999 BKN023 BKN080 27/23 Q1007,SETN,2025-01-27T22:00:00Z,0.979,-79.627,27,23,270,9,,6+,29.73,,,,,,,,,,,BKN,2300,BKN,8000,,,,,MVFR,,,,,,,,,,,,METAR,10
SEST 272200Z 16012KT 9999 FEW026 29/23 Q1005 RMK A2970,SEST,2025-01-27T22:00:00Z,-0.906,-89.619,29,23,160,12,,6+,29.68,,,,,,,,,,,FEW,2600,,,,,,,VFR,,,,,,,,,,,,METAR,13
SESM 272200Z 21002KT 9999 FEW007 SCT023 BKN100 21/20 Q1013 RMK A3001,SESM,2025-01-27T22:00:00Z,-1.505,-78.063,21,20,210,2,,6+,29.91,,,,,,,,,,,FEW,700,SCT,2300,BKN,10000,,,VFR,,,,,,,,,,,,METAR,1056
SESA 272200Z 24007KT 9999 FEW010 BKN100 27/22 Q1007 RMK A2975,SESA,2025-01-27T22:00:00Z,-2.205,-80.989,27,22,240,7,,6+,29.73,,,,,,,,,,,FEW,1000,BKN,10000,,,,,VFR,,,,,,,,,,,,METAR,6
SERO 272200Z 25006KT 9999 BKN020 SCT080 29/21 Q1007 RMK A2974,SERO,2025-01-27T22:00:00Z,-3.435,-79.978,29,21,250,6,,6+,29.73,,,,,,,,,,,BKN,2000,SCT,8000,,,,,MVFR,,,,,,,,,,,,METAR,6
SEQM 272200Z 02011KT 9999 SCT030 20/13 Q1020 NOSIG RMK A3014,SEQM,2025-01-27T22:00:00Z,-0.124,-78.354,20,13,20,11,,6+,30.12,,,,,,TRUE,,,,,SCT,3000,,,,,,,VFR,,,,,,,,,,,,METAR,2386
SENL 272200Z 27003KT 9999 FEW020 BKN100 24/22 Q1009 RMK A2981,SENL,2025-01-27T22:00:00Z,0.092,-76.869,24,22,270,3,,6+,29.79,,,,,,,,,,,FEW,2000,BKN,10000,,,,,VFR,,,,,,,,,,,,METAR,293
SEMT 272200Z 27011KT 9999 FEW026 SCT100 28/22 Q1005 RMK A2970,SEMT,2025-01-27T22:00:00Z,-0.946,-80.679,28,22,270,11,,6+,29.68,,,,,,,,,,,FEW,2600,SCT,10000,,,,,VFR,,,,,,,,,,,,METAR,13
SEMC 272200Z 01007KT 9999 FEW033 23/17 Q1013 RMK A2992,SEMC,2025-01-27T22:00:00Z,-2.299,-78.121,23,17,10,7,,6+,29.91,,,,,,,,,,,FEW,3300,,,,,,,VFR,,,,,,,,,,,,METAR,1036
SELT 272200Z 17010KT 9999 BKN030 15/07 Q1025,SELT,2025-01-27T22:00:00Z,-0.921,-78.619,15,7,170,10,,6+,30.27,,,,,,,,,,,BKN,3000,,,,,,,MVFR,,,,,,,,,,,,METAR,2779
SEGU 272200Z 08003KT 050V260 9999 FEW023 BKN100 30/22 Q1006 NOSIG RMK A2970,SEGU,2025-01-27T22:00:00Z,-2.158,-79.884,30,22,80,3,,6+,29.70,,,,,,TRUE,,,,,FEW,2300,BKN,10000,,,,,VFR,,,,,,,,,,,,METAR,6
SEGS 272200Z 14013KT 9999 FEW023 29/21 Q1008 RMK A2977,SEGS,2025-01-27T22:00:00Z,-0.445,-90.269,29,21,140,13,,6+,29.76,,,,,,,,,,,FEW,2300,,,,,,,VFR,,,,,,,,,,,,METAR,51
SECU 272200Z 06011KT 9999 BKN040 20/07 Q1021,SECU,2025-01-27T22:00:00Z,-2.889,-78.984,20,7,60,11,,6+,30.15,,,,,,,,,,,BKN,4000,,,,,,,VFR,,,,,,,,,,,,METAR,2516
SECO 272200Z 03005KT 9999 VCSH SCT030 BKN100 26/24 Q1010 RMK A2982,SECO,2025-01-27T22:00:00Z,-0.461,-76.988,26,24,30,5,,6+,29.82,,,,,,,,,,VCSH,SCT,3000,BKN,10000,,,,,VFR,,,,,,,,,,,,METAR,256
SECA 272200Z 12008KT 9999 BKN040 BKN100 26/14 Q1013 RMK A2992,SECA,2025-01-27T22:00:00Z,-3.995,-79.372,26,14,120,8,,6+,29.91,,,,,,,,,,,BKN,4000,BKN,10000,,,,,VFR,,,,,,,,,,,,METAR,1237
SEAM 272200Z 03006KT 9999 BKN030 18/13 Q1026,SEAM,2025-01-27T22:00:00Z,-1.212,-78.575,18,13,30,6,,6+,30.30,,,,,,,,,,,BKN,3000,,,,,,,MVFR,,,,,,,,,,,,METAR,2520
SCVM 272200Z 20009KT CAVOK 28/12 Q1011,SCVM,2025-01-27T22:00:00Z,-32.947,-71.479,28,12,200,9,,6+,29.85,,,,,,,,,,,CAVOK,,,,,,,,VFR,,,,,,,,,,,,METAR,136
SCVD 272200Z 23012KT 190V250 CAVOK 21/08 Q1017,SCVD,2025-01-27T22:00:00Z,-39.65,-73.086,21,8,230,12,,6+,30.03,,,,,,,,,,,CAVOK,,,,,,,,VFR,,,,,,,,,,,,METAR,19
SCTN 272200Z AUTO 33007KT 300V360 CAVOK 16/09 Q1019,SCTN,2025-01-27T22:00:00Z,-42.933,-72.699,16,9,330,7,,6+,30.09,,,TRUE,,,,,,,,CAVOK,,,,,,,,VFR,,,,,,,,,,,,METAR,8
SCTE 272200Z 18009KT 140V220 9999 SCT048 SCT230 18/06 Q1019 NOSIG,SCTE,2025-01-27T22:00:00Z,-41.439,-73.094,18,6,180,9,,6+,30.09,,,,,,TRUE,,,,,SCT,4800,SCT,23000,,,,,VFR,,,,,,,,,,,,METAR,85
SCTB 272200Z 22010KT CAVOK 31/09 Q1012,SCTB,2025-01-27T22:00:00Z,-33.456,-70.547,31,9,220,10,,6+,29.88,,,,,,,,,,,CAVOK,,,,,,,,VFR,,,,,,,,,,,,METAR,655
SCSN 272200Z 24020KT CAVOK 18/12 Q1011,SCSN,2025-01-27T22:00:00Z,-33.656,-71.615,18,12,240,20,,6+,29.85,,,,,,,,,,,CAVOK,,,,,,,,VFR,,,,,,,,,,,,METAR,73
SCSE 272200Z 29011KT CAVOK 19/13 Q1011,SCSE,2025-01-27T22:00:00Z,-29.918,-71.201,19,13,290,11,,6+,29.85,,,,,,,,,,,CAVOK,,,,,,,,VFR,,,,,,,,,,,,METAR,141
SCRM 272200Z 11028G38KT 3000 -GS OVC004 00/M00 Q0966 NOSIG,SCRM,2025-01-27T22:00:00Z,-62.191,-58.987,0,0,110,28,38,1.86,28.52,,,,,,TRUE,,,,-GS,OVC,400,,,,,,,LIFR,,,,,,,,,,,,METAR,45
SCRG 272200Z 18011KT CAVOK 31/09 Q1011,SCRG,2025-01-27T22:00:00Z,-34.174,-70.776,31,9,180,11,,6+,29.85,,,,,,,,,,,CAVOK,,,,,,,,VFR,,,,,,,,,,,,METAR,488
SCRD 272200Z 17018KT CAVOK 23/13 Q1012,SCRD,2025-01-27T22:00:00Z,-33.068,-71.557,23,13,170,18,,6+,29.88,,,,,,,,,,,CAVOK,,,,,,,,VFR,,,,,,,,,,,,METAR,342
SCQP 272200Z 25012KT CAVOK 21/09 Q1016,SCQP,2025-01-27T22:00:00Z,-38.925,-72.648,21,9,250,12,,6+,30.00,,,,,,,,,,,CAVOK,,,,,,,,VFR,,,,,,,,,,,,METAR,97
SCPQ 272200Z AUTO 23010KT 200V260 CAVOK 16/05 Q1019,SCPQ,2025-01-27T22:00:00Z,-42.347,-73.718,16,5,230,10,,6+,30.09,,,TRUE,,,,,,,,CAVOK,,,,,,,,VFR,,,,,,,,,,,,METAR,166
SCPD 272200Z 19016KT CAVOK 32/09 Q1011,SCPD,2025-01-27T22:00:00Z,-33.1173,-70.6838,32,9,190,16,,6+,29.85,,,,,,,,,,,CAVOK,,,,,,,,VFR,,,,,,,,,,,,METAR,360
SCNT 272200Z 31023G35KT 9999 BKN050 SCT200 12/02 Q0995,SCNT,2025-01-27T22:00:00Z,-51.672,-72.528,12,2,310,23,35,6+,29.38,,,,,,,,,,,BKN,5000,SCT,20000,,,,,VFR,,,,,,,,,,,,METAR,68
SCJO 272200Z VRB03KT 9999 SCT050 21/07 Q1018,SCJO,2025-01-27T22:00:00Z,-40.605,-73.061,21,7,VRB,3,,6+,30.06,,,,,,,,,,,SCT,5000,,,,,,,VFR,,,,,,,,,,,,METAR,61
SCIR 272200Z 15018KT 9999 SCT025 20/11 Q1021,SCIR,2025-01-27T22:00:00Z,-33.666,-78.93,20,11,150,18,,6+,30.15,,,,,,,,,,,SCT,2500,,,,,,,VFR,,,,,,,,,,,,METAR,132
SCIP 272200Z 11015KT 9999 FEW015 28/21 Q1021 NOSIG,SCIP,2025-01-27T22:00:00Z,-27.161,-109.427,28,21,110,15,,6+,30.15,,,,,,TRUE,,,,,FEW,1500,,,,,,,VFR,,,,,,,,,,,,METAR,48
SCIE 272200Z 23018KT CAVOK 21/10 Q1013,SCIE,2025-01-27T22:00:00Z,-36.773,-73.063,21,10,230,18,,6+,29.91,,,,,,,,,,,CAVOK,,,,,,,,VFR,,,,,,,,,,,,METAR,8
SCIC 272200Z 14012KT CAVOK 30/12 Q1010,SCIC,2025-01-27T22:00:00Z,-34.966,-71.217,30,12,140,12,,6+,29.82,,,,,,,,,,,CAVOK,,,,,,,,VFR,,,,,,,,,,,,METAR,230
SCGE 272200Z 19015KT CAVOK 26/03 Q1013,SCGE,2025-01-27T22:00:00Z,-37.403,-72.422,26,3,190,15,,6+,29.91,,,,,,,,,,,CAVOK,,,,,,,,VFR,,,,,,,,,,,,METAR,122
SCFT 272200Z AUTO 27013KT 240V300 9999 -SHRA OVC059/// 14/05 Q1017,SCFT,2025-01-27T22:00:00Z,-43.189,-71.853,14,5,270,13,,6+,30.03,,,TRUE,,,,,,,-SHRA,OVC,5900,,,,,,,VFR,,,,,,,,,,,,METAR,345
SCFA 272200Z 20014KT 9999 BKN027 21/16 Q1009 NOSIG,SCFA,2025-01-27T22:00:00Z,-23.45,-70.441,21,16,200,14,,6+,29.79,,,,,,TRUE,,,,,BKN,2700,,,,,,,MVFR,,,,,,,,,,,,METAR,113
SCEL 272200Z 21017KT CAVOK 30/08 Q1010 NOSIG,SCEL,2025-01-27T22:00:00Z,-33.393,-70.786,30,8,210,17,,6+,29.82,,,,,,TRUE,,,,,CAVOK,,,,,,,,VFR,,,,,,,,,,,,METAR,478
SCDA 272200Z 22012KT CAVOK 23/16 Q1009,SCDA,2025-01-27T22:00:00Z,-20.535,-70.181,23,16,220,12,,6+,29.79,,,,,,,,,,,CAVOK,,,,,,,,VFR,,,,,,,,,,,,METAR,41
SCCI 272200Z 27031G41KT 9999 SCT040 12/03 Q0990 NOSIG,SCCI,2025-01-27T22:00:00Z,-53.003,-70.855,12,3,270,31,41,6+,29.23,,,,,,TRUE,,,,,SCT,4000,,,,,,,VFR,,,,,,,,,,,,METAR,37
SCCH 272200Z 22012KT CAVOK 28/07 Q1011,SCCH,2025-01-27T22:00:00Z,-36.583,-72.031,28,7,220,12,,6+,29.85,,,,,,,,,,,CAVOK,,,,,,,,VFR,,,,,,,,,,,,METAR,148
SCCF 272200Z 27028KT CAVOK 26/M04 Q1020,SCCF,2025-01-27T22:00:00Z,-22.496,-68.905,26,-4,270,28,,6+,30.12,,,,,,,,,,,CAVOK,,,,,,,,VFR,,,,,,,,,,,,METAR,2290
SCAT 272200Z 26010KT 9999 BKN020 20/14 Q1010,SCAT,2025-01-27T22:00:00Z,-27.262,-70.774,20,14,260,10,,6+,29.82,,,,,,,,,,,BKN,2000,,,,,,,MVFR,,,,,,,,,,,,METAR,209
SCAR 272200Z 20013KT CAVOK 23/15 Q1010,SCAR,2025-01-27T22:00:00Z,-18.351,-70.336,23,15,200,13,,6+,29.82,,,,,,,,,,,CAVOK,,,,,,,,VFR,,,,,,,,,,,,METAR,57
SBYS 272200Z 06006KT 9999 VCSH FEW040 FEW045TCU SCT100 25/22 Q1013,SBYS,2025-01-27T22:00:00Z,-21.982,-47.34,25,22,60,6,,6+,29.91,,,,,,,,,,VCSH,FEW,4000,FEW,4500,SCT,10000,,,VFR,,,,,,,,,,,,METAR,600
SBVT 272200Z 04010KT 9999 FEW030 27/22 Q1012,SBVT,2025-01-27T22:00:00Z,-20.258,-40.286,27,22,40,10,,6+,29.88,,,,,,,,,,,FEW,3000,,,,,,,VFR,,,,,,,,,,,,METAR,4
SBVH 272200Z 07017KT 9999 TS VCSH BKN030 FEW035CB 23/20 Q1013,SBVH,2025-01-27T22:00:00Z,-12.694,-60.098,23,20,70,17,,6+,29.91,,,,,,,,,,TS VCSH,BKN,3000,FEW,3500,,,,,MVFR,,,,,,,,,,,,METAR,615
SBUY 272200Z 35004KT 9999 FEW030 SCT100 30/23 Q1006,SBUY,2025-01-27T22:00:00Z,-4.884,-65.354,30,23,350,4,,6+,29.70,,,,,,,,,,,FEW,3000,SCT,10000,,,,,VFR,,,,,,,,,,,,METAR,44
SBUR 272200Z 16007KT 9999 FEW038 SCT080 24/21 Q1015,SBUR,2025-01-27T22:00:00Z,-19.765,-47.965,24,21,160,7,,6+,29.97,,,,,,,,,,,FEW,3800,SCT,8000,,,,,VFR,,,,,,,,,,,,METAR,807
SBUL 272200Z 09003KT 9999 VCTS SCT030 FEW035CB 24/20 Q1015,SBUL,2025-01-27T22:00:00Z,-18.883,-48.226,24,20,90,3,,6+,29.97,,,,,,,,,,VCTS,SCT,3000,FEW,3500,,,,,VFR,,,,,,,,,,,,METAR,945
SBTU 272200Z AUTO 31004KT 9999 // SCT044/// SCT054/// ///// Q1011,SBTU,2025-01-27T22:00:00Z,-3.786,-49.72,,,310,4,,6+,29.85,,,TRUE,,,,,,,,SCT,4400,SCT,5400,,,,,VFR,,,,,,,,,,,,METAR,250
SBTT 272200Z 12006KT 9999 FEW030 OVC080 27/24 Q1007,SBTT,2025-01-27T22:00:00Z,-4.254,-69.939,27,24,120,6,,6+,29.73,,,,,,,,,,,FEW,3000,OVC,8000,,,,,VFR,,,,,,,,,,,,METAR,79
SBTF 272200Z 09003KT 9999 FEW013 SCT090 26/25 Q1007,SBTF,2025-01-27T22:00:00Z,-3.383,-64.724,26,25,90,3,,6+,29.73,,,,,,,,,,,FEW,1300,SCT,9000,,,,,VFR,,,,,,,,,,,,METAR,55
SBTE 272200Z 01003KT 9999 TS SCT020 SCT030 FEW040CB BKN090 30/23 Q1009,SBTE,2025-01-27T22:00:00Z,-5.06,-42.824,30,23,10,3,,6+,29.79,,,,,,,,,,TS,SCT,2000,SCT,3000,FEW,4000,BKN,9000,VFR,,,,,,,,,,,,METAR,60
SBTA 272200Z 17004KT 9999 SCT012 BKN025 FEW030TCU 23/22 Q1013,SBTA,2025-01-27T22:00:00Z,-23.04,-45.516,23,22,170,4,,6+,29.91,,,,,,,,,,,SCT,1200,BKN,2500,FEW,3000,,,MVFR,,,,,,,,,,,,METAR,578
SBSV 272200Z 08011KT 9999 FEW021 28/23 Q1011,SBSV,2025-01-27T22:00:00Z,-12.911,-38.331,28,23,80,11,,6+,29.85,,,,,,,,,,,FEW,2100,,,,,,,VFR,,,,,,,,,,,,METAR,9
SBSR 272200Z 03003KT 9999 FEW045 BKN090 27/19 Q1013,SBSR,2025-01-27T22:00:00Z,-20.817,-49.407,27,19,30,3,,6+,29.91,,,,,,,,,,,FEW,4500,BKN,9000,,,,,VFR,,,,,,,,,,,,METAR,537
SBSP 272200Z 12008KT 100V160 9000 BKN006 21/20 Q1016,SBSP,2025-01-27T22:00:00Z,-23.627,-46.655,21,20,120,8,,5.59,30.00,,,,,,,,,,,BKN,600,,,,,,,IFR,,,,,,,,,,,,METAR,802
SBSN 272200Z 13002KT 9999 FEW020 29/24 Q1007,SBSN,2025-01-27T22:00:00Z,-2.423,-54.789,29,24,130,2,,6+,29.73,,,,,,,,,,,FEW,2000,,,,,,,VFR,,,,,,,,,,,,METAR,57
SBSM 272200Z 04004KT 9999 FEW040 FEW045TCU 27/23 Q1009,SBSM,2025-01-27T22:00:00Z,-29.711,-53.688,27,23,40,4,,6+,29.79,,,,,,,,,,,FEW,4000,FEW,4500,,,,,VFR,,,,,,,,,,,,METAR,86
SBSL 272200Z 06010KT 9999 FEW023 SCT070 27/24 Q1010,SBSL,2025-01-27T22:00:00Z,-2.585,-44.234,27,24,60,10,,6+,29.82,,,,,,,,,,,FEW,2300,SCT,7000,,,,,VFR,,,,,,,,,,,,METAR,53
SBSG 272200Z 08006KT 9999 VCTS SCT025 FEW030CB 27/23 Q1012,SBSG,2025-01-27T22:00:00Z,-5.768,-35.376,27,23,80,6,,6+,29.88,,,,,,,,,,VCTS,SCT,2500,FEW,3000,,,,,VFR,,,,,,,,,,,,METAR,83
SBSC 272200Z 17002KT 9999 BKN030 25/21 Q1012,SBSC,2025-01-27T22:00:00Z,-22.932,-43.719,25,21,170,2,,6+,29.88,,,,,,,,,,,BKN,3000,,,,,,,MVFR,,,,,,,,,,,,METAR,6
SBRP 272200Z 33009KT 9999 FEW040 BKN100 27/20 Q1012,SBRP,2025-01-27T22:00:00Z,-21.134,-47.774,27,20,330,9,,6+,29.88,,,,,,,,,,,FEW,4000,BKN,10000,,,,,VFR,,,,,,,,,,,,METAR,550
SBRJ 272200Z 16009KT 9999 FEW025 BKN035 BKN100 26/21 Q1011,SBRJ,2025-01-27T22:00:00Z,-22.91,-43.163,26,21,160,9,,6+,29.85,,,,,,,,,,,FEW,2500,BKN,3500,BKN,10000,,,VFR,,,,,,,,,,,,METAR,6
SBRF 272200Z 35002KT 8000 VCSH SCT020 BKN050 26/24 Q1012,SBRF,2025-01-27T22:00:00Z,-8.126,-34.923,26,24,350,2,,4.97,29.88,,,,,,,,,,VCSH,SCT,2000,BKN,5000,,,,,MVFR,,,,,,,,,,,,METAR,10
SBRB 272200Z 34006KT 9999 VCSH SCT030 FEW040TCU SCT060 25/23 Q1008,SBRB,2025-01-27T22:00:00Z,-9.867,-67.897,25,23,340,6,,6+,29.76,,,,,,,,,,VCSH,SCT,3000,FEW,4000,SCT,6000,,,VFR,,,,,,,,,,,,METAR,190
SBPV 272200Z 08005KT 9999 FEW025 32/21 Q1006,SBPV,2025-01-27T22:00:00Z,-8.708,-63.901,32,21,80,5,,6+,29.70,,,,,,,,,,,FEW,2500,,,,,,,VFR,,,,,,,,,,,,METAR,89
SBPS 272200Z 05010KT 9999 FEW025 27/23 Q1012,SBPS,2025-01-27T22:00:00Z,-16.439,-39.081,27,23,50,10,,6+,29.88,,,,,,,,,,,FEW,2500,,,,,,,VFR,,,,,,,,,,,,METAR,44
SBPL 272200Z 12004KT 9999 FEW030 SCT070 27/23 Q1012,SBPL,2025-01-27T22:00:00Z,-9.367,-40.565,27,23,120,4,,6+,29.88,,,,,,,,,,,FEW,3000,SCT,7000,,,,,VFR,,,,,,,,,,,,METAR,386
SBPK 272200Z 09014KT 9999 SCT018 FEW035TCU BKN050 26/23 Q1013,SBPK,2025-01-27T22:00:00Z,-31.717,-52.328,26,23,90,14,,6+,29.91,,,,,,,,,,,SCT,1800,FEW,3500,BKN,5000,,,VFR,,,,,,,,,,,,METAR,17
SBPJ 272200Z 29002KT 9999 FEW035 FEW040TCU 26/24 Q1011,SBPJ,2025-01-27T22:00:00Z,-10.291,-48.357,26,24,290,2,,6+,29.85,,,,,,,,,,,FEW,3500,FEW,4000,,,,,VFR,,,,,,,,,,,,METAR,226
SBPF 272200Z 19012KT 9999 VCSH SCT025 SCT030 FEW034TCU BKN090 27/19 Q1013,SBPF,2025-01-27T22:00:00Z,-28.245,-52.334,27,19,190,12,,6+,29.91,,,,,,,,,,VCSH,SCT,2500,SCT,3000,FEW,3400,BKN,9000,VFR,,,,,,,,,,,,METAR,720
SBPA 272200Z 29006KT 240V330 3000 TSRA BKN025 FEW040CB BKN090 23/20 Q1011,SBPA,2025-01-27T22:00:00Z,-29.994,-51.171,23,20,290,6,,1.86,29.85,,,,,,,,,,TSRA,BKN,2500,FEW,4000,BKN,9000,,,IFR,,,,,,,,,,,,METAR,3
SBOI 272200Z AUTO 05003KT 020V090 CAVOK 27/24 Q1010,SBOI,2025-01-27T22:00:00Z,3.861,-51.796,27,24,50,3,,6+,29.82,,,TRUE,,,,,,,,CAVOK,,,,,,,,VFR,,,,,,,,,,,,METAR,15
SBNT 272200Z 08005KT 050V130 9999 FEW024 28/23 Q1012,SBNT,2025-01-27T22:00:00Z,-5.911,-35.248,28,23,80,5,,6+,29.88,,,,,,,,,,,FEW,2400,,,,,,,VFR,,,,,,,,,,,,METAR,51
SBNF 272200Z 11008KT 9999 SCT020 BKN070 27/22 Q1011,SBNF,2025-01-27T22:00:00Z,-26.88,-48.651,27,22,110,8,,6+,29.85,,,,,,,,,,,SCT,2000,BKN,7000,,,,,VFR,,,,,,,,,,,,METAR,5
SBMT 272200Z 13007KT 5000 BR BKN013 OVC015 21/18 Q1015,SBMT,2025-01-27T22:00:00Z,-23.509,-46.638,21,18,130,7,,3.11,29.97,,,,,,,,,,BR,BKN,1300,OVC,1500,,,,,MVFR,,,,,,,,,,,,METAR,722
SBMS 272200Z AUTO 03009KT CAVOK 28/25 Q1011,SBMS,2025-01-27T22:00:00Z,-5.202,-37.364,28,25,30,9,,6+,29.85,,,TRUE,,,,,,,,CAVOK,,,,,,,,VFR,,,,,,,,,,,,METAR,23
SBMQ 272200Z 12007KT 9999 FEW027 FEW043TCU SCT065 29/25 Q1009,SBMQ,2025-01-27T22:00:00Z,0.051,-51.072,29,25,120,7,,6+,29.79,,,,,,,,,,,FEW,2700,FEW,4300,SCT,6500,,,VFR,,,,,,,,,,,,METAR,15
SBMO 272200Z 09006KT 9999 FEW023 26/23 Q1013,SBMO,2025-01-27T22:00:00Z,-9.511,-35.792,26,23,90,6,,6+,29.91,,,,,,,,,,,FEW,2300,,,,,,,VFR,,,,,,,,,,,,METAR,116
SBMN 272200Z 29004KT 250V320 9999 FEW025 SCT100 28/24 Q1008,SBMN,2025-01-27T22:00:00Z,-3.146,-59.986,28,24,290,4,,6+,29.76,,,,,,,,,,,FEW,2500,SCT,10000,,,,,VFR,,,,,,,,,,,,METAR,71
SBMK 272200Z 25005KT 9999 SCT045 28/20 Q1013,SBMK,2025-01-27T22:00:00Z,-16.705,-43.819,28,20,250,5,,6+,29.91,,,,,,,,,,,SCT,4500,,,,,,,VFR,,,,,,,,,,,,METAR,665
SBMG 272200Z 13014KT 9999 VCSH VCTS SCT005 FEW050CB BKN090 22/21 Q1011 RERA,SBMG,2025-01-27T22:00:00Z,-23.476,-52.017,22,21,130,14,,6+,29.85,,,,,,,,,,VCSH VCTS,SCT,500,FEW,5000,BKN,9000,,,VFR,,,,,,,,,,,,METAR,543
SBME 272200Z 00000KT 9999 FEW025 BKN100 27/24 Q1011,SBME,2025-01-27T22:00:00Z,-22.343,-41.766,27,24,0,0,,6+,29.85,,,,,,,,,,,FEW,2500,BKN,10000,,,,,VFR,,,,,,,,,,,,METAR,2
SBMA 272200Z 10002KT 9999 FEW020 FEW023TCU 28/24 Q1009,SBMA,2025-01-27T22:00:00Z,-5.368,-49.137,28,24,100,2,,6+,29.79,,,,,,,,,,,FEW,2000,FEW,2300,,,,,VFR,,,,,,,,,,,,METAR,110
SBLO 272200Z 08002KT 9999 FEW030 28/22 Q1012,SBLO,2025-01-27T22:00:00Z,-23.334,-51.13,28,22,80,2,,6+,29.88,,,,,,,,,,,FEW,3000,,,,,,,VFR,,,,,,,,,,,,METAR,563
SBLE 272200Z AUTO 13004KT //// NSC 28/18 Q1013,SBLE,2025-01-27T22:00:00Z,-12.482,-41.277,28,18,130,4,,,29.91,,,TRUE,,,,,,,,CLR,,,,,,,,,,,,,,,,,,,,METAR,495
SBLB 272200Z AUTO 03017KT 9999 NCD 27/23 Q1012 W28/S3,SBLB,2025-01-27T22:00:00Z,-22.109,-39.917,27,23,30,17,,6+,29.88,,,TRUE,,,,,,,,CLR,,,,,,,,VFR,,,,,,,,,,,,METAR,10
SBKP 272200Z 14010KT 9999 FEW030 FEW050TCU BKN100 24/21 Q1014,SBKP,2025-01-27T22:00:00Z,-23.007,-47.135,24,21,140,10,,6+,29.94,,,,,,,,,,,FEW,3000,FEW,5000,BKN,10000,,,VFR,,,,,,,,,,,,METAR,659
SBKG 272200Z 11005KT 9999 SCT017 BKN070 24/23 Q1015,SBKG,2025-01-27T22:00:00Z,-7.27,-35.895,24,23,110,5,,6+,29.97,,,,,,,,,,,SCT,1700,BKN,7000,,,,,VFR,,,,,,,,,,,,METAR,499
SBJV 272200Z 34004KT 9999 SCT020 BKN035 26/22 Q1012,SBJV,2025-01-27T22:00:00Z,-26.224,-48.797,26,22,340,4,,6+,29.88,,,,,,,,,,,SCT,2000,BKN,3500,,,,,VFR,,,,,,,,,,,,METAR,3
SBJU 272200Z 06003KT 9999 VCTS SCT020 FEW025CB 28/22 Q1013,SBJU,2025-01-27T22:00:00Z,-7.219,-39.27,28,22,60,3,,6+,29.91,,,,,,,,,,VCTS,SCT,2000,FEW,2500,,,,,VFR,,,,,,,,,,,,METAR,407
SBJR 272200Z 29001KT 9999 FEW017 BKN040 BKN090 25/23 Q1011,SBJR,2025-01-27T22:00:00Z,-22.988,-43.37,25,23,290,1,,6+,29.85,,,,,,,,,,,FEW,1700,BKN,4000,BKN,9000,,,VFR,,,,,,,,,,,,METAR,5
SBJP 272200Z 09004KT 9999 FEW022 27/24 Q1012,SBJP,2025-01-27T22:00:00Z,-7.148,-34.951,27,24,90,4,,6+,29.88,,,,,,,,,,,FEW,2200,,,,,,,VFR,,,,,,,,,,,,METAR,66
SBJE 272200Z 03005KT 9999 SCT020 27/24 Q1011,SBJE,2025-01-27T22:00:00Z,-2.907,-40.358,27,24,30,5,,6+,29.85,,,,,,,,,,,SCT,2000,,,,,,,VFR,,,,,,,,,,,,METAR,25
SBIP 272200Z AUTO 21005KT CAVOK 25/17 Q1012,SBIP,2025-01-27T22:00:00Z,-19.471,-42.488,25,17,210,5,,6+,29.88,,,TRUE,,,,,,,,CAVOK,,,,,,,,VFR,,,,,,,,,,,,METAR,240
SBIL 272200Z 08004KT CAVOK 27/22 Q1012,SBIL,2025-01-27T22:00:00Z,-14.816,-39.033,27,22,80,4,,6+,29.88,,,,,,,,,,,CAVOK,,,,,,,,VFR,,,,,,,,,,,,METAR,9
SBGW 272200Z 05003KT 7000 SCT030 BKN070 24/20 Q1014,SBGW,2025-01-27T22:00:00Z,-22.792,-45.205,24,20,50,3,,4.35,29.94,,,,,,,,,,,SCT,3000,BKN,7000,,,,,MVFR,,,,,,,,,,,,METAR,539
SBGR 272200Z 14005KT 9999 -RA BKN009 BKN040 OVC080 21/20 Q1015 RERA,SBGR,2025-01-27T22:00:00Z,-23.432,-46.469,21,20,140,5,,6+,29.97,,,,,,,,,,-RA,BKN,900,BKN,4000,OVC,8000,,,IFR,,,,,,,,,,,,METAR,745
SBGO 272200Z 31005KT 240V020 9999 FEW040 FEW045TCU SCT100 25/20 Q1013,SBGO,2025-01-27T22:00:00Z,-16.632,-49.221,25,20,310,5,,6+,29.91,,,,,,,,,,,FEW,4000,FEW,4500,SCT,10000,,,VFR,,,,,,,,,,,,METAR,740
SBGL 272200Z 15004KT 9999 FEW005 BKN033 27/22 Q1011,SBGL,2025-01-27T22:00:00Z,-22.815,-43.261,27,22,150,4,,6+,29.85,,,,,,,,,,,FEW,500,BKN,3300,,,,,VFR,,,,,,,,,,,,METAR,3
SBFZ 272200Z 07004KT 9999 SCT021 28/24 Q1011,SBFZ,2025-01-27T22:00:00Z,-3.776,-38.533,28,24,70,4,,6+,29.85,,,,,,,,,,,SCT,2100,,,,,,,VFR,,,,,,,,,,,,METAR,32
SBFN 272200Z AUTO 08003KT 040V120 9999 FEW019 27/23 Q1013,SBFN,2025-01-27T22:00:00Z,-3.855,-32.423,27,23,80,3,,6+,29.91,,,TRUE,,,,,,,,FEW,1900,,,,,,,VFR,,,,,,,,,,,,METAR,52
SBFL 272200Z 09009KT 9999 SCT022 OVC040 26/22 Q1012,SBFL,2025-01-27T22:00:00Z,-27.671,-48.547,26,22,90,9,,6+,29.88,,,,,,,,,,,SCT,2200,OVC,4000,,,,,VFR,,,,,,,,,,,,METAR,5
SBFI 272200Z 11008KT 9999 FEW013 SCT030 FEW035TCU 25/23 Q1010,SBFI,2025-01-27T22:00:00Z,-25.595,-54.488,25,23,110,8,,6+,29.82,,,,,,,,,,,FEW,1300,SCT,3000,FEW,3500,,,VFR,,,,,,,,,,,,METAR,233
SBES 272200Z 00000KT 9000 -RA SCT009 SCT025 OVC100 25/25 Q1012,SBES,2025-01-27T22:00:00Z,-22.813,-42.093,25,25,0,0,,5.59,29.88,,,,,,,,,,-RA,SCT,900,SCT,2500,OVC,10000,,,VFR,,,,,,,,,,,,METAR,16
SBEG 272200Z 28003KT 9999 FEW020 27/25 Q1008,SBEG,2025-01-27T22:00:00Z,-3.039,-60.05,27,25,280,3,,6+,29.76,,,,,,,,,,,FEW,2000,,,,,,,VFR,,,,,,,,,,,,METAR,69
SBDN 272200Z 33003KT 9999 FEW035 FEW050TCU 29/21 Q1011,SBDN,2025-01-27T22:00:00Z,-22.175,-51.427,29,21,330,3,,6+,29.85,,,,,,,,,,,FEW,3500,FEW,5000,,,,,VFR,,,,,,,,,,,,METAR,438
SBCZ 272200Z 30003KT 9999 FEW025TCU 29/24 Q1007,SBCZ,2025-01-27T22:00:00Z,-7.597,-72.774,29,24,300,3,,6+,29.73,,,,,,,,,,,FEW,2500,,,,,,,VFR,,,,,,,,,,,,METAR,193
SBCY 272200Z 33002KT 9999 FEW020 29/25 Q1009,SBCY,2025-01-27T22:00:00Z,-15.653,-56.116,29,25,330,2,,6+,29.79,,,,,,,,,,,FEW,2000,,,,,,,VFR,,,,,,,,,,,,METAR,182
SBCT 272200Z 10007KT 9000 BKN010 OVC020 21/19 Q1016,SBCT,2025-01-27T22:00:00Z,-25.529,-49.176,21,19,100,7,,5.59,30.00,,,,,,,,,,,BKN,1000,OVC,2000,,,,,MVFR,,,,,,,,,,,,METAR,914
SBCP 272200Z 09004KT 9999 SCT025 BKN070 26/24 Q1012,SBCP,2025-01-27T22:00:00Z,-21.701,-41.305,26,24,90,4,,6+,29.88,,,,,,,,,,,SCT,2500,BKN,7000,,,,,VFR,,,,,,,,,,,,METAR,15
SBCO 272200Z 26005KT 150V310 9999 4000E -TSRA FEW015 FEW040CB BKN050 22/21 Q1011,SBCO,2025-01-27T22:00:00Z,-29.945,-51.144,22,21,260,5,,6+,29.85,,,,,,,,,,-TSRA,FEW,1500,FEW,4000,BKN,5000,,,VFR,,,,,,,,,,,,METAR,8
SBCH 272200Z 32010KT 9999 BKN020 FEW040TCU SCT100 24/21 Q1013,SBCH,2025-01-27T22:00:00Z,-27.132,-52.662,24,21,320,10,,6+,29.91,,,,,,,,,,,BKN,2000,FEW,4000,SCT,10000,,,MVFR,,,,,,,,,,,,METAR,639
SBCG 272200Z 19008KT 9999 TS VCSH BKN040 FEW050CB BKN100 25/22 Q1011,SBCG,2025-01-27T22:00:00Z,-20.469,-54.672,25,22,190,8,,6+,29.85,,,,,,,,,,TS VCSH,BKN,4000,FEW,5000,BKN,10000,,,VFR,,,,,,,,,,,,METAR,556
SBCF 272200Z 26009G20KT 9999 TS VCSH SCT040 FEW045CB BKN100 23/18 Q1017,SBCF,2025-01-27T22:00:00Z,-19.635,-43.966,23,18,260,9,20,6+,30.03,,,,,,,,,,TS VCSH,SCT,4000,FEW,4500,BKN,10000,,,VFR,,,,,,,,,,,,METAR,825
SBCA 272200Z 13008KT 8000 -RA BCFG SCT003 BKN004 BKN020 21/20 Q1014 RETS,SBCA,2025-01-27T22:00:00Z,-25,-53.501,21,20,130,8,,4.97,29.94,,,,,,,,,,-RA BCFG,SCT,300,BKN,400,BKN,2000,,,LIFR,,,,,,,,,,,,METAR,753
SBBV 272200Z 11009KT 9999 FEW040 FEW045TCU SCT070 30/21 Q1008,SBBV,2025-01-27T22:00:00Z,2.846,-60.69,30,21,110,9,,6+,29.76,,,,,,,,,,,FEW,4000,FEW,4500,SCT,7000,,,VFR,,,,,,,,,,,,METAR,80
SBBU 272200Z 01004KT 9999 FEW030 BKN070 29/22 Q1012,SBBU,2025-01-27T22:00:00Z,-22.345,-49.054,29,22,10,4,,6+,29.88,,,,,,,,,,,FEW,3000,BKN,7000,,,,,VFR,,,,,,,,,,,,METAR,616
SBBR 272200Z 21007KT 9999 VCSH SCT030 FEW040TCU BKN100 22/20 Q1016,SBBR,2025-01-27T22:00:00Z,-15.867,-47.933,22,20,210,7,,6+,30.00,,,,,,,,,,VCSH,SCT,3000,FEW,4000,BKN,10000,,,VFR,,,,,,,,,,,,METAR,1051
SBBI 272200Z 09006KT 9999 -RA BKN009 SCT030 21/19 Q1016,SBBI,2025-01-27T22:00:00Z,-25.404,-49.232,21,19,90,6,,6+,30.00,,,,,,,,,,-RA,BKN,900,SCT,3000,,,,,IFR,,,,,,,,,,,,METAR,928
SBBH 272200Z 35014KT 3000 TSRA BKN045CB 22/19 Q1016,SBBH,2025-01-27T22:00:00Z,-19.851,-43.951,22,19,350,14,,1.86,30.00,,,,,,,,,,TSRA,BKN,4500,,,,,,,IFR,,,,,,,,,,,,METAR,799
SBBG 272200Z AUTO 11012KT 9999 FEW004 29/21 Q1010,SBBG,2025-01-27T22:00:00Z,-31.391,-54.112,29,21,110,12,,6+,29.82,,,TRUE,,,,,,,,FEW,400,,,,,,,VFR,,,,,,,,,,,,METAR,182
SBBE 272200Z 08003KT 9999 FEW031 FEW050TCU SCT100 26/24 Q1009,SBBE,2025-01-27T22:00:00Z,-1.379,-48.476,26,24,80,3,,6+,29.79,,,,,,,,,,,FEW,3100,FEW,5000,SCT,10000,,,VFR,,,,,,,,,,,,METAR,16
SBAX 272200Z 07005KT 9999 FEW030 23/21 Q1016,SBAX,2025-01-27T22:00:00Z,-19.563,-46.96,23,21,70,5,,6+,30.00,,,,,,,,,,,FEW,3000,,,,,,,VFR,,,,,,,,,,,,METAR,989
SBAR 272200Z 09009KT 9999 FEW017 28/23 Q1012,SBAR,2025-01-27T22:00:00Z,-10.984,-37.07,28,23,90,9,,6+,29.88,,,,,,,,,,,FEW,1700,,,,,,,VFR,,,,,,,,,,,,METAR,4
SBAN 272200Z 12004KT 9999 SCT045 BKN090 22/21 Q1016,SBAN,2025-01-27T22:00:00Z,-16.229,-48.964,22,21,120,4,,6+,30.00,,,,,,,,,,,SCT,4500,BKN,9000,,,,,VFR,,,,,,,,,,,,METAR,1131
SBAF 272200Z 19003KT 9999 SCT025 BKN040 26/23 Q1012,SBAF,2025-01-27T22:00:00Z,-22.875,-43.385,26,23,190,3,,6+,29.88,,,,,,,,,,,SCT,2500,BKN,4000,,,,,VFR,,,,,,,,,,,,METAR,34
SAZS 272200Z 31020KT 7000 FU NCD 17/00 Q1016,SAZS,2025-01-27T22:00:00Z,-41.151,-71.157,17,0,310,20,,4.35,30.00,,,,,,,,,,FU,CLR,,,,,,,,MVFR,,,,,,,,,,,,METAR,843
SAZN 272200Z 25007KT CAVOK 30/00 Q1010,SAZN,2025-01-27T22:00:00Z,-38.95,-68.141,30,0,250,7,,6+,29.82,,,,,,,,,,,CAVOK,,,,,,,,VFR,,,,,,,,,,,,METAR,273
SAZM 272200Z 20012KT CAVOK 25/15 Q1009,SAZM,2025-01-27T22:00:00Z,-37.932,-57.581,25,15,200,12,,6+,29.79,,,,,,,,,,,CAVOK,,,,,,,,VFR,,,,,,,,,,,,METAR,17
SAWH 272200Z 24024KT 8000 -RA BKN030 OVC050 09/05 Q0984,SAWH,2025-01-27T22:00:00Z,-54.844,-68.308,9,5,240,24,,4.97,29.06,,,,,,,,,,-RA,BKN,3000,OVC,5000,,,,,MVFR,,,,,,,,,,,,METAR,22
SAWE 272200Z 27026KT 9999 SCT045CB 14/04 Q0988,SAWE,2025-01-27T22:00:00Z,-53.781,-67.754,14,4,270,26,,6+,29.17,,,,,,,,,,,SCT,4500,,,,,,,VFR,,,,,,,,,,,,METAR,22
SAWC 272200Z 26023KT 9999 FEW025 SCT090 14/03 Q0998,SAWC,2025-01-27T22:00:00Z,-50.284,-72.052,14,3,260,23,,6+,29.47,,,,,,,,,,,FEW,2500,SCT,9000,,,,,VFR,,,,,,,,,,,,METAR,204
SAVT 272200Z 23014KT CAVOK 25/M05 Q1009,SAVT,2025-01-27T22:00:00Z,-43.209,-65.282,25,-5,230,14,,6+,29.79,,,,,,,,,,,CAVOK,,,,,,,,VFR,,,,,,,,,,,,METAR,37
SAVC 272200Z 28029G40KT CAVOK 21/01 Q1006,SAVC,2025-01-27T22:00:00Z,-45.79,-67.471,21,1,280,29,40,6+,29.70,,,,,,,,,,,CAVOK,,,,,,,,VFR,,,,,,,,,,,,METAR,58
SASJ 272200Z 08005KT 050V130 9999 FEW060TCU 30/21 Q1009,SASJ,2025-01-27T22:00:00Z,-24.387,-65.098,30,21,80,5,,6+,29.79,,,,,,,,,,,FEW,6000,,,,,,,VFR,,,,,,,,,,,,METAR,913
SASA 272200Z 06008KT 020V080 9999 SCT050TCU 29/21 Q1012,SASA,2025-01-27T22:00:00Z,-24.856,-65.486,29,21,60,8,,6+,29.88,,,,,,,,,,,SCT,5000,,,,,,,VFR,,,,,,,,,,,,METAR,1235
SARP 272200Z 25007KT 9999 SCT025TCU SCT100 29/23 Q1009,SARP,2025-01-27T22:00:00Z,-27.386,-55.969,29,23,250,7,,6+,29.79,,,,,,,,,,,SCT,2500,SCT,10000,,,,,VFR,,,,,,,,,,,,METAR,123
SARL 272200Z 14007KT 9999 FEW025TCU 34/20 Q1007,SARL,2025-01-27T22:00:00Z,-29.689,-57.152,34,20,140,7,,6+,29.73,,,,,,,,,,,FEW,2500,,,,,,,VFR,,,,,,,,,,,,METAR,70
SARI 272200Z 11004KT 070V180 9999 SCT007 OVC080 24/23 Q1011,SARI,2025-01-27T22:00:00Z,-25.737,-54.473,24,23,110,4,,6+,29.85,,,,,,,,,,,SCT,700,OVC,8000,,,,,VFR,,,,,,,,,,,,METAR,268
SARF 272200Z 11008KT 9999 FEW020 BKN100 30/21 Q1006,SARF,2025-01-27T22:00:00Z,-26.213,-58.228,30,21,110,8,,6+,29.70,,,,,,,,,,,FEW,2000,BKN,10000,,,,,VFR,,,,,,,,,,,,METAR,65
SARE 272200Z 05008KT CAVOK 28/22 Q1007,SARE,2025-01-27T22:00:00Z,-27.45,-59.056,28,22,50,8,,6+,29.73,,,,,,,,,,,CAVOK,,,,,,,,VFR,,,,,,,,,,,,METAR,52
SARC 272200Z 11004KT 9999 BKN030 25/23 Q1007,SARC,2025-01-27T22:00:00Z,-27.445,-58.762,25,23,110,4,,6+,29.73,,,,,,,,,,,BKN,3000,,,,,,,MVFR,,,,,,,,,,,,METAR,60
SANT 272200Z 09003KT 060V150 9999 FEW035 BKN056 30/23 Q1007,SANT,2025-01-27T22:00:00Z,-26.841,-65.105,30,23,90,3,,6+,29.73,,,,,,,,,,,FEW,3500,BKN,5600,,,,,VFR,,,,,,,,,,,,METAR,446
SAME 272200Z 14009KT 9999 FEW035 SCT040CB 23/17 Q1011,SAME,2025-01-27T22:00:00Z,-32.832,-68.793,23,17,140,9,,6+,29.85,,,,,,,,,,,FEW,3500,SCT,4000,,,,,VFR,,,,,,,,,,,,METAR,709
SAEZ 272200Z 04007KT CAVOK 28/21 Q1008 NOSIG,SAEZ,2025-01-27T22:00:00Z,-34.822,-58.536,28,21,40,7,,6+,29.76,,,,,,TRUE,,,,,CAVOK,,,,,,,,VFR,,,,,,,,,,,,METAR,16
SADP 272200Z 04007KT 9999 FEW035TCU BKN070 28/22 Q1008,SADP,2025-01-27T22:00:00Z,-34.61,-58.613,28,22,40,7,,6+,29.76,,,,,,,,,,,FEW,3500,BKN,7000,,,,,VFR,,,,,,,,,,,,METAR,19
SADF 272200Z 04010KT CAVOK 28/22 Q1008,SADF,2025-01-27T22:00:00Z,-34.457,-58.593,28,22,40,10,,6+,29.76,,,,,,,,,,,CAVOK,,,,,,,,VFR,,,,,,,,,,,,METAR,4
SACO 272200Z 09009KT 9999 SCT045TCU 29/21 Q1009 NOSIG,SACO,2025-01-27T22:00:00Z,-31.324,-64.208,29,21,90,9,,6+,29.79,,,,,,TRUE,,,,,SCT,4500,,,,,,,VFR,,,,,,,,,,,,METAR,474
SABE 272200Z 01007KT 310V100 CAVOK 27/22 Q1009 NOSIG,SABE,2025-01-27T22:00:00Z,-34.559,-58.416,27,22,10,7,,6+,29.79,,,,,,TRUE,,,,,CAVOK,,,,,,,,VFR,,,,,,,,,,,,METAR,3
SAAR 272200Z 27002KT CAVOK 32/21 Q1007,SAAR,2025-01-27T22:00:00Z,-32.918,-60.782,32,21,270,2,,6+,29.73,,,,,,,,,,,CAVOK,,,,,,,,VFR,,,,,,,,,,,,METAR,24
RPVP 272200Z 27004KT 9999 FEW019 BKN080 24/23 Q1010 RMK A2983,RPVP,2025-01-27T22:00:00Z,9.742,118.759,24,23,270,4,,6+,29.82,,,,,,,,,,,FEW,1900,BKN,8000,,,,,VFR,,,,,,,,,,,,METAR,15
RPVM 272200Z 04010KT 9999 FEW020 BKN100 27/22 Q1011 NOSIG RMK A2985,RPVM,2025-01-27T22:00:00Z,10.308,123.978,27,22,40,10,,6+,29.85,,,,,,TRUE,,,,,FEW,2000,BKN,10000,,,,,VFR,,,,,,,,,,,,METAR,9
RPMZ 272200Z 01003KT 9999 FEW017 OVC090 25/24 Q1008 RMK A2977,RPMZ,2025-01-27T22:00:00Z,6.92,122.063,25,24,10,3,,6+,29.76,,,,,,,,,,,FEW,1700,OVC,9000,,,,,VFR,,,,,,,,,,,,METAR,8
RPMD 272200Z 36005KT 320V040 9999 FEW016 BKN090 BKN260 24/24 Q1009 RMK A2980,RPMD,2025-01-27T22:00:00Z,7.125,125.646,24,24,360,5,,6+,29.79,,,,,,,,,,,FEW,1600,BKN,9000,BKN,26000,,,VFR,,,,,,,,,,,,METAR,19
RPLL 272200Z 02005KT 320V040 9999 FEW020 24/21 Q1012 NOSIG RMK A2988,RPLL,2025-01-27T22:00:00Z,14.507,121.004,24,21,20,5,,6+,29.88,,,,,,TRUE,,,,,FEW,2000,,,,,,,VFR,,,,,,,,,,,,METAR,15
RPLI 272200Z 36014KT 9999 FEW018 21/19 Q1014 NOSIG RMK A2994,RPLI,2025-01-27T22:00:00Z,18.178,120.532,21,19,360,14,,6+,29.94,,,,,,TRUE,,,,,FEW,1800,,,,,,,VFR,,,,,,,,,,,,METAR,5
RPLC 272200Z 32004KT 9999 FEW020 22/20 Q1013 NOSIG RMK A2991,RPLC,2025-01-27T22:00:00Z,15.186,120.56,22,20,320,4,,6+,29.91,,,,,,TRUE,,,,,FEW,2000,,,,,,,VFR,,,,,,,,,,,,METAR,138
RPLB 272200Z VRB02KT 9999 FEW020 22/19 Q1013 NOSIG RMK A2991,RPLB,2025-01-27T22:00:00Z,14.794,120.271,22,19,VRB,2,,6+,29.91,,,,,,TRUE,,,,,FEW,2000,,,,,,,VFR,,,,,,,,,,,,METAR,19
ROYN 272200Z AUTO 02023KT 9999 FEW039 SCT046 BKN050 14/06 Q1025,ROYN,2025-01-27T22:00:00Z,24.467,122.978,14,6,20,23,,6+,30.27,,,TRUE,,,,,,,,FEW,3900,SCT,4600,BKN,5000,,,VFR,,,,,,,,,,,,METAR,21
RORY 272200Z AUTO 33021KT 9999 FEW036 BKN049 OVC050 12/05 Q1022,RORY,2025-01-27T22:00:00Z,27.044,128.4,12,5,330,21,,6+,30.18,,,TRUE,,,,,,,,FEW,3600,BKN,4900,OVC,5000,,,VFR,,,,,,,,,,,,METAR,13
RORT 272200Z AUTO 01016KT 350V050 //// // FEW037 SCT040 OVC048 14/05 Q1024,RORT,2025-01-27T22:00:00Z,24.653,124.674,14,5,10,16,,,30.24,,,TRUE,,,,,,,,FEW,3700,SCT,4000,OVC,4800,,,,,,,,,,,,,,,METAR,9
RORS 272200Z AUTO 01015KT 9999 SCT041 BKN047 OVC050 14/05 Q1023,RORS,2025-01-27T22:00:00Z,24.827,125.145,14,5,10,15,,6+,30.21,,,TRUE,,,,,,,,SCT,4100,BKN,4700,OVC,5000,,,VFR,,,,,,,,,,,,METAR,13
RORK 272200Z AUTO 32013KT 9999 SCT043 BKN050 15/07 Q1020,RORK,2025-01-27T22:00:00Z,25.944,131.326,15,7,320,13,,6+,30.12,,,TRUE,,,,,,,,SCT,4300,BKN,5000,,,,,VFR,,,,,,,,,,,,METAR,11
ROMY 272200Z AUTO 36013KT 9999 FEW040 SCT044 OVC050 13/05 Q1023,ROMY,2025-01-27T22:00:00Z,24.782,125.295,13,5,360,13,,6+,30.21,,,TRUE,,,,,,,,FEW,4000,SCT,4400,OVC,5000,,,VFR,,,,,,,,,,,,METAR,42
ROMD 272200Z AUTO 34010KT 9999 BKN048 BKN050 15/05 Q1020,ROMD,2025-01-27T22:00:00Z,25.847,131.264,15,5,340,10,,6+,30.12,,,TRUE,,,,,,,,BKN,4800,BKN,5000,,,,,VFR,,,,,,,,,,,,METAR,45
ROIG 272200Z AUTO 36014KT 9999 FEW037 SCT039 BKN044 13/05 Q1023,ROIG,2025-01-27T22:00:00Z,24.395,124.245,13,5,360,14,,6+,30.21,,,TRUE,,,,,,,,FEW,3700,SCT,3900,BKN,4400,,,VFR,,,,,,,,,,,,METAR,37
ROAH 272200Z 35023KT 9999 SCT040 BKN050 13/04 Q1023,ROAH,2025-01-27T22:00:00Z,26.196,127.646,13,4,350,23,,6+,30.21,,,,,,,,,,,SCT,4000,BKN,5000,,,,,VFR,,,,,,,,,,,,METAR,6
RKTU 272200Z 25012KT 4000 -SN BR BKN020 BKN030 M03/M06 Q1014,RKTU,2025-01-27T22:00:00Z,36.717,127.499,-3,-6,250,12,,2.49,29.94,,,,,,,,,,-SN BR,BKN,2000,BKN,3000,,,,,IFR,,,,,,,,,,,,METAR,46
RKTN 272200Z 27009KT 9999 FEW050 M01/M08 Q1015,RKTN,2025-01-27T22:00:00Z,35.894,128.659,-1,-8,270,9,,6+,29.97,,,,,,,,,,,FEW,5000,,,,,,,VFR,,,,,,,,,,,,METAR,25
RKSS 272200Z 29008KT 8000 -SN SCT025 OVC070 M04/M07 Q1014 NOSIG,RKSS,2025-01-27T22:00:00Z,37.558,126.791,-4,-7,290,8,,4.97,29.94,,,,,,TRUE,,,,-SN,SCT,2500,OVC,7000,,,,,MVFR,,,,,,,,,,,,METAR,18
RKSM 272200Z 32003KT 2400 -SN BR FEW000 SCT010 BKN030 M04/M07 A2995,RKSM,2025-01-27T22:00:00Z,37.446,127.114,-4,-7,320,3,,1.49,29.95,,,,,,,,,,-SN BR,FEW,0,SCT,1000,BKN,3000,,,IFR,,,,,,,,,,,,METAR,18
RKSI 272200Z 30015KT 3500 -SN BKN014 OVC050 M03/M06 Q1014 NOSIG,RKSI,2025-01-27T22:00:00Z,37.469,126.451,-3,-6,300,15,,2.17,29.94,,,,,,TRUE,,,,-SN,BKN,1400,OVC,5000,,,,,IFR,,,,,,,,,,,,METAR,7
RKPK 272200Z 26008KT 9999 FEW030 M02/M09 Q1016,RKPK,2025-01-27T22:00:00Z,35.179,128.938,-2,-9,260,8,,6+,30.00,,,,,,,,,,,FEW,3000,,,,,,,VFR,,,,,,,,,,,,METAR,3
RKPC 272200Z 29022G36KT 9999 -SHSN FEW015 BKN035 03/M04 Q1020 WS ALL RWY NOSIG,RKPC,2025-01-27T22:00:00Z,33.511,126.493,3,-4,290,22,36,6+,30.12,,,,,,TRUE,,,,-SHSN,FEW,1500,BKN,3500,,,,,VFR,,,,,,,,,,,,METAR,23
RKNY 272200Z AUTO 26020G37KT 230V290 9999 NCD M04/M12 Q1006,RKNY,2025-01-27T22:00:00Z,38.061,128.669,-4,-12,260,20,37,6+,29.70,,,TRUE,,,,,,,,CLR,,,,,,,,VFR,,,,,,,,,,,,METAR,76
RKJB 272200Z 30014KT 270V330 9999 -SN BKN040 BKN060 M01/M06 Q1019 NOSIG,RKJB,2025-01-27T22:00:00Z,34.991,126.383,-1,-6,300,14,,6+,30.09,,,,,,TRUE,,,,-SN,BKN,4000,BKN,6000,,,,,VFR,,,,,,,,,,,,METAR,16
RJTT 272200Z 02006KT 9999 FEW030 SCT090 07/M02 Q1008 NOSIG,RJTT,2025-01-27T22:00:00Z,35.553,139.781,7,-2,20,6,,6+,29.76,,,,,,TRUE,,,,,FEW,3000,SCT,9000,,,,,VFR,,,,,,,,,,,,METAR,5
RJSY 272200Z 12007KT 090V160 9999 -FZRA FEW010 SCT040 BKN050 M00/M03 Q1007,RJSY,2025-01-27T22:00:00Z,38.812,139.787,0,-3,120,7,,6+,29.73,,,,,,,,,,-FZRA,FEW,1000,SCT,4000,BKN,5000,,,VFR,,,,,,,,,,,,METAR,17
RJSS 272200Z 32005KT 9999 FEW050 M04/M05 Q1008,RJSS,2025-01-27T22:00:00Z,38.14,140.917,-4,-5,320,5,,6+,29.76,,,,,,,,,,,FEW,5000,,,,,,,VFR,,,,,,,,,,,,METAR,5
RJSN 272200Z AUTO 19013KT 9999 RASN SCT016 BKN017 BKN020 03/02 Q1008,RJSN,2025-01-27T22:00:00Z,37.956,139.121,3,2,190,13,,6+,29.76,,,TRUE,,,,,,,RA SN,SCT,1600,BKN,1700,BKN,2000,,,MVFR,,,,,,,,,,,,METAR,4
RJSM 272200Z 23007KT 9999 FEW025 M02/M03 Q1007,RJSM,2025-01-27T22:00:00Z,40.705,141.372,-2,-3,230,7,,6+,29.73,,,,,,,,,,,FEW,2500,,,,,,,VFR,,,,,,,,,,,,METAR,31
RJSK 272200Z 15004KT 9999 FEW040 SCT090 M04/M05 Q1007,RJSK,2025-01-27T22:00:00Z,39.616,140.219,-4,-5,150,4,,6+,29.73,,,,,,,,,,,FEW,4000,SCT,9000,,,,,VFR,,,,,,,,,,,,METAR,95
RJSF 272200Z AUTO VRB02KT 9999 NSC M03/M06 Q1007,RJSF,2025-01-27T22:00:00Z,37.227,140.428,-3,-6,VRB,2,,6+,29.73,,,TRUE,,,,,,,,CLR,,,,,,,,VFR,,,,,,,,,,,,METAR,373
RJSA 272200Z 19007KT 9999 FEW015 SCT035 M02/M04 Q1005,RJSA,2025-01-27T22:00:00Z,40.733,140.689,-2,-4,190,7,,6+,29.68,,,,,,,,,,,FEW,1500,SCT,3500,,,,,VFR,,,,,,,,,,,,METAR,196
RJOT 272200Z 24010KT 9999 FEW025 SCT060 03/M04 Q1013,RJOT,2025-01-27T22:00:00Z,34.214,134.016,3,-4,240,10,,6+,29.91,,,,,,,,,,,FEW,2500,SCT,6000,,,,,VFR,,,,,,,,,,,,METAR,181
RJOS 272200Z 26009KT 9999 FEW030 05/M04 Q1014,RJOS,2025-01-27T22:00:00Z,34.132,134.609,5,-4,260,9,,6+,29.94,,,,,,,,,,,FEW,3000,,,,,,,VFR,,,,,,,,,,,,METAR,3
RJOR 272200Z 18003KT 9999 VCSH FEW025 SCT060 03/M02 Q1013,RJOR,2025-01-27T22:00:00Z,35.53,134.165,3,-2,180,3,,6+,29.91,,,,,,,,,,VCSH,FEW,2500,SCT,6000,,,,,VFR,,,,,,,,,,,,METAR,11
RJOO 272200Z 27005KT 220V330 9999 FEW020 SCT070 05/M04 Q1013,RJOO,2025-01-27T22:00:00Z,34.784,135.439,5,-4,270,5,,6+,29.91,,,,,,,,,,,FEW,2000,SCT,7000,,,,,VFR,,,,,,,,,,,,METAR,11
RJOM 272200Z 27013KT 9999 -SHRA FEW003 SCT005 BKN015 04/02 Q1016,RJOM,2025-01-27T22:00:00Z,33.83,132.698,4,2,270,13,,6+,30.00,,,,,,,,,,-SHRA,FEW,300,SCT,500,BKN,1500,,,MVFR,,,,,,,,,,,,METAR,3
RJOK 272200Z VRB02KT 9999 VCSH FEW020 SCT060 00/M01 Q1015,RJOK,2025-01-27T22:00:00Z,33.546,133.669,0,-1,VRB,2,,6+,29.97,,,,,,,,,,VCSH,FEW,2000,SCT,6000,,,,,VFR,,,,,,,,,,,,METAR,7
RJOH 272200Z 20011KT 2000 SHSNRA FEW003 SCT005 BKN015 01/01 Q1014,RJOH,2025-01-27T22:00:00Z,35.493,133.239,1,1,200,11,,1.24,29.94,,,,,,,,,,SHSN SHRA,FEW,300,SCT,500,BKN,1500,,,IFR,,,,,,,,,,,,METAR,6
RJOC 272200Z AUTO 21013KT 9999 -SNRA FEW003 SCT008 BKN010 01/00 Q1013,RJOC,2025-01-27T22:00:00Z,35.414,132.89,1,0,210,13,,6+,29.91,,,TRUE,,,,,,,-SN -RA,FEW,300,SCT,800,BKN,1000,,,MVFR,,,,,,,,,,,,METAR,2
RJOB 272200Z 26002KT 9999 FEW015 M00/M04 Q1013,RJOB,2025-01-27T22:00:00Z,34.757,133.855,0,-4,260,2,,6+,29.91,,,,,,,,,,,FEW,1500,,,,,,,VFR,,,,,,,,,,,,METAR,242
RJOA 272200Z AUTO 33002KT 9999 NCD M01/M07 Q1013,RJOA,2025-01-27T22:00:00Z,34.436,132.919,-1,-7,330,2,,6+,29.91,,,TRUE,,,,,,,,CLR,,,,,,,,VFR,,,,,,,,,,,,METAR,318
RJNT 272200Z 25008KT 210V290 9999 -SHRA FEW010 SCT050 BKN070 05/03 Q1010,RJNT,2025-01-27T22:00:00Z,36.641,137.187,5,3,250,8,,6+,29.82,,,,,,,,,,-SHRA,FEW,1000,SCT,5000,BKN,7000,,,VFR,,,,,,,,,,,,METAR,30
RJNK 272200Z 21008G19KT 180V240 9999 -SHRA FEW010 SCT015 BKN030 05/03 Q1011,RJNK,2025-01-27T22:00:00Z,36.394,136.407,5,3,210,8,19,6+,29.85,,,,,,,,,,-SHRA,FEW,1000,SCT,1500,BKN,3000,,,MVFR,,,,,,,,,,,,METAR,7
RJKI 272200Z AUTO 30022KT 9999 FEW042 OVC050 12/04 Q1020,RJKI,2025-01-27T22:00:00Z,28.321,129.928,12,4,300,22,,6+,30.12,,,TRUE,,,,,,,,FEW,4200,OVC,5000,,,,,VFR,,,,,,,,,,,,METAR,6
RJKB 272200Z AUTO 32016KT 220V350 9999 FEW037 SCT040 OVC050 12/03 Q1022,RJKB,2025-01-27T22:00:00Z,27.4322,128.706,12,3,320,16,,6+,30.18,,,TRUE,,,,,,,,FEW,3700,SCT,4000,OVC,5000,,,VFR,,,,,,,,,,,,METAR,27
RJKA 272200Z AUTO 30015KT 260V340 9999 FEW042 BKN047 OVC050 11/02 Q1020,RJKA,2025-01-27T22:00:00Z,28.431,129.713,11,2,300,15,,6+,30.12,,,TRUE,,,,,,,,FEW,4200,BKN,4700,OVC,5000,,,VFR,,,,,,,,,,,,METAR,7
RJGG 272200Z 26022KT 9999 VCSH FEW015 BKN035 08/03 Q1011 NOSIG,RJGG,2025-01-27T22:00:00Z,34.858,136.805,8,3,260,22,,6+,29.85,,,,,,TRUE,,,,VCSH,FEW,1500,BKN,3500,,,,,VFR,,,,,,,,,,,,METAR,5
RJFU 272200Z 29013KT 9999 -SHRASN FEW006 SCT010 BKN020 02/01 Q1019,RJFU,2025-01-27T22:00:00Z,32.917,129.914,2,1,290,13,,6+,30.09,,,,,,,,,,-SHRA -SHSN,FEW,600,SCT,1000,BKN,2000,,,MVFR,,,,,,,,,,,,METAR,2
RJFT 272200Z 28005KT 240V320 9999 -SHSNGS FEW010 SCT015 BKN030 02/M01 Q1018,RJFT,2025-01-27T22:00:00Z,32.837,130.855,2,-1,280,5,,6+,30.06,,,,,,,,,,-SHSN -SHGS,FEW,1000,SCT,1500,BKN,3000,,,MVFR,,,,,,,,,,,,METAR,188
RJFS 272200Z 26011KT 9999 -SHRA FEW020 SCT035 BKN060 03/00 Q1018,RJFS,2025-01-27T22:00:00Z,33.15,130.302,3,0,260,11,,6+,30.06,,,,,,,,,,-SHRA,FEW,2000,SCT,3500,BKN,6000,,,VFR,,,,,,,,,,,,METAR,2
RJFR 272200Z 27017KT 9999 FEW020 SCT050 BKN060 04/M02 Q1016,RJFR,2025-01-27T22:00:00Z,33.846,131.035,4,-2,270,17,,6+,30.00,,,,,,,,,,,FEW,2000,SCT,5000,BKN,6000,,,VFR,,,,,,,,,,,,METAR,9
RJFO 272200Z 28003KT 220V360 9999 FEW010 BKN025 BKN040 04/M02 Q1017,RJFO,2025-01-27T22:00:00Z,33.479,131.737,4,-2,280,3,,6+,30.03,,,,,,,,,,,FEW,1000,BKN,2500,BKN,4000,,,MVFR,,,,,,,,,,,,METAR,3
RJFM 272200Z AUTO 24008KT 9999 NCD 04/00 Q1017,RJFM,2025-01-27T22:00:00Z,31.877,131.449,4,0,240,8,,6+,30.03,,,TRUE,,,,,,,,CLR,,,,,,,,VFR,,,,,,,,,,,,METAR,10
RJFK 272200Z 34007KT 9999 -SHRASN FEW005 SCT015 BKN020 02/01 Q1017,RJFK,2025-01-27T22:00:00Z,31.803,130.719,2,1,340,7,,6+,30.03,,,,,,,,,,-SHRA -SHSN,FEW,500,SCT,1500,BKN,2000,,,MVFR,,,,,,,,,,,,METAR,271
RJFF 272200Z 29013KT 9999 -SHRASN FEW025 SCT030 BKN035 04/M01 Q1017 TEMPO 4000 -TSSNRAGS,RJFF,2025-01-27T22:00:00Z,33.584,130.452,4,-1,290,13,,6+,30.03,,,,,,,,,,-SHRA -SHSN,FEW,2500,SCT,3000,BKN,3500,,,VFR,,,,,,,,,,,,METAR,7
RJEC 272200Z AUTO 19003KT 120V230 9999 NCD M09/M10 Q1006,RJEC,2025-01-27T22:00:00Z,43.671,142.447,-9,-10,190,3,,6+,29.70,,,TRUE,,,,,,,,CLR,,,,,,,,VFR,,,,,,,,,,,,METAR,209
RJDC 272200Z AUTO 28018KT 9999 FEW042 SCT045 BKN050 05/M03 Q1016,RJDC,2025-01-27T22:00:00Z,33.93,131.279,5,-3,280,18,,6+,30.00,,,TRUE,,,,,,,,FEW,4200,SCT,4500,BKN,5000,,,VFR,,,,,,,,,,,,METAR,5
RJDB 272200Z AUTO 28011G24KT 200V330 9999 FEW024 SCT039 BKN050 04/M04 Q1017,RJDB,2025-01-27T22:00:00Z,33.749,129.785,4,-4,280,11,24,6+,30.03,,,TRUE,,,,,,,,FEW,2400,SCT,3900,BKN,5000,,,VFR,,,,,,,,,,,,METAR,13
RJCO 272200Z 11003KT 9999 FEW020 BKN030 M04/M06 Q1010,RJCO,2025-01-27T22:00:00Z,43.117,141.381,-4,-6,110,3,,6+,29.82,,,,,,,,,,,FEW,2000,BKN,3000,,,,,MVFR,,,,,,,,,,,,METAR,7
RJCK 272200Z AUTO 31008KT 9999 NCD M02/M07 Q1003,RJCK,2025-01-27T22:00:00Z,43.041,144.193,-2,-7,310,8,,6+,29.62,,,TRUE,,,,,,,,CLR,,,,,,,,VFR,,,,,,,,,,,,METAR,94
RJCH 272200Z AUTO 06006KT 040V100 9999 FEW019 00/M03 Q1006,RJCH,2025-01-27T22:00:00Z,41.77,140.822,0,-3,60,6,,6+,29.70,,,TRUE,,,,,,,,FEW,1900,,,,,,,VFR,,,,,,,,,,,,METAR,36
RJCC 272200Z 33006KT 9999 FEW020 BKN030 M04/M08 Q1008,RJCC,2025-01-27T22:00:00Z,42.774,141.693,-4,-8,330,6,,6+,29.76,,,,,,,,,,,FEW,2000,BKN,3000,,,,,MVFR,,,,,,,,,,,,METAR,19
RJBE 272200Z 28016KT 9999 FEW025 SCT040 06/M03 Q1014,RJBE,2025-01-27T22:00:00Z,34.633,135.224,6,-3,280,16,,6+,29.94,,,,,,,,,,,FEW,2500,SCT,4000,,,,,VFR,,,,,,,,,,,,METAR,5
RJBB 272200Z 28022KT 9999 FEW020 BKN060 07/M01 Q1014 NOSIG,RJBB,2025-01-27T22:00:00Z,34.434,135.233,7,-1,280,22,,6+,29.94,,,,,,TRUE,,,,,FEW,2000,BKN,6000,,,,,VFR,,,,,,,,,,,,METAR,8
RJAW 272200Z 23006KT 9999 VCSH SCT020 BKN040 19/16 Q1015 RMK 3CU020 5CU040 A2999,RJAW,2025-01-27T22:00:00Z,24.784,141.322,19,16,230,6,,6+,29.97,,,,,,,,,,VCSH,SCT,2000,BKN,4000,,,,,VFR,,,,,,,,,,,,METAR,116
RJAH 272200Z 02003KT 340V110 9999 FEW025 SCT050 BKN100 03/M02 Q1007,RJAH,2025-01-27T22:00:00Z,36.182,140.415,3,-2,20,3,,6+,29.73,,,,,,,,,,,FEW,2500,SCT,5000,BKN,10000,,,VFR,,,,,,,,,,,,METAR,31
RJAA 272200Z 33004KT 9999 -SHRA FEW020 BKN080 03/00 Q1007 NOSIG,RJAA,2025-01-27T22:00:00Z,35.765,140.386,3,0,330,4,,6+,29.73,,,,,,TRUE,,,,-SHRA,FEW,2000,BKN,8000,,,,,VFR,,,,,,,,,,,,METAR,36
RCTP 272200Z 08010KT 9999 FEW015 SCT200 09/03 Q1025 NOSIG RMK A3029,RCTP,2025-01-27T22:00:00Z,25.078,121.233,9,3,80,10,,6+,30.27,,,,,,TRUE,,,,,FEW,1500,SCT,20000,,,,,VFR,,,,,,,,,,,,METAR,33
RCSS 272200Z VRB01KT 9999 FEW020 07/05 Q1026 NOSIG RMK A3031,RCSS,2025-01-27T22:00:00Z,25.069,121.552,7,5,VRB,1,,6+,30.30,,,,,,TRUE,,,,,FEW,2000,,,,,,,VFR,,,,,,,,,,,,METAR,8
RCNN 272200Z 02010KT 9999 FEW012 SCT080 09/00 Q1022 NOSIG RMK A3018,RCNN,2025-01-27T22:00:00Z,22.95,120.206,9,0,20,10,,6+,30.18,,,,,,TRUE,,,,,FEW,1200,SCT,8000,,,,,VFR,,,,,,,,,,,,METAR,15
RCMQ 272200Z 02011KT 9999 FEW012 09/02 Q1022 NOSIG RMK A3019,RCMQ,2025-01-27T22:00:00Z,24.265,120.621,9,2,20,11,,6+,30.18,,,,,,TRUE,,,,,FEW,1200,,,,,,,VFR,,,,,,,,,,,,METAR,202
RCKH 272200Z 02009KT 9999 FEW015 SCT025 BKN040 11/06 Q1020 NOSIG RMK A3014,RCKH,2025-01-27T22:00:00Z,22.577,120.35,11,6,20,9,,6+,30.12,,,,,,TRUE,,,,,FEW,1500,SCT,2500,BKN,4000,,,VFR,,,,,,,,,,,,METAR,6
RCFN 272200Z 35010KT 320V030 9999 FEW010 BKN050 13/08 Q1023 NOSIG RMK A3022,RCFN,2025-01-27T22:00:00Z,22.755,121.102,13,8,350,10,,6+,30.21,,,,,,TRUE,,,,,FEW,1000,BKN,5000,,,,,VFR,,,,,,,,,,,,METAR,42
PLCH 272200Z 07011KT 9999 SCT020 30/25 Q1009,PLCH,2025-01-27T22:00:00Z,1.988,-157.349,30,25,70,11,,6+,29.79,,,,,,,,,,,SCT,2000,,,,,,,VFR,,,,,,,,,,,,METAR,5
OTHH 272200Z AUTO 33012KT CAVOK 18/13 Q1016 NOSIG,OTHH,2025-01-27T22:00:00Z,25.273,51.609,18,13,330,12,,6+,30.00,,,TRUE,,,TRUE,,,,,CAVOK,,,,,,,,VFR,,,,,,,,,,,,METAR,3
OTBD 272200Z AUTO 33008KT 300V360 CAVOK 18/14 Q1016 NOSIG,OTBD,2025-01-27T22:00:00Z,25.261,51.565,18,14,330,8,,6+,30.00,,,TRUE,,,TRUE,,,,,CAVOK,,,,,,,,VFR,,,,,,,,,,,,METAR,13
ORSU 272200Z 12004KT CAVOK 08/M02 Q1023,ORSU,2025-01-27T22:00:00Z,35.56,45.318,8,-2,120,4,,6+,30.21,,,,,,,,,,,CAVOK,,,,,,,,VFR,,,,,,,,,,,,METAR,760
ORNI 272200Z 25004KT 6000 NSC 08/04 Q1020,ORNI,2025-01-27T22:00:00Z,31.99,44.405,8,4,250,4,,3.73,30.12,,,,,,,,,,,CLR,,,,,,,,MVFR,,,,,,,,,,,,METAR,33
ORMM 272200Z 26008KT CAVOK 08/01 Q1018 NOSIG,ORMM,2025-01-27T22:00:00Z,30.549,47.662,8,1,260,8,,6+,30.06,,,,,,TRUE,,,,,CAVOK,,,,,,,,VFR,,,,,,,,,,,,METAR,2
ORER 272200Z VRB03KT CAVOK 05/M03 Q1022,ORER,2025-01-27T22:00:00Z,36.232,43.951,5,-3,VRB,3,,6+,30.18,,,,,,,,,,,CAVOK,,,,,,,,VFR,,,,,,,,,,,,METAR,399
ORBI 272200Z 24002KT CAVOK 07/01 Q1020 NOSIG,ORBI,2025-01-27T22:00:00Z,33.263,44.235,7,1,240,2,,6+,30.12,,,,,,TRUE,,,,,CAVOK,,,,,,,,VFR,,,,,,,,,,,,METAR,37
OPST 272200Z 05004KT 1500 BR NSC 08/05 Q1012 BECMG 1000 RH86,OPST,2025-01-27T22:00:00Z,32.536,74.364,8,5,50,4,,0.93,29.88,,,,,,,,,,BR,CLR,,,,,,,,LIFR,,,,,,,,,,,,METAR,234
OPMT 272200Z 00000KT 2000 BR NSC 09/07 Q1012 NOSIG,OPMT,2025-01-27T22:00:00Z,30.203,71.419,9,7,0,0,,1.24,29.88,,,,,,TRUE,,,,BR,CLR,,,,,,,,IFR,,,,,,,,,,,,METAR,122
OPIS 272200Z 27012KT 6000 NSC 08/M06 Q1012 NOSIG,OPIS,2025-01-27T22:00:00Z,33.551,72.827,8,-6,270,12,,3.73,29.88,,,,,,TRUE,,,,,CLR,,,,,,,,MVFR,,,,,,,,,,,,METAR,542
OMRK 272200Z 17002KT 7000 NSC 16/12 Q1015 A2997,OMRK,2025-01-27T22:00:00Z,25.613,55.939,16,12,170,2,,4.35,29.97,,,,,,,,,,,CLR,,,,,,,,MVFR,,,,,,,,,,,,METAR,18
OMFJ 272200Z 30018KT CAVOK 23/10 Q1012 A2991,OMFJ,2025-01-27T22:00:00Z,25.112,56.324,23,10,300,18,,6+,29.88,,,,,,,,,,,CAVOK,,,,,,,,VFR,,,,,,,,,,,,METAR,27
OMDW 272200Z 25003KT 7000 NSC 19/18 Q1015 BECMG 3000 BR,OMDW,2025-01-27T22:00:00Z,24.897,55.161,19,18,250,3,,4.35,29.97,,,,,,,,,,,CLR,,,,,,,,MVFR,,,,,,,,,,,,METAR,34
OMDB 272200Z 29007KT 9999 FEW017 22/18 Q1014 NOSIG,OMDB,2025-01-27T22:00:00Z,25.254,55.366,22,18,290,7,,6+,29.94,,,,,,TRUE,,,,,FEW,1700,,,,,,,VFR,,,,,,,,,,,,METAR,5
OMAD 272200Z 31004KT CAVOK 19/17 Q1014 NOSIG,OMAD,2025-01-27T22:00:00Z,24.428,54.458,19,17,310,4,,6+,29.94,,,,,,TRUE,,,,,CAVOK,,,,,,,,VFR,,,,,,,,,,,,METAR,9
OMAA 272200Z 30006KT CAVOK 20/18 Q1014 NOSIG,OMAA,2025-01-27T22:00:00Z,24.433,54.651,20,18,300,6,,6+,29.94,,,,,,TRUE,,,,,CAVOK,,,,,,,,VFR,,,,,,,,,,,,METAR,13
OLBA 272200Z 11005KT 8000 NSC 15/07 Q1022 NOSIG,OLBA,2025-01-27T22:00:00Z,33.82,35.491,15,7,110,5,,4.97,30.18,,,,,,TRUE,,,,,CLR,,,,,,,,MVFR,,,,,,,,,,,,METAR,29
OKKK 272200Z 25003KT CAVOK 10/03 Q1019 NOSIG,OKKK,2025-01-27T22:00:00Z,29.227,47.969,10,3,250,3,,6+,30.09,,,,,,TRUE,,,,,CAVOK,,,,,,,,VFR,,,,,,,,,,,,METAR,55
OJAQ 272200Z 36006KT CAVOK 13/04 Q1019 NOSIG,OJAQ,2025-01-27T22:00:00Z,29.612,35.018,13,4,360,6,,6+,30.09,,,,,,TRUE,,,,,CAVOK,,,,,,,,VFR,,,,,,,,,,,,METAR,45
OJAM 272200Z 14001KT 5000 HZ FEW040 08/04 Q1021 NOSIG,OJAM,2025-01-27T22:00:00Z,31.973,35.992,8,4,140,1,,3.11,30.15,,,,,,TRUE,,,,HZ,FEW,4000,,,,,,,MVFR,,,,,,,,,,,,METAR,765
OJAI 272200Z 00000KT 5000 HZ NSC 08/00 Q1021 NOSIG,OJAI,2025-01-27T22:00:00Z,31.723,35.993,8,0,0,0,,3.11,30.15,,,,,,TRUE,,,,HZ,CLR,,,,,,,,MVFR,,,,,,,,,,,,METAR,723
OIZH 272200Z 19008KT CAVOK 05/M04 Q1016 A3002,OIZH,2025-01-27T22:00:00Z,29.472,60.901,5,-4,190,8,,6+,30.00,,,,,,,,,,,CAVOK,,,,,,,,VFR,,,,,,,,,,,,METAR,1378
OIYY 272200Z 31006KT 7000 -RA SCT040 OVC090 03/01 Q1021,OIYY,2025-01-27T22:00:00Z,31.905,54.276,3,1,310,6,,4.35,30.15,,,,,,,,,,-RA,SCT,4000,OVC,9000,,,,,MVFR,,,,,,,,,,,,METAR,1226
OITT 272200Z 10004KT 9999 FEW030CB BKN080 02/M05 Q1024 A3026,OITT,2025-01-27T22:00:00Z,38.13,46.24,2,-5,100,4,,6+,30.24,,,,,,,,,,,FEW,3000,BKN,8000,,,,,VFR,,,,,,,,,,,,METAR,1353
OITR 272200Z 26004KT 9999 SCT040 M01/M04 Q1023 A3024,OITR,2025-01-27T22:00:00Z,37.665,45.066,-1,-4,260,4,,6+,30.21,,,,,,,,,,,SCT,4000,,,,,,,VFR,,,,,,,,,,,,METAR,1312
OITL 272200Z VRB02KT 9999 VCFZFG BKN010 BKN040 FEW050CB M03/M03 Q1024,OITL,2025-01-27T22:00:00Z,38.326,48.424,-3,-3,VRB,2,,6+,30.24,,,,,,,,,,VCFZFG,BKN,1000,BKN,4000,FEW,5000,,,MVFR,,,,,,,,,,,,METAR,1314
OISY 272200Z 00000KT CAVOK 00/M03 Q1018,OISY,2025-01-27T22:00:00Z,30.701,51.545,0,-3,0,0,,6+,30.06,,,,,,,,,,,CAVOK,,,,,,,,VFR,,,,,,,,,,,,METAR,1800
OISS 272200Z 00000KT 9999 FEW035 06/01 Q1017 A3005,OISS,2025-01-27T22:00:00Z,29.539,52.59,6,1,0,0,,6+,30.03,,,,,,,,,,,FEW,3500,,,,,,,VFR,,,,,,,,,,,,METAR,1484
OISF 272200Z 32004KT CAVOK 03/01 Q1017 A3006,OISF,2025-01-27T22:00:00Z,28.895,53.72,3,1,320,4,,6+,30.03,,,,,,,,,,,CAVOK,,,,,,,,VFR,,,,,,,,,,,,METAR,1305
OINZ 272200Z 21008KT 9999 OVC040 07/06 Q1017,OINZ,2025-01-27T22:00:00Z,36.636,53.194,7,6,210,8,,6+,30.03,,,,,,,,,,,OVC,4000,,,,,,,VFR,,,,,,,,,,,,METAR,8
OINN 272200Z 22002KT 3000 -DZ OVC016 08/07 Q1028,OINN,2025-01-27T22:00:00Z,36.663,51.465,8,7,220,2,,1.86,30.35,,,,,,,,,,-DZ,OVC,1600,,,,,,,IFR,,,,,,,,,,,,METAR,-25
OING 272200Z 21004KT 6000 -RA FEW010 SCT030 OVC080 07/07 Q1028,OING,2025-01-27T22:00:00Z,36.908,54.404,7,7,210,4,,3.73,30.35,,,,,,,,,,-RA,FEW,1000,SCT,3000,OVC,8000,,,MVFR,,,,,,,,,,,,METAR,
OIMN 272200Z VRB02KT 6000 BKN003 SCT020 OVC060 02/M00 Q1022,OIMN,2025-01-27T22:00:00Z,37.488,57.303,2,0,VRB,2,,3.73,30.18,,,,,,,,,,,BKN,300,SCT,2000,OVC,6000,,,LIFR,,,,,,,,,,,,METAR,1065
OIMM 272200Z 15006KT CAVOK 01/M04 Q1022 A3019,OIMM,2025-01-27T22:00:00Z,36.236,59.639,1,-4,150,6,,6+,30.18,,,,,,,,,,,CAVOK,,,,,,,,VFR,,,,,,,,,,,,METAR,995
OIMB 272200Z 10008KT 9999 SCT040 BKN090 06/M09 Q1015 A2999,OIMB,2025-01-27T22:00:00Z,32.894,59.29,6,-9,100,8,,6+,29.97,,,,,,,,,,,SCT,4000,BKN,9000,,,,,VFR,,,,,,,,,,,,METAR,1512
OIKQ 272200Z 30004KT CAVOK 20/15 Q1012,OIKQ,2025-01-27T22:00:00Z,26.755,55.902,20,15,300,4,,6+,29.88,,,,,,,,,,,CAVOK,,,,,,,,VFR,,,,,,,,,,,,METAR,9
OIKK 272200Z 18004KT CAVOK 05/M00 Q1016 A3002,OIKK,2025-01-27T22:00:00Z,30.251,56.964,5,0,180,4,,6+,30.00,,,,,,,,,,,CAVOK,,,,,,,,VFR,,,,,,,,,,,,METAR,1749
OIKB 272200Z 35006KT 5000 HZ SCT035 18/14 Q1012 A2990,OIKB,2025-01-27T22:00:00Z,27.218,56.378,18,14,350,6,,3.11,29.88,,,,,,,,,,HZ,SCT,3500,,,,,,,MVFR,,,,,,,,,,,,METAR,6
OIIP 272200Z 27012KT 1500 -SN BR SCT015 OVC070 M01/M01 Q1020 A3012,OIIP,2025-01-27T22:00:00Z,35.776,50.827,-1,-1,270,12,,0.93,30.12,,,,,,,,,,-SN BR,SCT,1500,OVC,7000,,,,,LIFR,,,,,,,,,,,,METAR,1270
OIIK 272200Z 00000KT 2500 BR FEW040 OVC100 01/00 Q1021 A3016,OIIK,2025-01-27T22:00:00Z,36.243,50.045,1,0,0,0,,1.55,30.15,,,,,,,,,,BR,FEW,4000,OVC,10000,,,,,IFR,,,,,,,,,,,,METAR,1278
OIII 272200Z 28008KT 9000 3500NE BR FEW035 SCT120 OVC180 02/M00 Q1020 A3012 NOSIG,OIII,2025-01-27T22:00:00Z,35.686,51.304,2,0,280,8,,5.59,30.12,,,,,,TRUE,,,,BR,FEW,3500,SCT,12000,OVC,18000,,,VFR,,,,,,,,,,,,METAR,1182
OIIE 272200Z 29014KT 9999 SCT035 SCT090 03/00 Q1021,OIIE,2025-01-27T22:00:00Z,35.416,51.152,3,0,290,14,,6+,30.15,,,,,,,,,,,SCT,3500,SCT,9000,,,,,VFR,,,,,,,,,,,,METAR,993
OIHR 272200Z 06002KT 5000 BR FEW030CB SCT035 BKN090 M01/M01 Q1020,OIHR,2025-01-27T22:00:00Z,34.138,49.847,-1,-1,60,2,,3.11,30.12,,,,,,,,,,BR,FEW,3000,SCT,3500,BKN,9000,,,MVFR,,,,,,,,,,,,METAR,1658
OIHH 272200Z 36002KT 4000 BR OVC030 M02/M02 Q1020 A3014,OIHH,2025-01-27T22:00:00Z,34.869,48.553,-2,-2,360,2,,2.49,30.12,,,,,,,,,,BR,OVC,3000,,,,,,,IFR,,,,,,,,,,,,METAR,1742
OIFS 272200Z 30004KT CAVOK M02/M03 Q1018,OIFS,2025-01-27T22:00:00Z,32.297,50.842,-2,-3,300,4,,6+,30.06,,,,,,,,,,,CAVOK,,,,,,,,VFR,,,,,,,,,,,,METAR,2042
OIFM 272200Z 03002KT 9999 FEW040 BKN100 01/M00 Q1019 A3011,OIFM,2025-01-27T22:00:00Z,32.752,51.866,1,0,30,2,,6+,30.09,,,,,,,,,,,FEW,4000,BKN,10000,,,,,VFR,,,,,,,,,,,,METAR,1539
OICS 272200Z 36006KT 9999 BKN035 BKN070 03/M03 Q1021 A3018,OICS,2025-01-27T22:00:00Z,35.245,47.009,3,-3,360,6,,6+,30.15,,,,,,,,,,,BKN,3500,BKN,7000,,,,,VFR,,,,,,,,,,,,METAR,1369
OICK 272200Z 00000KT 9999 FEW040 BKN090 05/04 Q1019 A3010,OICK,2025-01-27T22:00:00Z,33.435,48.283,5,4,0,0,,6+,30.09,,,,,,,,,,,FEW,4000,BKN,9000,,,,,VFR,,,,,,,,,,,,METAR,1156
OICI 272200Z 11004KT CAVOK 01/M01 Q1021 A3015,OICI,2025-01-27T22:00:00Z,33.588,46.397,1,-1,110,4,,6+,30.15,,,,,,,,,,,CAVOK,,,,,,,,VFR,,,,,,,,,,,,METAR,1323
OICC 272200Z 27006KT 9999 SCT070 02/M02 Q1020 A3013,OICC,2025-01-27T22:00:00Z,34.346,47.158,2,-2,270,6,,6+,30.12,,,,,,,,,,,SCT,7000,,,,,,,VFR,,,,,,,,,,,,METAR,1310
OIBK 272200Z 33012KT CAVOK 21/16 Q1013,OIBK,2025-01-27T22:00:00Z,26.526,53.98,21,16,330,12,,6+,29.91,,,,,,,,,,,CAVOK,,,,,,,,VFR,,,,,,,,,,,,METAR,27
OIBB 272200Z 34008KT CAVOK 16/10 Q1016 A3002,OIBB,2025-01-27T22:00:00Z,28.947,50.834,16,10,340,8,,6+,30.00,,,,,,,,,,,CAVOK,,,,,,,,VFR,,,,,,,,,,,,METAR,15
OIAW 272200Z 00000KT 7000 NSC 09/07 Q1017,OIAW,2025-01-27T22:00:00Z,31.343,48.751,9,7,0,0,,4.35,30.03,,,,,,,,,,,CLR,,,,,,,,MVFR,,,,,,,,,,,,METAR,25
OIAM 272200Z 00000KT 7000 NSC 10/05 Q1018,OIAM,2025-01-27T22:00:00Z,30.556,49.152,10,5,0,0,,4.35,30.06,,,,,,,,,,,CLR,,,,,,,,MVFR,,,,,,,,,,,,METAR,7
OIAH 272200Z VRB02KT 7000 NSC 06/04 Q1018,OIAH,2025-01-27T22:00:00Z,30.336,50.83,6,4,VRB,2,,4.35,30.06,,,,,,,,,,,CLR,,,,,,,,MVFR,,,,,,,,,,,,METAR,730
OIAA 272200Z 31006KT 7000 NSC 12/05 Q1018,OIAA,2025-01-27T22:00:00Z,30.366,48.23,12,5,310,6,,4.35,30.06,,,,,,,,,,,CLR,,,,,,,,MVFR,,,,,,,,,,,,METAR,4
OEYN 272200Z 00000KT CAVOK 17/11 Q1013 NOSIG,OEYN,2025-01-27T22:00:00Z,24.144,38.063,17,11,0,0,,6+,29.91,,,,,,TRUE,,,,,CAVOK,,,,,,,,VFR,,,,,,,,,,,,METAR,20
OEWJ 272200Z 04003KT CAVOK 17/09 Q1015 NOSIG,OEWJ,2025-01-27T22:00:00Z,26.199,36.476,17,9,40,3,,6+,29.97,,,,,,TRUE,,,,,CAVOK,,,,,,,,VFR,,,,,,,,,,,,METAR,8
OEWD 272200Z 11015KT CAVOK 17/04 Q1015,OEWD,2025-01-27T22:00:00Z,20.504,45.197,17,4,110,15,,6+,29.97,,,,,,,,,,,CAVOK,,,,,,,,VFR,,,,,,,,,,,,METAR,629
OETR 272200Z 03012KT 9999 SCT030 SCT100 08/03 Q1020 NOSIG,OETR,2025-01-27T22:00:00Z,31.693,38.731,8,3,30,12,,6+,30.12,,,,,,TRUE,,,,,SCT,3000,SCT,10000,,,,,VFR,,,,,,,,,,,,METAR,854
OETF 272200Z 00000KT CAVOK 10/M03 Q1019 NOSIG,OETF,2025-01-27T22:00:00Z,21.483,40.544,10,-3,0,0,,6+,30.09,,,,,,TRUE,,,,,CAVOK,,,,,,,,VFR,,,,,,,,,,,,METAR,1460
OETB 272200Z 00000KT 9999 FEW040 11/M01 Q1018 NOSIG,OETB,2025-01-27T22:00:00Z,28.366,36.619,11,-1,0,0,,6+,30.06,,,,,,TRUE,,,,,FEW,4000,,,,,,,VFR,,,,,,,,,,,,METAR,770
OESK 272200Z 13004KT CAVOK 07/M02 Q1022 NOSIG,OESK,2025-01-27T22:00:00Z,29.785,40.1,7,-2,130,4,,6+,30.18,,,,,,TRUE,,,,,CAVOK,,,,,,,,VFR,,,,,,,,,,,,METAR,671
OESH 272200Z 08011KT CAVOK 19/M01 Q1015 NOSIG,OESH,2025-01-27T22:00:00Z,17.467,47.121,19,-1,80,11,,6+,29.97,,,,,,TRUE,,,,,CAVOK,,,,,,,,VFR,,,,,,,,,,,,METAR,720
OERR 272200Z 19003KT CAVOK 08/M03 Q1019 NOSIG,OERR,2025-01-27T22:00:00Z,30.907,41.138,8,-3,190,3,,6+,30.09,,,,,,TRUE,,,,,CAVOK,,,,,,,,VFR,,,,,,,,,,,,METAR,554
OERK 272200Z 01004KT 4000 BR BKN040 12/12 Q1020 NOSIG,OERK,2025-01-27T22:00:00Z,24.945,46.702,12,12,10,4,,2.49,30.12,,,,,,TRUE,,,,BR,BKN,4000,,,,,,,IFR,,,,,,,,,,,,METAR,618
OERF 272200Z 00000KT CAVOK 08/M03 Q1020 NOSIG,OERF,2025-01-27T22:00:00Z,29.626,43.491,8,-3,0,0,,6+,30.12,,,,,,TRUE,,,,,CAVOK,,,,,,,,VFR,,,,,,,,,,,,METAR,441
OEPA 272200Z 27003KT CAVOK 11/07 Q1020 NOSIG,OEPA,2025-01-27T22:00:00Z,28.335,46.125,11,7,270,3,,6+,30.12,,,,,,TRUE,,,,,CAVOK,,,,,,,,VFR,,,,,,,,,,,,METAR,361
OENG 272200Z 00000KT CAVOK 15/00 Q1019 NOSIG,OENG,2025-01-27T22:00:00Z,17.611,44.419,15,0,0,0,,6+,30.09,,,,,,TRUE,,,,,CAVOK,,,,,,,,VFR,,,,,,,,,,,,METAR,1210
OEMN 272200Z 33006KT CAVOK 21/07 Q1015,OEMN,2025-01-27T22:00:00Z,-99.99,-99.99,21,7,330,6,,6+,29.97,,,,,,,,,,,CAVOK,,,,,,,,VFR,,,,,,,,,,,,METAR,9999
OEMA 272200Z 04013KT CAVOK 16/08 Q1018 NOSIG,OEMA,2025-01-27T22:00:00Z,24.553,39.705,16,8,40,13,,6+,30.06,,,,,,TRUE,,,,,CAVOK,,,,,,,,VFR,,,,,,,,,,,,METAR,639
OEKM 272200Z 17005KT CAVOK 11/07 Q1023 NOSIG,OEKM,2025-01-27T22:00:00Z,18.301,42.798,11,7,170,5,,6+,30.21,,,,,,TRUE,,,,,CAVOK,,,,,,,,VFR,,,,,,,,,,,,METAR,2038
OEKJ 272200Z 36005KT 8000 BR NSC 13/09 Q1020,OEKJ,2025-01-27T22:00:00Z,24.0622,47.4112,13,9,360,5,,4.97,30.12,,,,,,,,,,BR,CLR,,,,,,,,MVFR,,,,,,,,,,,,METAR,439
OEJN 272200Z 02005KT CAVOK 21/11 Q1014 NOSIG,OEJN,2025-01-27T22:00:00Z,21.685,39.166,21,11,20,5,,6+,29.94,,,,,,TRUE,,,,,CAVOK,,,,,,,,VFR,,,,,,,,,,,,METAR,8
OEHL 272200Z 15002KT 5000 BR NSC 07/06 Q1020,OEHL,2025-01-27T22:00:00Z,27.438,41.686,7,6,150,2,,3.11,30.12,,,,,,,,,,BR,CLR,,,,,,,,MVFR,,,,,,,,,,,,METAR,1002
OEGT 272200Z 04012KT 9999 FEW040 10/04 Q1020 NOSIG,OEGT,2025-01-27T22:00:00Z,31.412,37.279,10,4,40,12,,6+,30.12,,,,,,TRUE,,,,,FEW,4000,,,,,,,VFR,,,,,,,,,,,,METAR,512
OEGS 272200Z 33003KT 0100 FG SCT030 08/08 Q1020,OEGS,2025-01-27T22:00:00Z,26.303,43.774,8,8,330,3,,0.06,30.12,,,,,,,,,,FG,SCT,3000,,,,,,,LIFR,,,,,,,,,,,,METAR,647
OEGN 272200Z 31005KT CAVOK 26/20 Q1013 NOSIG,OEGN,2025-01-27T22:00:00Z,16.901,42.586,26,20,310,5,,6+,29.91,,,,,,TRUE,,,,,CAVOK,,,,,,,,VFR,,,,,,,,,,,,METAR,5
OEDR 272200Z 30006KT CAVOK 14/12 Q1016,OEDR,2025-01-27T22:00:00Z,26.265,50.152,14,12,300,6,,6+,30.00,,,,,,,,,,,CAVOK,,,,,,,,VFR,,,,,,,,,,,,METAR,17
OEDM 272200Z 05010KT 5000 BR NSC 11/08 Q1018,OEDM,2025-01-27T22:00:00Z,24.45,44.121,11,8,50,10,,3.11,30.06,,,,,,,,,,BR,CLR,,,,,,,,MVFR,,,,,,,,,,,,METAR,922
OEDF 272200Z 31006KT 8000 NSC 14/11 Q1017 TEMPO 7000,OEDF,2025-01-27T22:00:00Z,26.45,49.817,14,11,310,6,,4.97,30.03,,,,,,,,,,,CLR,,,,,,,,MVFR,,,,,,,,,,,,METAR,15
OEBH 272200Z 19004KT CAVOK 17/08 Q1017 NOSIG,OEBH,2025-01-27T22:00:00Z,19.984,42.621,17,8,190,4,,6+,30.03,,,,,,TRUE,,,,,CAVOK,,,,,,,,VFR,,,,,,,,,,,,METAR,1167
OEBA 272200Z 20003KT CAVOK 13/01 Q1020 NOSIG,OEBA,2025-01-27T22:00:00Z,20.296,41.634,13,1,200,3,,6+,30.12,,,,,,TRUE,,,,,CAVOK,,,,,,,,VFR,,,,,,,,,,,,METAR,1659
OEAO 272200Z 04010KT CAVOK 17/04 Q1017 NOSIG,OEAO,2025-01-27T22:00:00Z,26.483,38.117,17,4,40,10,,6+,30.03,,,,,,TRUE,,,,,CAVOK,,,,,,,,VFR,,,,,,,,,,,,METAR,615
OEAH 272200Z 34005KT CAVOK 14/10 Q1018 NOSIG,OEAH,2025-01-27T22:00:00Z,25.285,49.485,14,10,340,5,,6+,30.06,,,,,,TRUE,,,,,CAVOK,,,,,,,,VFR,,,,,,,,,,,,METAR,180
OEAB 272200Z 00000KT CAVOK 09/09 Q1023 NOSIG,OEAB,2025-01-27T22:00:00Z,18.24,42.657,9,9,0,0,,6+,30.21,,,,,,TRUE,,,,,CAVOK,,,,,,,,VFR,,,,,,,,,,,,METAR,2092
OBBI 272200Z 32011KT CAVOK 18/13 Q1017 NOSIG,OBBI,2025-01-27T22:00:00Z,26.271,50.634,18,13,320,11,,6+,30.03,,,,,,TRUE,,,,,CAVOK,,,,,,,,VFR,,,,,,,,,,,,METAR,6
NZWN 272200Z AUTO 02010KT 9999 NCD 19/09 Q1022,NZWN,2025-01-27T22:00:00Z,-41.331,174.806,19,9,20,10,,6+,30.18,,,TRUE,,,,,,,,CLR,,,,,,,,VFR,,,,,,,,,,,,METAR,12
NZQN 272200Z AUTO 26006KT 200V320 9999 NCD 18/M01 Q1016,NZQN,2025-01-27T22:00:00Z,-45.021,168.739,18,-1,260,6,,6+,30.00,,,TRUE,,,,,,,,CLR,,,,,,,,VFR,,,,,,,,,,,,METAR,356
NZCH 272200Z AUTO 06013KT 9999 NCD 18/10 Q1019,NZCH,2025-01-27T22:00:00Z,-43.489,172.528,18,10,60,13,,6+,30.09,,,TRUE,,,,,,,,CLR,,,,,,,,VFR,,,,,,,,,,,,METAR,36
NZAA 272200Z AUTO 03008KT 350V080 9999 BKN032/// BKN042/// 22/14 Q1021,NZAA,2025-01-27T22:00:00Z,-37.008,174.792,22,14,30,8,,6+,30.15,,,TRUE,,,,,,,,BKN,3200,BKN,4200,,,,,VFR,,,,,,,,,,,,METAR,7
NWWW 272200Z AUTO 15010KT CAVOK 30/21 Q1012 BECMG 15020KT,NWWW,2025-01-27T22:00:00Z,-22.015,166.213,30,21,150,10,,6+,29.88,,,TRUE,,,,,,,,CAVOK,,,,,,,,VFR,,,,,,,,,,,,METAR,16
NVVW 272200Z VRB02KT 9999 SCT020 BKN040 BKN110 29/25 Q1010,NVVW,2025-01-27T22:00:00Z,-19.455,169.224,29,25,VRB,2,,6+,29.82,,,,,,,,,,,SCT,2000,BKN,4000,BKN,11000,,,VFR,,,,,,,,,,,,METAR,5
NVVV 272200Z 11011KT 080V140 9999 SCT020 30/25 Q1010,NVVV,2025-01-27T22:00:00Z,-17.695,168.313,30,25,110,11,,6+,29.82,,,,,,,,,,,SCT,2000,,,,,,,VFR,,,,,,,,,,,,METAR,23
NVSS 272200Z 17005KT 140V240 9999 FEW020 29/25 Q1009,NVSS,2025-01-27T22:00:00Z,-15.505,167.22,29,25,170,5,,6+,29.79,,,,,,,,,,,FEW,2000,,,,,,,VFR,,,,,,,,,,,,METAR,47
NTTO 272200Z AUTO 09013KT //// // SCT025/// BKN032/// 29/24 Q1016,NTTO,2025-01-27T22:00:00Z,-18.075,-140.946,29,24,90,13,,,30.00,,,TRUE,,,,,,,,SCT,2500,BKN,3200,,,,,,,,,,,,,,,,,METAR,3
NTTB 272200Z AUTO 08013KT //// R29///// // FEW023/// SCT028/// 31/25 Q1013,NTTB,2025-01-27T22:00:00Z,-16.445,-151.752,31,25,80,13,,,29.91,,,TRUE,,,,,,,,FEW,2300,SCT,2800,,,,,,,,,,,,,,,,,METAR,6
NTAT 272200Z AUTO 02006KT 9999 NCD 30/24 Q1017,NTAT,2025-01-27T22:00:00Z,-23.365,-149.524,30,24,20,6,,6+,30.03,,,TRUE,,,,,,,,CLR,,,,,,,,VFR,,,,,,,,,,,,METAR,2
NTAA 272200Z AUTO 22008KT 9999 BKN035 BKN047 BKN056 30/24 Q1014 BECMG 05015G25KT,NTAA,2025-01-27T22:00:00Z,-17.554,-149.607,30,24,220,8,,6+,29.94,,,TRUE,,,,,,,,BKN,3500,BKN,4700,BKN,5600,,,VFR,,,,,,,,,,,,METAR,2
NSFA 272200Z 03008KT 9999 SCT022 BKN260 31/25 Q1011,NSFA,2025-01-27T22:00:00Z,-13.829,-171.993,31,25,30,8,,6+,29.85,,,,,,,,,,,SCT,2200,BKN,26000,,,,,VFR,,,,,,,,,,,,METAR,6
NLWW 272200Z VRB03KT 9999 SCT018 SCT083 28/25 Q1010 TEMPO 2000 +SHRA BKN012 SCT016CB BKN200,NLWW,2025-01-27T22:00:00Z,-13.238,-176.199,28,25,VRB,3,,6+,29.82,,,,,,,,,,,SCT,1800,SCT,8300,,,,,VFR,,,,,,,,,,,,METAR,24
NIUE 272200Z AUTO 34004KT 300V040 9999 SCT026/// 30/24 Q1012,NIUE,2025-01-27T22:00:00Z,-19.079,-169.926,30,24,340,4,,6+,29.88,,,TRUE,,,,,,,,SCT,2600,,,,,,,VFR,,,,,,,,,,,,METAR,22
NGTA 272200Z 09018KT 9999 FEW019 SCT300 28/24 Q1009,NGTA,2025-01-27T22:00:00Z,1.381,173.147,28,24,90,18,,6+,29.79,,,,,,,,,,,FEW,1900,SCT,30000,,,,,VFR,,,,,,,,,,,,METAR,8
NGFU 272200Z 02013KT 9999 FEW016CB FEW018TCU SCT300 31/27 Q1009,NGFU,2025-01-27T22:00:00Z,-8.523,179.198,31,27,20,13,,6+,29.79,,,,,,,,,,,FEW,1600,FEW,1800,SCT,30000,,,VFR,,,,,,,,,,,,METAR,2
NFTV 272200Z 07006KT 9999 -SHRA SCT016 OVC110 26/24 Q1012,NFTV,2025-01-27T22:00:00Z,-18.585,-173.963,26,24,70,6,,6+,29.88,,,,,,,,,,-SHRA,SCT,1600,OVC,11000,,,,,VFR,,,,,,,,,,,,METAR,71
NFTL 272200Z 07010KT 9999 -RA FEW009 SCT016 BKN100 26/24 Q1011,NFTL,2025-01-27T22:00:00Z,-19.777,-174.34,26,24,70,10,,6+,29.85,,,,,,,,,,-RA,FEW,900,SCT,1600,BKN,10000,,,VFR,,,,,,,,,,,,METAR,10
NFTF 272200Z 06005KT 9999 -DZ FEW009 FEW016TCU OVC280 28/25 Q1013,NFTF,2025-01-27T22:00:00Z,-21.241,-175.15,28,25,60,5,,6+,29.91,,,,,,,,,,-DZ,FEW,900,FEW,1600,OVC,28000,,,VFR,,,,,,,,,,,,METAR,38
NFNS 272200Z 03006KT 350V060 9999 VCSH SCT020 SCT045 OVC110 26/24 Q1011,NFNS,2025-01-27T22:00:00Z,-16.803,179.341,26,24,30,6,,6+,29.85,,,,,,,,,,VCSH,SCT,2000,SCT,4500,OVC,11000,,,VFR,,,,,,,,,,,,METAR,4
NFNM 272200Z 07013KT 8000 -SHRA BKN017TCU SCT045 OVC100 25/25 Q1010,NFNM,2025-01-27T22:00:00Z,-16.691,-179.877,25,25,70,13,,4.97,29.82,,,,,,,,,,-SHRA,BKN,1700,SCT,4500,OVC,10000,,,MVFR,,,,,,,,,,,,METAR,21
NFFN 272200Z 29003KT 9999 FEW028 SCT110 BKN300 28/23 Q1011 NOSIG,NFFN,2025-01-27T22:00:00Z,-17.755,177.443,28,23,290,3,,6+,29.85,,,,,,TRUE,,,,,FEW,2800,SCT,11000,BKN,30000,,,VFR,,,,,,,,,,,,METAR,14
NCSW 272200Z AUTO NIL,NCSW,2025-01-27T22:00:00Z,-99.99,-99.99,,,,,,,0.00,,,TRUE,,,,,,,,,,,,,,,,,,,,,,,,,,,,METAR,9999
NCRK 272200Z AUTO NIL,NCRK,2025-01-27T22:00:00Z,-10.032,-161.101,,,,,,,0.00,,,TRUE,,,,,,,,,,,,,,,,,,,,,,,,,,,,METAR,7
NCRG 272200Z AUTO 04008KT 9999 FEW019/// 30/26 Q1014,NCRG,2025-01-27T22:00:00Z,-21.203,-159.806,30,26,40,8,,6+,29.94,,,TRUE,,,,,,,,FEW,1900,,,,,,,VFR,,,,,,,,,,,,METAR,7
NCPY 272200Z AUTO 06015KT 9999 SCT018 BKN090 26/22 Q1012,NCPY,2025-01-27T22:00:00Z,-9.01,-158.034,26,22,60,15,,6+,29.88,,,TRUE,,,,,,,,SCT,1800,BKN,9000,,,,,VFR,,,,,,,,,,,,METAR,2
NCPL 272200Z AUTO 09003KT //// ////// 33/26 Q1012,NCPL,2025-01-27T22:00:00Z,1.98,-157.48,33,26,90,3,,,29.88,,,TRUE,,,,,,,,,,,,,,,,,,,,,,,,,,,,METAR,3
NCNS 272200Z AUTO NIL,NCNS,2025-01-27T22:00:00Z,-99.99,-99.99,,,,,,,0.00,,,TRUE,,,,,,,,,,,,,,,,,,,,,,,,,,,,METAR,9999
NCMR 272200Z AUTO 03007KT //// ////// 30/24 Q1014,NCMR,2025-01-27T22:00:00Z,-19.842,-157.703,30,24,30,7,,,29.94,,,TRUE,,,,,,,,,,,,,,,,,,,,,,,,,,,,METAR,8
NCMK 272200Z AUTO NIL,NCMK,2025-01-27T22:00:00Z,-20.137,-157.344,,,,,,,0.00,,,TRUE,,,,,,,,,,,,,,,,,,,,,,,,,,,,METAR,13
NCMH 272200Z AUTO 35003KT //// ////// 30/25 Q1011,NCMH,2025-01-27T22:00:00Z,-10.374,-161.004,30,25,350,3,,,29.85,,,TRUE,,,,,,,,,,,,,,,,,,,,,,,,,,,,METAR,1
NCMG 272200Z AUTO 07005KT //// ////// 27/23 Q1015,NCMG,2025-01-27T22:00:00Z,-21.896,-157.907,27,23,70,5,,,29.97,,,TRUE,,,,,,,,,,,,,,,,,,,,,,,,,,,,METAR,14
NCAT 272200Z AUTO 03006KT //// ////// 31/25 Q1014,NCAT,2025-01-27T22:00:00Z,-19.968,-158.119,31,25,30,6,,,29.94,,,TRUE,,,,,,,,,,,,,,,,,,,,,,,,,,,,METAR,11
NCAI 272200Z AUTO 05006KT 9999 BKN018 30/24 Q1014,NCAI,2025-01-27T22:00:00Z,-18.829,-159.766,30,24,50,6,,6+,29.94,,,TRUE,,,,,,,,BKN,1800,,,,,,,MVFR,,,,,,,,,,,,METAR,7
MZBZ 272200Z 12003KT 9999 BKN018 28/24 A2995 Q1014 NOSIG,MZBZ,2025-01-27T22:00:00Z,17.538,-88.309,28,24,120,3,,6+,29.94,,,,,,TRUE,,,,,BKN,1800,,,,,,,MVFR,,,,,,,,,,,,METAR,6
MYSM 272200Z AUTO 11009KT 9999 FEW021/// 25/21 A3006,MYSM,2025-01-27T22:00:00Z,24.064,-74.529,25,21,110,9,,6+,30.06,,,TRUE,,,,,,,,FEW,2100,,,,,,,VFR,,,,,,,,,,,,METAR,5
MYNN 272200Z 06009KT 030V090 9999 SCT025 OVC045 23/18 A3011 PKWND 12KTS,MYNN,2025-01-27T22:00:00Z,25.04,-77.467,23,18,60,9,,6+,30.11,,,,,,,,,,TS,SCT,2500,OVC,4500,,,,,VFR,,,,,,,,,,,,METAR,5
MYGF 272200Z 02006KT 9999 FEW035 20/14 A3012,MYGF,2025-01-27T22:00:00Z,26.555,-78.698,20,14,20,6,,6+,30.12,,,,,,,,,,,FEW,3500,,,,,,,VFR,,,,,,,,,,,,METAR,2
MYCB 272200Z AUTO 03008KT 360V060 9999 // OVC008 23/22 A3007,MYCB,2025-01-27T22:00:00Z,24.315,-75.452,23,22,30,8,,6+,30.07,,,TRUE,,,,,,,,OVC,800,,,,,,,IFR,,,,,,,,,,,,METAR,2
MWCR 272200Z 05010KT 9999 FEW018 28/22 Q1015,MWCR,2025-01-27T22:00:00Z,19.294,-81.357,28,22,50,10,,6+,29.97,,,,,,,,,,,FEW,1800,,,,,,,VFR,,,,,,,,,,,,METAR,4
MWCB 272200Z 05008KT 9999 FEW018 27/23 Q1015,MWCB,2025-01-27T22:00:00Z,19.688,-79.879,27,23,50,8,,6+,29.97,,,,,,,,,,,FEW,1800,,,,,,,VFR,,,,,,,,,,,,METAR,7
MTPP 272200Z 10016G26KT 9999 SCT026CB SCT060 29/20 Q1012 A2989 RMK/CB/NE/SE,MTPP,2025-01-27T22:00:00Z,18.577,-72.305,29,20,100,16,26,6+,29.88,,,,,,,,,,,SCT,2600,SCT,6000,,,,,VFR,,,,,,,,,,,,METAR,36
MSSS 272200Z 06008KT 020V100 9999 FEW040 32/16 Q1012 A2990,MSSS,2025-01-27T22:00:00Z,13.704,-89.123,32,16,60,8,,6+,29.88,,,,,,,,,,,FEW,4000,,,,,,,VFR,,,,,,,,,,,,METAR,611
MSLP 272200Z 22006KT 180V250 9999 FEW057 32/19 Q1008 A2977 NOSIG,MSLP,2025-01-27T22:00:00Z,13.438,-89.056,32,19,220,6,,6+,29.76,,,,,,TRUE,,,,,FEW,5700,,,,,,,VFR,,,,,,,,,,,,METAR,25
MRPV 272200Z 07016KT 9999 FEW045 25/14 A2996 NOSIG,MRPV,2025-01-27T22:00:00Z,9.957,-84.141,25,14,70,16,,6+,29.96,,,,,,TRUE,,,,,FEW,4500,,,,,,,VFR,,,,,,,,,,,,METAR,998
MROC 272200Z 09015KT 9999 FEW040 27/14 A2989 NOSIG,MROC,2025-01-27T22:00:00Z,9.991,-84.218,27,14,90,15,,6+,29.89,,,,,,TRUE,,,,,FEW,4000,,,,,,,VFR,,,,,,,,,,,,METAR,900
MRLM 272200Z 11004KT 9999 FEW030 SCT130 28/23 A2983,MRLM,2025-01-27T22:00:00Z,9.961,-83.026,28,23,110,4,,6+,29.83,,,,,,,,,,,FEW,3000,SCT,13000,,,,,VFR,,,,,,,,,,,,METAR,2
MRLB 272200Z 08015KT CAVOK 31/19 A2974,MRLB,2025-01-27T22:00:00Z,10.589,-85.552,31,19,80,15,,6+,29.74,,,,,,,,,,,CAVOK,,,,,,,,VFR,,,,,,,,,,,,METAR,79
MPTO 272200Z VRB02KT 9999 SCT020 30/23 Q1007 NOSIG,MPTO,2025-01-27T22:00:00Z,9.056,-79.391,30,23,VRB,2,,6+,29.73,,,,,,TRUE,,,,,SCT,2000,,,,,,,VFR,,,,,,,,,,,,METAR,7
MPPA 272200Z 33011KT 9000 FEW030 30/23 Q1006,MPPA,2025-01-27T22:00:00Z,8.909,-79.597,30,23,330,11,,5.59,29.70,,,,,,,,,,,FEW,3000,,,,,,,VFR,,,,,,,,,,,,METAR,1
MPMG 272200Z 33012KT 9000 VCSH SCT017TCU 31/22 Q1007 NOSIG,MPMG,2025-01-27T22:00:00Z,8.967,-79.555,31,22,330,12,,5.59,29.73,,,,,,TRUE,,,,VCSH,SCT,1700,,,,,,,VFR,,,,,,,,,,,,METAR,6
MPDA 272200Z 20006KT 9999 SCT017TCU 31/25 Q1006 TEMPO SCT017CB,MPDA,2025-01-27T22:00:00Z,8.391,-82.434,31,25,200,6,,6+,29.70,,,,,,,,,,,SCT,1700,,,,,,,VFR,,,,,,,,,,,,METAR,15
MNRS 272200Z 02004KT 9999 FEW013CB BKN060 28/24 Q1008 CB/E,MNRS,2025-01-27T22:00:00Z,11.417,-85.833,28,24,20,4,,6+,29.76,,,,,,,,,,,FEW,1300,BKN,6000,,,,,VFR,,,,,,,,,,,,METAR,53
MNPC 272200Z 07008KT 6000 VCRA BKN016TCU 28/25 Q1010 TCURA/N/NW,MNPC,2025-01-27T22:00:00Z,14.045,-83.388,28,25,70,8,,3.73,29.82,,,,,,,,,,VCRA RA,BKN,1600,,,,,,,MVFR,,,,,,,,,,,,METAR,10
MNMG 272200Z 11010KT 9999 FEW025 31/21 Q1008 A2978 NOSIG,MNMG,2025-01-27T22:00:00Z,12.141,-86.177,31,21,110,10,,6+,29.76,,,,,,TRUE,,,,,FEW,2500,,,,,,,VFR,,,,,,,,,,,,METAR,59
MNJU 272200Z 09006KT 9999 SCT020 32/24 Q1009,MNJU,2025-01-27T22:00:00Z,12.1,-85.367,32,24,90,6,,6+,29.79,,,,,,,,,,,SCT,2000,,,,,,,VFR,,,,,,,,,,,,METAR,85
MNJG 272200Z 36008KT 9999 SCT014 21/19 Q1011,MNJG,2025-01-27T22:00:00Z,13.141,-86.019,21,19,360,8,,6+,29.85,,,,,,,,,,,SCT,1400,,,,,,,VFR,,,,,,,,,,,,METAR,981
MNCH 272200Z 18004KT 9999 SCT025 SCT090 32/23 Q1008,MNCH,2025-01-27T22:00:00Z,12.638,-87.136,32,23,180,4,,6+,29.76,,,,,,,,,,,SCT,2500,SCT,9000,,,,,VFR,,,,,,,,,,,,METAR,70
MNBL 272200Z 10004KT 9999 FEW020 28/26 Q1010,MNBL,2025-01-27T22:00:00Z,11.995,-83.768,28,26,100,4,,6+,29.82,,,,,,,,,,,FEW,2000,,,,,,,VFR,,,,,,,,,,,,METAR,10
MKJS 272200Z 06013KT 9999 FEW022 27/23 Q1013,MKJS,2025-01-27T22:00:00Z,18.502,-77.915,27,23,60,13,,6+,29.91,,,,,,,,,,,FEW,2200,,,,,,,VFR,,,,,,,,,,,,METAR,3
MKJP 272200Z 13010KT 9999 FEW022 29/22 Q1012,MKJP,2025-01-27T22:00:00Z,17.942,-76.798,29,22,130,10,,6+,29.88,,,,,,,,,,,FEW,2200,,,,,,,VFR,,,,,,,,,,,,METAR,3
MHTR 272200Z 00000KT 9999 SCT022TCU 27/24,MHTR,2025-01-27T22:00:00Z,15.926,-85.939,27,24,0,0,,6+,0.00,,,,,,,,,,,SCT,2200,,,,,,,VFR,,,,,,,,,,,,METAR,3
MHTG 272200Z 36017KT 9999 BKN038 25/15 Q1017 A3003 NOSIG,MHTG,2025-01-27T22:00:00Z,14.06,-87.216,25,15,360,17,,6+,30.03,,,,,,TRUE,,,,,BKN,3800,,,,,,,VFR,,,,,,,,,,,,METAR,1001
MHTE 272200Z 36007KT 9999 SCT024 26/23 Q1012 A2988,MHTE,2025-01-27T22:00:00Z,15.776,-87.473,26,23,360,7,,6+,29.88,,,,,,,,,,,SCT,2400,,,,,,,VFR,,,,,,,,,,,,METAR,7
MHSR 272200Z 36006KT 9999 BKN025 23/20,MHSR,2025-01-27T22:00:00Z,14.783,-88.783,23,20,360,6,,6+,0.00,,,,,,,,,,,BKN,2500,,,,,,,MVFR,,,,,,,,,,,,METAR,1087
MHRO 272200Z 02006KT 9999 FEW025 27/23 Q1014 A2995 NOSIG,MHRO,2025-01-27T22:00:00Z,16.316,-86.523,27,23,20,6,,6+,29.94,,,,,,TRUE,,,,,FEW,2500,,,,,,,VFR,,,,,,,,,,,,METAR,6
MHPR 272200Z 36014KT 9999 BKN050 28/18 Q1015 A2999 NOSIG,MHPR,2025-01-27T22:00:00Z,14.382,-87.621,28,18,360,14,,6+,29.97,,,,,,TRUE,,,,,BKN,5000,,,,,,,VFR,,,,,,,,,,,,METAR,628
MHPL 272200Z 06008KT 9999 SCT024TCU BKN080 25/23 RERA,MHPL,2025-01-27T22:00:00Z,15.262,-83.776,25,23,60,8,,6+,0.00,,,,,,,,,,,SCT,2400,BKN,8000,,,,,VFR,,,,,,,,,,,,METAR,13
MHLM 272200Z 03010KT 9999 FEW024 29/26 Q1013 A2991 NOSIG,MHLM,2025-01-27T22:00:00Z,15.442,-87.934,29,26,30,10,,6+,29.91,,,,,,TRUE,,,,,FEW,2400,,,,,,,VFR,,,,,,,,,,,,METAR,32
MHLE 272200Z 02004KT 9999 FEW024 20/13,MHLE,2025-01-27T22:00:00Z,14.291,-88.175,20,13,20,4,,6+,0.00,,,,,,,,,,,FEW,2400,,,,,,,VFR,,,,,,,,,,,,METAR,1688
MHLC 272200Z 36005KT 9999 SCT020 26/23 Q1014 A2995 NOSIG,MHLC,2025-01-27T22:00:00Z,15.737,-86.864,26,23,360,5,,6+,29.94,,,,,,TRUE,,,,,SCT,2000,,,,,,,VFR,,,,,,,,,,,,METAR,13
MHGS 272200Z 34006KT 9999 SCT032 26/20,MHGS,2025-01-27T22:00:00Z,14.573,-88.596,26,20,340,6,,6+,0.00,,,,,,,,,,,SCT,3200,,,,,,,VFR,,,,,,,,,,,,METAR,913
MHCH 272200Z 36002KT 9999 BKN034 34/18,MHCH,2025-01-27T22:00:00Z,13.318,-87.154,34,18,360,2,,6+,0.00,,,,,,,,,,,BKN,3400,,,,,,,VFR,,,,,,,,,,,,METAR,58
MHCA 272200Z 00000KT 9999 SCT028 SCT070 26/22 Q1018,MHCA,2025-01-27T22:00:00Z,14.875,-85.775,26,22,0,0,,6+,30.06,,,,,,,,,,,SCT,2800,SCT,7000,,,,,VFR,,,,,,,,,,,,METAR,386
MGZA 272200Z 07012KT 9999 FEW024 31/17 QFE 987/4,MGZA,2025-01-27T22:00:00Z,14.959,-89.538,31,17,70,12,,6+,0.00,,,,,,,,,,,FEW,2400,,,,,,,VFR,,,,,,,,,,,,METAR,195
MGTU 272200Z32004KT CAVOK 33/23,MGTU,2025-01-27T22:00:00Z,-99.99,-99.99,33,23,320,4,,6+,0.00,,,,,,,,,,,CAVOK,,,,,,,,VFR,,,,,,,,,,,,METAR,9999
MGRT 272200Z 25012KT 9999 SCT020TCU 33/22 Q1011 A2985 TCU N/NNE/NE/NNW VOLC STA MARIA Y SANTIAGO EN ACTV,MGRT,2025-01-27T22:00:00Z,14.523,-91.697,33,22,250,12,,6+,29.85,,,,,,,,,,SA,SCT,2000,,,,,,,VFR,,,,,,,,,,,,METAR,209
MGQZ 272200Z 05010KT 9999 FEW020 21/07 QFE 771/9,MGQZ,2025-01-27T22:00:00Z,14.862,-91.506,21,7,50,10,,6+,0.00,,,,,,,,,,,FEW,2000,,,,,,,VFR,,,,,,,,,,,,METAR,2378
MGPB 272200Z 00000KT 9999 FEW020 27/23 Q1013 A2991,MGPB,2025-01-27T22:00:00Z,15.737,-88.589,27,23,0,0,,6+,29.91,,,,,,,,,,,FEW,2000,,,,,,,VFR,,,,,,,,,,,,METAR,6
MGMT 272200Z 18004KT CAVOK 33/27,MGMT,2025-01-27T22:00:00Z,-99.99,-99.99,33,27,180,4,,6+,0.00,,,,,,,,,,,CAVOK,,,,,,,,VFR,,,,,,,,,,,,METAR,9999
MGMM 272200Z 36004KTT 9999 BKN020 28/23 Q1015 A2997,MGMM,2025-01-27T22:00:00Z,16.914,-89.866,28,23,,,,6+,29.97,,,,,,,,,,,BKN,2000,,,,,,,MVFR,,,,,,,,,,,,METAR,105
MGHT 272200Z 18016KT 9999 SCT028 23/10,MGHT,2025-01-27T22:00:00Z,15.317,-91.503,23,10,180,16,,6+,0.00,,,,,,,,,,,SCT,2800,,,,,,,VFR,,,,,,,,,,,,METAR,1875
MGGT 272200Z 02020KT 9999 FEW020 25/15 Q1020 A3012,MGGT,2025-01-27T22:00:00Z,14.585,-90.526,25,15,20,20,,6+,30.12,,,,,,,,,,,FEW,2000,,,,,,,VFR,,,,,,,,,,,,METAR,1497
MGES 272200Z 03008KT 9999 BKN018 23/18 QFE 909.2,MGES,2025-01-27T22:00:00Z,14.568,-89.326,23,18,30,8,,6+,0.00,,,,,,,,,,,BKN,1800,,,,,,,MVFR,,,,,,,,,,,,METAR,948
MGCB 272200Z 07004KT 9999 BKN018 21/16 QFE 872.4,MGCB,2025-01-27T22:00:00Z,15.47,-90.406,21,16,70,4,,6+,0.00,,,,,,,,,,,BKN,1800,,,,,,,MVFR,,,,,,,,,,,,METAR,1323
MDST 272200Z 09007KT 050V130 9999 BKN018 26/21 Q1014,MDST,2025-01-27T22:00:00Z,19.407,-70.614,26,21,90,7,,6+,29.94,,,,,,,,,,,BKN,1800,,,,,,,MVFR,,,,,,,,,,,,METAR,175
MDSD 272200Z 13008KT 9999 FEW020 SCT080 28/25 Q1014,MDSD,2025-01-27T22:00:00Z,18.433,-69.667,28,25,130,8,,6+,29.94,,,,,,,,,,,FEW,2000,SCT,8000,,,,,VFR,,,,,,,,,,,,METAR,18
MDPP 272200Z 09008KT 9999 SCT018 SCT070 25/23 Q1014,MDPP,2025-01-27T22:00:00Z,19.759,-70.571,25,23,90,8,,6+,29.94,,,,,,,,,,,SCT,1800,SCT,7000,,,,,VFR,,,,,,,,,,,,METAR,9
MDPC 272200Z 04004KT 9999 FEW020 SCT080 26/23 Q1015,MDPC,2025-01-27T22:00:00Z,18.566,-68.356,26,23,40,4,,6+,29.97,,,,,,,,,,,FEW,2000,SCT,8000,,,,,VFR,,,,,,,,,,,,METAR,10
MDLR 272200Z 09010KT 9999 BKN018 25/23 Q1015 RESH,MDLR,2025-01-27T22:00:00Z,18.451,-68.921,25,23,90,10,,6+,29.97,,,,,,,,,,,BKN,1800,,,,,,,MVFR,,,,,,,,,,,,METAR,66
MDJB 272200Z 18005KT 9999 FEW016CB BKN018 SCT070 27/24 Q1014 CB/NE/N,MDJB,2025-01-27T22:00:00Z,18.577,-69.984,27,24,180,5,,6+,29.94,,,,,,,,,,,FEW,1600,BKN,1800,SCT,7000,,,MVFR,,,,,,,,,,,,METAR,24
MDCY 272200Z 09018KT 9999 SCT018 26/23 Q1013 RERA,MDCY,2025-01-27T22:00:00Z,19.271,-69.733,26,23,90,18,,6+,29.91,,,,,,,,,,,SCT,1800,,,,,,,VFR,,,,,,,,,,,,METAR,4
MDBH 272200Z 16008KT 9999 BKN020 SCT100 28/23 Q1013,MDBH,2025-01-27T22:00:00Z,18.25,-71.126,28,23,160,8,,6+,29.91,,,,,,,,,,,BKN,2000,SCT,10000,,,,,MVFR,,,,,,,,,,,,METAR,7
MBPV 272200Z 13006KT 9999 SCT012 26/19 Q1015,MBPV,2025-01-27T22:00:00Z,21.772,-72.265,26,19,130,6,,6+,29.97,,,,,,,,,,,SCT,1200,,,,,,,VFR,,,,,,,,,,,,METAR,7
LZZI 272200Z VRB02KT 8000 FEW037 01/00 Q1007,LZZI,2025-01-27T22:00:00Z,49.231,18.613,1,0,VRB,2,,4.97,29.73,,,,,,,,,,,FEW,3700,,,,,,,MVFR,,,,,,,,,,,,METAR,311
LZTT 272200Z 23008KT 180V260 9999 FEW023 04/01 Q1007,LZTT,2025-01-27T22:00:00Z,49.068,20.25,4,1,230,8,,6+,29.73,,,,,,,,,,,FEW,2300,,,,,,,VFR,,,,,,,,,,,,METAR,693
LZPP 272200Z 15011KT 120V190 CAVOK 09/05 Q1005,LZPP,2025-01-27T22:00:00Z,48.613,17.832,9,5,150,11,,6+,29.68,,,,,,,,,,,CAVOK,,,,,,,,VFR,,,,,,,,,,,,METAR,160
LZKZ 272200Z 19002KT CAVOK 05/04 Q1009 NOSIG,LZKZ,2025-01-27T22:00:00Z,48.661,21.24,5,4,190,2,,6+,29.79,,,,,,TRUE,,,,,CAVOK,,,,,,,,VFR,,,,,,,,,,,,METAR,227
LZIB 272200Z 02006KT CAVOK 05/04 Q1004 NOSIG,LZIB,2025-01-27T22:00:00Z,48.17,17.207,5,4,20,6,,6+,29.65,,,,,,TRUE,,,,,CAVOK,,,,,,,,VFR,,,,,,,,,,,,METAR,129
LYVR 272200Z AUTO 17014KT CAVOK 14/04 Q1013,LYVR,2025-01-27T22:00:00Z,45.147,21.31,14,4,170,14,,6+,29.91,,,TRUE,,,,,,,,CAVOK,,,,,,,,VFR,,,,,,,,,,,,METAR,82
LYTV 272200Z AUTO VRB01KT 9999 BKN033/// BKN100/// 09/09 Q1020,LYTV,2025-01-27T22:00:00Z,42.405,18.723,9,9,VRB,1,,6+,30.12,,,TRUE,,,,,,,,BKN,3300,BKN,10000,,,,,VFR,,,,,,,,,,,,METAR,3
LYPG 272200Z 01003KT 6000 FEW030 SCT050 09/08 Q1020 NOSIG,LYPG,2025-01-27T22:00:00Z,42.359,19.252,9,8,10,3,,3.73,30.12,,,,,,TRUE,,,,,FEW,3000,SCT,5000,,,,,MVFR,,,,,,,,,,,,METAR,32
LYNI 272200Z 20005KT CAVOK 10/04 Q1017 NOSIG,LYNI,2025-01-27T22:00:00Z,43.338,21.863,10,4,200,5,,6+,30.03,,,,,,TRUE,,,,,CAVOK,,,,,,,,VFR,,,,,,,,,,,,METAR,197
LYKV 272200Z VRB01KT 5000 BR NSC 05/05 Q1014 NOSIG,LYKV,2025-01-27T22:00:00Z,43.818,20.587,5,5,VRB,1,,3.11,29.94,,,,,,TRUE,,,,BR,CLR,,,,,,,,MVFR,,,,,,,,,,,,METAR,209
LYBT 272200Z VRB02KT CAVOK 07/04 Q1012 NOSIG,LYBT,2025-01-27T22:00:00Z,44.935,20.258,7,4,VRB,2,,6+,29.88,,,,,,TRUE,,,,,CAVOK,,,,,,,,VFR,,,,,,,,,,,,METAR,78
LYBE 272200Z 16007KT CAVOK 10/02 Q1012 NOSIG,LYBE,2025-01-27T22:00:00Z,44.824,20.291,10,2,160,7,,6+,29.88,,,,,,TRUE,,,,,CAVOK,,,,,,,,VFR,,,,,,,,,,,,METAR,93
LUKK 272200Z VRB03KT 5000 BR OVC004 05/04 Q1016 TEMPO 1500 BR OVC002,LUKK,2025-01-27T22:00:00Z,46.928,28.931,5,4,VRB,3,,3.11,30.00,,,,,,,,,,BR,OVC,400,,,,,,,LIFR,,,,,,,,,,,,METAR,102
LRTR 272200Z 10007KT CAVOK 04/02 Q1013,LRTR,2025-01-27T22:00:00Z,45.811,21.333,4,2,100,7,,6+,29.91,,,,,,,,,,,CAVOK,,,,,,,,VFR,,,,,,,,,,,,METAR,104
LRTM 272200Z AUTO 09007KT 8000 NCD 01/M00 Q1015,LRTM,2025-01-27T22:00:00Z,46.468,24.421,1,0,90,7,,4.97,29.97,,,TRUE,,,,,,,,CLR,,,,,,,,MVFR,,,,,,,,,,,,METAR,289
LRTC 272200Z AUTO 17004KT 4200 BR NCD 04/03 Q1017,LRTC,2025-01-27T22:00:00Z,45.065,28.716,4,3,170,4,,2.61,30.03,,,TRUE,,,,,,,BR,CLR,,,,,,,,IFR,,,,,,,,,,,,METAR,52
LRSV 272200Z 23006KT CAVOK 05/02 Q1013,LRSV,2025-01-27T22:00:00Z,47.686,26.354,5,2,230,6,,6+,29.91,,,,,,,,,,,CAVOK,,,,,,,,VFR,,,,,,,,,,,,METAR,406
LRSM 272200Z AUTO 17007KT 9999 OVC065/// 10/04 Q1012,LRSM,2025-01-27T22:00:00Z,47.703,22.886,10,4,170,7,,6+,29.88,,,TRUE,,,,,,,,OVC,6500,,,,,,,VFR,,,,,,,,,,,,METAR,123
LRSB 272200Z VRB02KT CAVOK 00/M02 Q1015,LRSB,2025-01-27T22:00:00Z,45.789,24.091,0,-2,VRB,2,,6+,29.97,,,,,,,,,,,CAVOK,,,,,,,,VFR,,,,,,,,,,,,METAR,442
LROP 272200Z 27004KT 7000 NSC 03/03 Q1017 NOSIG,LROP,2025-01-27T22:00:00Z,44.572,26.102,3,3,270,4,,4.35,30.03,,,,,,TRUE,,,,,CLR,,,,,,,,MVFR,,,,,,,,,,,,METAR,92
LROD 272200Z AUTO 18012KT 9999 SCT065/// 12/04 Q1012,LROD,2025-01-27T22:00:00Z,47.036,21.896,12,4,180,12,,6+,29.88,,,TRUE,,,,,,,,SCT,6500,,,,,,,VFR,,,,,,,,,,,,METAR,132
LRIA 272200Z 10008KT 0100 R14/0375N FG VV001 02/02 Q1015,LRIA,2025-01-27T22:00:00Z,47.164,27.627,2,2,100,8,,0.06,29.97,,,,,,,,,,FG,OVX,0,,,,,,,LIFR,,,,,,,,,,,100,METAR,71
LRCV 272200Z 03006KT CAVOK 03/01 Q1016,LRCV,2025-01-27T22:00:00Z,44.31,23.867,3,1,30,6,,6+,30.00,,,,,,,,,,,CAVOK,,,,,,,,VFR,,,,,,,,,,,,METAR,192
LRCL 272200Z VRB01KT 4500 BR NSC 02/01 Q1014,LRCL,2025-01-27T22:00:00Z,46.783,23.676,2,1,VRB,1,,2.8,29.94,,,,,,,,,,BR,CLR,,,,,,,,IFR,,,,,,,,,,,,METAR,313
LRCK 272200Z 20003KT 9000 NSC 05/04 Q1017 NOSIG,LRCK,2025-01-27T22:00:00Z,44.362,28.488,5,4,200,3,,5.59,30.03,,,,,,TRUE,,,,,CLR,,,,,,,,VFR,,,,,,,,,,,,METAR,108
LRBV 272200Z AUTO VRB01KT 8000 NCD M00/M02 Q1016,LRBV,2025-01-27T22:00:00Z,45.706,25.524,0,-2,VRB,1,,4.97,30.00,,,TRUE,,,,,,,,CLR,,,,,,,,MVFR,,,,,,,,,,,,METAR,538
LRBS 272200Z 29003KT 270V330 7000 NSC 05/03 Q1017 NOSIG,LRBS,2025-01-27T22:00:00Z,44.511,26.078,5,3,290,3,,4.35,30.03,,,,,,TRUE,,,,,CLR,,,,,,,,MVFR,,,,,,,,,,,,METAR,91
LRBM 272200Z AUTO 07005KT 9999 OVC070/// 09/03 Q1013,LRBM,2025-01-27T22:00:00Z,47.658,23.47,9,3,70,5,,6+,29.91,,,TRUE,,,,,,,,OVC,7000,,,,,,,VFR,,,,,,,,,,,,METAR,180
LRBC 272200Z 16009KT 0300 R34/0350N FG VV001 02/02 Q1015,LRBC,2025-01-27T22:00:00Z,46.522,26.91,2,2,160,9,,0.19,29.97,,,,,,,,,,FG,OVX,0,,,,,,,LIFR,,,,,,,,,,,100,METAR,183
LRAR 272200Z AUTO 17010KT 9999 NCD 10/05 Q1012,LRAR,2025-01-27T22:00:00Z,46.176,21.264,10,5,170,10,,6+,29.88,,,TRUE,,,,,,,,CLR,,,,,,,,VFR,,,,,,,,,,,,METAR,102
LQTZ 272200Z 10004KT 030V120 CAVOK 05/01 Q1011,LQTZ,2025-01-27T22:00:00Z,44.461,18.728,5,1,100,4,,6+,29.85,,,,,,,,,,,CAVOK,,,,,,,,VFR,,,,,,,,,,,,METAR,242
LQSA 272200Z VRB02KT CAVOK 06/02 Q1015,LQSA,2025-01-27T22:00:00Z,43.825,18.331,6,2,VRB,2,,6+,29.97,,,,,,,,,,,CAVOK,,,,,,,,VFR,,,,,,,,,,,,METAR,505
LQMO 272200Z VRB01KT 9999 FEW045 06/05 Q1018,LQMO,2025-01-27T22:00:00Z,43.285,17.84,6,5,VRB,1,,6+,30.06,,,,,,,,,,,FEW,4500,,,,,,,VFR,,,,,,,,,,,,METAR,49
LQBK 272200Z 18010KT CAVOK 14/05 Q1010 NOSIG,LQBK,2025-01-27T22:00:00Z,44.937,17.299,14,5,180,10,,6+,29.82,,,,,,TRUE,,,,,CAVOK,,,,,,,,VFR,,,,,,,,,,,,METAR,114
LPPT 272200Z 26010KT 230V290 9999 FEW025 13/08 Q1021,LPPT,2025-01-27T22:00:00Z,38.781,-9.136,13,8,260,10,,6+,30.15,,,,,,,,,,,FEW,2500,,,,,,,VFR,,,,,,,,,,,,METAR,98
LPPS 272200Z 33007KT 9999 FEW012 17/12 Q1030,LPPS,2025-01-27T22:00:00Z,33.073,-16.35,17,12,330,7,,6+,30.41,,,,,,,,,,,FEW,1200,,,,,,,VFR,,,,,,,,,,,,METAR,89
LPPR 272200Z 25011G22KT 220V290 9999 SCT026 12/07 Q1014,LPPR,2025-01-27T22:00:00Z,41.235,-8.684,12,7,250,11,22,6+,29.94,,,,,,,,,,,SCT,2600,,,,,,,VFR,,,,,,,,,,,,METAR,64
LPPD 272200Z 34006KT 9999 FEW017 14/11 Q1029,LPPD,2025-01-27T22:00:00Z,37.741,-25.698,14,11,340,6,,6+,30.38,,,,,,,,,,,FEW,1700,,,,,,,VFR,,,,,,,,,,,,METAR,62
LPMT 272200Z 26011KT CAVOK 14/08 Q1021,LPMT,2025-01-27T22:00:00Z,38.704,-9.036,14,8,260,11,,6+,30.15,,,,,,,,,,,CAVOK,,,,,,,,VFR,,,,,,,,,,,,METAR,4
LPMR 272200Z 29015G27KT 260V320 8000 SCT025 FEW035CB BKN045 13/07 Q1019,LPMR,2025-01-27T22:00:00Z,39.831,-8.887,13,7,290,15,27,4.97,30.09,,,,,,,,,,,SCT,2500,FEW,3500,BKN,4500,,,MVFR,,,,,,,,,,,,METAR,50
LPMA 272200Z 35015KT 9999 SCT015 18/13 Q1029,LPMA,2025-01-27T22:00:00Z,32.698,-16.774,18,13,350,15,,6+,30.38,,,,,,,,,,,SCT,1500,,,,,,,VFR,,,,,,,,,,,,METAR,54
LPLA 272200Z /////KT 9999 FEW025 13/09 Q1028,LPLA,2025-01-27T22:00:00Z,38.762,-27.091,13,9,,,,6+,30.35,,,,,,,,,,,FEW,2500,,,,,,,VFR,,,,,,,,,,,,METAR,60
LPHR 272200Z 27013KT 9999 FEW020 15/08 Q1028,LPHR,2025-01-27T22:00:00Z,38.521,-28.714,15,8,270,13,,6+,30.35,,,,,,,,,,,FEW,2000,,,,,,,VFR,,,,,,,,,,,,METAR,39
LPFR 272200Z 29010KT 9999 FEW020 15/07 Q1024,LPFR,2025-01-27T22:00:00Z,37.014,-7.966,15,7,290,10,,6+,30.24,,,,,,,,,,,FEW,2000,,,,,,,VFR,,,,,,,,,,,,METAR,3
LPBJ 272200Z 27013KT 9999 FEW030 11/07 Q1022,LPBJ,2025-01-27T22:00:00Z,38.073,-7.931,11,7,270,13,,6+,30.18,,,,,,,,,,,FEW,3000,,,,,,,VFR,,,,,,,,,,,,METAR,196
LPAZ 272200Z 27015KT 9999 FEW016 SCT034 16/12 Q1030,LPAZ,2025-01-27T22:00:00Z,36.971,-25.171,16,12,270,15,,6+,30.41,,,,,,,,,,,FEW,1600,SCT,3400,,,,,VFR,,,,,,,,,,,,METAR,96
LKTB 272200Z 09007KT CAVOK 06/03 Q1004 NOSIG,LKTB,2025-01-27T22:00:00Z,49.151,16.694,6,3,90,7,,6+,29.65,,,,,,TRUE,,,,,CAVOK,,,,,,,,VFR,,,,,,,,,,,,METAR,233
LKPR 272200Z 18008KT 9999 -RA FEW047 06/06 Q1003 NOSIG,LKPR,2025-01-27T22:00:00Z,50.101,14.26,6,6,180,8,,6+,29.62,,,,,,TRUE,,,,-RA,FEW,4700,,,,,,,VFR,,,,,,,,,,,,METAR,364
LKPD 272200Z VRB01KT CAVOK 06/04 Q1004 NOSIG RMK BLU BLU,LKPD,2025-01-27T22:00:00Z,50.016,15.74,6,4,VRB,1,,6+,29.65,,,,,,TRUE,,,,,CAVOK,,,,,,,,VFR,,,,,,,,,,,,METAR,226
LKNA 272200Z 08007KT CAVOK 06/03 Q1003 RMK BLU,LKNA,2025-01-27T22:00:00Z,49.166,16.125,6,3,80,7,,6+,29.62,,,,,,,,,,,CAVOK,,,,,,,,VFR,,,,,,,,,,,,METAR,460
LKMT 272200Z 26004KT CAVOK 06/03 Q1004 NOSIG,LKMT,2025-01-27T22:00:00Z,49.696,18.111,6,3,260,4,,6+,29.65,,,,,,TRUE,,,,,CAVOK,,,,,,,,VFR,,,,,,,,,,,,METAR,251
LKLN 272200Z AUTO 16008KT 9999 -RA FEW057 OVC072 06/05 Q1003,LKLN,2025-01-27T22:00:00Z,49.675,13.275,6,5,160,8,,6+,29.62,,,TRUE,,,,,,,-RA,FEW,5700,OVC,7200,,,,,VFR,,,,,,,,,,,,METAR,353
LKKV 272200Z 19008KT 160V220 9999 SCT011 05/03 Q1001,LKKV,2025-01-27T22:00:00Z,50.202,12.91,5,3,190,8,,6+,29.56,,,,,,,,,,,SCT,1100,,,,,,,VFR,,,,,,,,,,,,METAR,600
LKKB 272200Z 17009KT 9999 -RA NSC 07/05 Q1003,LKKB,2025-01-27T22:00:00Z,50.123,14.538,7,5,170,9,,6+,29.62,,,,,,,,,,-RA,CLR,,,,,,,,VFR,,,,,,,,,,,,METAR,281
LKCV 272200Z 22004KT 190V270 9999 SCT029 BKN041 05/03 Q1004 NOSIG RMK BLU BLU,LKCV,2025-01-27T22:00:00Z,49.94,15.382,5,3,220,4,,6+,29.65,,,,,,TRUE,,,,,SCT,2900,BKN,4100,,,,,VFR,,,,,,,,,,,,METAR,234
LJPZ 272200Z AUTO 14014KT 120V180 9999 -RA SCT065/// BKN090/// BKN120/// 13/11 Q1009,LJPZ,2025-01-27T22:00:00Z,45.473,13.615,13,11,140,14,,6+,29.79,,,TRUE,,,,,,,-RA,SCT,6500,BKN,9000,BKN,12000,,,VFR,,,,,,,,,,,,METAR,2
LJMB 272200Z AUTO 19010KT 9999 OVC036/// 12/06 Q1008,LJMB,2025-01-27T22:00:00Z,46.48,15.682,12,6,190,10,,6+,29.76,,,TRUE,,,,,,,,OVC,3600,,,,,,,VFR,,,,,,,,,,,,METAR,263
LJLJ 272200Z VRB01KT 8000 -RA OVC022 08/08 Q1009 RERA NOSIG,LJLJ,2025-01-27T22:00:00Z,46.218,14.477,8,8,VRB,1,,4.97,29.79,,,,,,TRUE,,,,-RA,OVC,2200,,,,,,,MVFR,,,,,,,,,,,,METAR,363
LJCE 272200Z AUTO /////KT //// R09///// // ////// ///// Q////,LJCE,2025-01-27T22:00:00Z,45.899,15.523,,,,,,,0.00,,,TRUE,,,,,,,,,,,,,,,,,,,,,,,,,,,,METAR,153
LHBP 272200Z 17009KT CAVOK 10/04 Q1009 NOSIG,LHBP,2025-01-27T22:00:00Z,47.437,19.256,10,4,170,9,,6+,29.79,,,,,,TRUE,,,,,CAVOK,,,,,,,,VFR,,,,,,,,,,,,METAR,141
LFYR 272200Z AUTO 19011KT 9999 BKN025 08/06 Q0997,LFYR,2025-01-27T22:00:00Z,47.32,1.688,8,6,190,11,,6+,29.44,,,TRUE,,,,,,,,BKN,2500,,,,,,,MVFR,,,,,,,,,,,,METAR,83
LFVP 272200Z AUTO 26021KT 9999 BKN036 OVC044 M03/M07 Q1008 TEMPO 2500 SHSN BKN015TCU,LFVP,2025-01-27T22:00:00Z,46.764,-56.169,-3,-7,260,21,,6+,29.76,,,TRUE,,,,,,,,BKN,3600,OVC,4400,,,,,VFR,,,,,,,,,,,,METAR,5
LFTW 272200Z AUTO 13014KT 9999 OVC007 13/13 Q0999,LFTW,2025-01-27T22:00:00Z,43.757,4.416,13,13,130,14,,6+,29.50,,,TRUE,,,,,,,,OVC,700,,,,,,,IFR,,,,,,,,,,,,METAR,91
LFTH 272200Z AUTO 19005KT 140V210 7000 SCT011/// SCT031/// BKN088/// ///TCU 15/13 Q1004 TEMPO 25015G25KT 4000 SHRA FEW012 BKN020,LFTH,2025-01-27T22:00:00Z,43.094,6.146,15,13,190,5,,4.35,29.65,,,TRUE,,,,,,,,SCT,1100,SCT,3100,BKN,8800,,,MVFR,,,,,,,,,,,,METAR,3
LFSX 272200Z AUTO 13006KT 9999 BKN047 OVC072 07/05 Q1000,LFSX,2025-01-27T22:00:00Z,47.783,6.364,7,5,130,6,,6+,29.53,,,TRUE,,,,,,,,BKN,4700,OVC,7200,,,,,VFR,,,,,,,,,,,,METAR,266
LFST 272200Z AUTO 21006KT 180V240 9999 FEW048 OVC240 07/04 Q1000 NOSIG,LFST,2025-01-27T22:00:00Z,48.549,7.64,7,4,210,6,,6+,29.53,,,TRUE,,,TRUE,,,,,FEW,4800,OVC,24000,,,,,VFR,,,,,,,,,,,,METAR,149
LFSO 272200Z AUTO 19013KT CAVOK 08/03 Q0998,LFSO,2025-01-27T22:00:00Z,48.583,5.955,8,3,190,13,,6+,29.47,,,TRUE,,,,,,,,CAVOK,,,,,,,,VFR,,,,,,,,,,,,METAR,328
LFSN 272200Z AUTO 19006KT 160V220 CAVOK 09/04 Q0998,LFSN,2025-01-27T22:00:00Z,48.692,6.231,9,4,190,6,,6+,29.47,,,TRUE,,,,,,,,CAVOK,,,,,,,,VFR,,,,,,,,,,,,METAR,214
LFSL 272200Z AUTO 17005KT 130V190 CAVOK 07/06 Q1002,LFSL,2025-01-27T22:00:00Z,45.04,1.486,7,6,170,5,,6+,29.59,,,TRUE,,,,,,,,CAVOK,,,,,,,,VFR,,,,,,,,,,,,METAR,300
LFSI 272200Z AUTO 19012KT 9999 FEW030 BKN068 OVC082 09/05 Q0997,LFSI,2025-01-27T22:00:00Z,48.631,4.904,9,5,190,12,,6+,29.44,,,TRUE,,,,,,,,FEW,3000,BKN,6800,OVC,8200,,,VFR,,,,,,,,,,,,METAR,136
LFSG 272200Z AUTO 19008KT 9999 SCT040 BKN100 BKN120 08/04 Q0999,LFSG,2025-01-27T22:00:00Z,48.325,6.07,8,4,190,8,,6+,29.50,,,TRUE,,,,,,,,SCT,4000,BKN,10000,BKN,12000,,,VFR,,,,,,,,,,,,METAR,320
LFSD 272200Z AUTO 10002KT CAVOK 07/04 Q0999,LFSD,2025-01-27T22:00:00Z,47.269,5.09,7,4,100,2,,6+,29.50,,,TRUE,,,,,,,,CAVOK,,,,,,,,VFR,,,,,,,,,,,,METAR,218
LFSB 272200Z AUTO 11007KT 090V150 CAVOK 08/05 Q1001 TEMPO SCT040TCU,LFSB,2025-01-27T22:00:00Z,47.614,7.51,8,5,110,7,,6+,29.56,,,TRUE,,,,,,,,CAVOK,,,,,,,,VFR,,,,,,,,,,,,METAR,262
LFRZ 272200Z AUTO 22023G33KT 9999 FEW032/// BKN040/// BKN046/// ///TCU 09/06 Q0992 TEMPO 22030G60KT 2000 TSRAGS BKN012 BKN020CB,LFRZ,2025-01-27T22:00:00Z,47.312,-2.163,9,6,220,23,33,6+,29.29,,,TRUE,,,,,,,,FEW,3200,BKN,4000,BKN,4600,,,VFR,,,,,,,,,,,,METAR,2
LFRT 272200Z AUTO 21014KT 170V240 8000 -RA SCT019/// BKN026/// BKN035/// //////CB 07/05 Q0985,LFRT,2025-01-27T22:00:00Z,48.536,-2.853,7,5,210,14,,4.97,29.08,,,TRUE,,,,,,,-RA,SCT,1900,BKN,2600,BKN,3500,,,MVFR,,,,,,,,,,,,METAR,134
LFRS 272200Z AUTO 22014G27KT 180V260 9999 SCT036/// BKN054/// BKN074/// //////TCU 06/04 Q0993 TEMPO 22020G45KT 2000 TSRAGS BKN012 BKN020CB,LFRS,2025-01-27T22:00:00Z,47.15,-1.609,6,4,220,14,27,6+,29.32,,,TRUE,,,,,,,,SCT,3600,BKN,5400,BKN,7400,,,VFR,,,,,,,,,,,,METAR,26
LFRQ 272200Z AUTO 23022G39KT 200V260 9999 FEW017/// BKN031/// OVC039/// //////CB 09/06 Q0985,LFRQ,2025-01-27T22:00:00Z,47.975,-4.168,9,6,230,22,39,6+,29.08,,,TRUE,,,,,,,,FEW,1700,BKN,3100,OVC,3900,,,VFR,,,,,,,,,,,,METAR,94
LFRN 272200Z AUTO 20015KT 9999 -RA FEW028/// SCT034/// BKN041/// //////TCU 08/04 Q0990 TEMPO 22025G40KT 2000 TSRAGS BKN012CB,LFRN,2025-01-27T22:00:00Z,48.069,-1.734,8,4,200,15,,6+,29.23,,,TRUE,,,,,,,-RA,FEW,2800,SCT,3400,BKN,4100,,,VFR,,,,,,,,,,,,METAR,35
LFRM 272200Z AUTO 19011KT 150V210 9999 SCT023 SCT050 BKN060 09/05 Q0993,LFRM,2025-01-27T22:00:00Z,47.949,0.202,9,5,190,11,,6+,29.32,,,TRUE,,,,,,,,SCT,2300,SCT,5000,BKN,6000,,,VFR,,,,,,,,,,,,METAR,51
LFRL 272200Z AUTO 22025G38KT 9999 BKN024/// BKN030/// BKN045/// //////CB 10/07 Q0983,LFRL,2025-01-27T22:00:00Z,48.279,-4.439,10,7,220,25,38,6+,29.03,,,TRUE,,,,,,,,BKN,2400,BKN,3000,BKN,4500,,,MVFR,,,,,,,,,,,,METAR,80
LFRK 272200Z AUTO 19019KT 9999 NCD 07/03 Q0987,LFRK,2025-01-27T22:00:00Z,49.18,-0.456,7,3,190,19,,6+,29.14,,,TRUE,,,,,,,,CLR,,,,,,,,VFR,,,,,,,,,,,,METAR,66
LFRJ 272200Z AUTO 22024G35KT 4900 // ////// 08/07 Q0982,LFRJ,2025-01-27T22:00:00Z,48.527,-4.138,8,7,220,24,35,3.04,29.00,,,TRUE,,,,,,,,,,,,,,,,MVFR,,,,,,,,,,,,METAR,109
LFRI 272200Z AUTO 23016G26KT 9999 BKN039/// BKN049/// OVC068/// //////CB 09/05 Q0995,LFRI,2025-01-27T22:00:00Z,46.702,-1.379,9,5,230,16,26,6+,29.38,,,TRUE,,,,,,,,BKN,3900,BKN,4900,OVC,6800,,,VFR,,,,,,,,,,,,METAR,89
LFRH 272200Z AUTO 22025G36KT 9999 -RA SCT037/// BKN047/// BKN062/// //////CB 10/06 Q0988 TEMPO 2000 TSRAGS BKN013CB,LFRH,2025-01-27T22:00:00Z,47.761,-3.44,10,6,220,25,36,6+,29.17,,,TRUE,,,,,,,-RA,SCT,3700,BKN,4700,BKN,6200,,,VFR,,,,,,,,,,,,METAR,46
LFRG 272200Z AUTO 20016G28KT 170V230 9999 FEW021/// BKN031/// BKN045/// 07/04 Q0988,LFRG,2025-01-27T22:00:00Z,49.365,0.154,7,4,200,16,28,6+,29.17,,,TRUE,,,,,,,,FEW,2100,BKN,3100,BKN,4500,,,VFR,,,,,,,,,,,,METAR,146
LFRD 272200Z AUTO 20020KT 9999 FEW036 SCT140 07/05 Q0986,LFRD,2025-01-27T22:00:00Z,48.589,-2.075,7,5,200,20,,6+,29.11,,,TRUE,,,,,,,,FEW,3600,SCT,14000,,,,,VFR,,,,,,,,,,,,METAR,56
LFRC 272200Z AUTO 20019KT 9999 BKN023/// BKN048/// 07/04 Q0983,LFRC,2025-01-27T22:00:00Z,49.65,-1.47,7,4,200,19,,6+,29.03,,,TRUE,,,,,,,,BKN,2300,BKN,4800,,,,,MVFR,,,,,,,,,,,,METAR,137
LFRB 272200Z AUTO 23027G43KT 8000 -RA BKN012/// BKN017/// OVC024/// //////CB 09/07 Q0983 TEMPO 2000 TSRAGS,LFRB,2025-01-27T22:00:00Z,48.444,-4.412,9,7,230,27,43,4.97,29.03,,,TRUE,,,,,,,-RA,BKN,1200,BKN,1700,OVC,2400,,,MVFR,,,,,,,,,,,,METAR,91
LFQQ 272200Z AUTO 18016KT 9999 FEW027 BKN210 08/04 Q0990 BECMG 20015G30KT,LFQQ,2025-01-27T22:00:00Z,50.562,3.089,8,4,180,16,,6+,29.23,,,TRUE,,,,,,,,FEW,2700,BKN,21000,,,,,VFR,,,1.5,,,,,,,,,METAR,43
LFQB 272200Z AUTO 21017KT 9999 FEW040 08/05 Q0997,LFQB,2025-01-27T22:00:00Z,48.325,4.02,8,5,210,17,,6+,29.44,,,TRUE,,,,,,,,FEW,4000,,,,,,,VFR,,,,,,,,,,,,METAR,107
LFQA 272200Z AUTO 19006KT 100V230 9999 FEW028 BKN170 BKN210 08/05 Q0995,LFQA,2025-01-27T22:00:00Z,49.21,4.155,8,5,190,6,,6+,29.38,,,TRUE,,,,,,,,FEW,2800,BKN,17000,BKN,21000,,,VFR,,,,,,,,,,,,METAR,92
LFPV 272200Z AUTO 20014G24KT 170V240 9999 BKN019/// OVC025/// 07/04 Q0993 TEMPO 22020G35KT SCT025TCU,LFPV,2025-01-27T22:00:00Z,48.77,2.205,7,4,200,14,24,6+,29.32,,,TRUE,,,,,,,,BKN,1900,OVC,2500,,,,,MVFR,,,,,,,,,,,,METAR,171
LFPT 272200Z AUTO 20015KT 9999 FEW026 07/04 Q0992,LFPT,2025-01-27T22:00:00Z,49.097,2.041,7,4,200,15,,6+,29.29,,,TRUE,,,,,,,,FEW,2600,,,,,,,VFR,,,,,,,,,,,,METAR,91
LFPO 272200Z 20014KT 9999 BKN025 08/04 Q0994 NOSIG,LFPO,2025-01-27T22:00:00Z,48.717,2.384,8,4,200,14,,6+,29.35,,,,,,TRUE,,,,,BKN,2500,,,,,,,MVFR,,,,,,,,,,,,METAR,88
LFPN 272200Z AUTO 20019G30KT 9999 OVC019/// 07/04 Q0993 TEMPO SCT020TCU,LFPN,2025-01-27T22:00:00Z,48.752,2.114,7,4,200,19,30,6+,29.32,,,TRUE,,,,,,,,OVC,1900,,,,,,,MVFR,,,,,,,,,,,,METAR,152
LFPM 272200Z AUTO 20020KT CAVOK 07/05 Q0994,LFPM,2025-01-27T22:00:00Z,48.611,2.68,7,5,200,20,,6+,29.35,,,TRUE,,,,,,,,CAVOK,,,,,,,,VFR,,,,,,,,,,,,METAR,91
LFPG 272200Z 20020KT 9999 BKN025 09/04 Q0993 NOSIG,LFPG,2025-01-27T22:00:00Z,49.015,2.534,9,4,200,20,,6+,29.32,,,,,,TRUE,,,,,BKN,2500,,,,,,,MVFR,,,,,,,,,,,,METAR,107
LFPB 272200Z AUTO 19015KT 9999 OVC024 09/05 Q0994 BECMG 20015G30KT,LFPB,2025-01-27T22:00:00Z,48.967,2.428,9,5,190,15,,6+,29.35,,,TRUE,,,,,,,,OVC,2400,,,,,,,MVFR,,,1.5,,,,,,,,,METAR,50
LFOZ 272200Z AUTO 21016KT 9999 BKN020 08/05 Q0996,LFOZ,2025-01-27T22:00:00Z,47.897,2.163,8,5,210,16,,6+,29.41,,,TRUE,,,,,,,,BKN,2000,,,,,,,MVFR,,,,,,,,,,,,METAR,121
LFOV 272200Z AUTO 20017KT 9999 FEW045/// SCT084/// BKN140/// ///TCU 07/04 Q0991,LFOV,2025-01-27T22:00:00Z,48.031,-0.746,7,4,200,17,,6+,29.26,,,TRUE,,,,,,,,FEW,4500,SCT,8400,BKN,14000,,,VFR,,,,,,,,,,,,METAR,99
LFOT 272200Z AUTO 21015KT 9999 FEW020/// SCT040/// BKN058/// ///TCU 08/05 Q0995 TEMPO 4000 SHRA SCT020CB BECMG 21015G30KT,LFOT,2025-01-27T22:00:00Z,47.444,0.728,8,5,210,15,,6+,29.38,,,TRUE,,,,,,,,FEW,2000,SCT,4000,BKN,5800,,,VFR,,,-1.5,,,,,,,,,METAR,107
LFOP 272200Z AUTO 19018KT 9999 BKN026 BKN034 BKN044 07/04 Q0990,LFOP,2025-01-27T22:00:00Z,49.383,1.182,7,4,190,18,,6+,29.23,,,TRUE,,,,,,,,BKN,2600,BKN,3400,BKN,4400,,,MVFR,,,,,,,,,,,,METAR,149
LFOK 272200Z AUTO 20018KT CAVOK 07/05 Q0996 BECMG 19020G33KT,LFOK,2025-01-27T22:00:00Z,48.777,4.165,7,5,200,18,,6+,29.41,,,TRUE,,,,,,,,CAVOK,,,,,,,,VFR,,,,,,,,,,,,METAR,166
LFOJ 272200Z AUTO 21020KT 9999 SCT022 OVC150 08/05 Q0995 TEMPO 24020G30KT SCT030CB,LFOJ,2025-01-27T22:00:00Z,47.985,1.754,8,5,210,20,,6+,29.38,,,TRUE,,,,,,,,SCT,2200,OVC,15000,,,,,VFR,,,,,,,,,,,,METAR,122
LFOH 272200Z AUTO 19018G30KT 160V220 9999 FEW034 07/04 Q0988,LFOH,2025-01-27T22:00:00Z,49.533,0.091,7,4,190,18,30,6+,29.17,,,TRUE,,,,,,,,FEW,3400,,,,,,,VFR,,,,,,,,,,,,METAR,87
LFOE 272200Z AUTO 20018KT 9999 BKN025 OVC200 07/05 Q0991 TEMPO 20020G35KT 4000 -SHRA BKN025TCU,LFOE,2025-01-27T22:00:00Z,49.025,1.222,7,5,200,18,,6+,29.26,,,TRUE,,,,,,,,BKN,2500,OVC,20000,,,,,MVFR,,,2,,,,,,,,,METAR,132
LFOB 272200Z AUTO 21015KT 9999 FEW030 07/04 Q0991 BECMG 23020G30KT,LFOB,2025-01-27T22:00:00Z,49.454,2.113,7,4,210,15,,6+,29.26,,,TRUE,,,,,,,,FEW,3000,,,,,,,VFR,,,,,,,,,,,,METAR,99
LFOA 272200Z AUTO 22012KT CAVOK 08/05 Q0998,LFOA,2025-01-27T22:00:00Z,47.052,2.642,8,5,220,12,,6+,29.47,,,TRUE,,,,,,,,CAVOK,,,,,,,,VFR,,,,,,,,,,,,METAR,174
LFMY 272200Z AUTO 15010KT 120V180 9999 BKN017 OVC140 15/12 Q1001,LFMY,2025-01-27T22:00:00Z,43.604,5.108,15,12,150,10,,6+,29.56,,,TRUE,,,,,,,,BKN,1700,OVC,14000,,,,,MVFR,,,,,,,,,,,,METAR,57
LFMV 272200Z AUTO 13012KT 100V160 CAVOK 15/11 Q1000,LFMV,2025-01-27T22:00:00Z,43.911,4.903,15,11,130,12,,6+,29.53,,,TRUE,,,,,,,,CAVOK,,,,,,,,VFR,,,,,,,,,,,,METAR,33
LFMU 272200Z AUTO 28013KT 240V300 7000 -RA VCTS FEW011/// SCT041/// BKN058/// //////CB 11/11 Q1002,LFMU,2025-01-27T22:00:00Z,43.322,3.353,11,11,280,13,,4.35,29.59,,,TRUE,,,,,,,-RA VCTS,FEW,1100,SCT,4100,BKN,5800,,,MVFR,,,,,,,,,,,,METAR,14
LFMT 272200Z AUTO 01006KT 6000 ///TCU 12/11 Q0999 TEMPO 30015G25KT 3000 RA FEW045CB BKN100,LFMT,2025-01-27T22:00:00Z,43.577,3.963,12,11,10,6,,3.73,29.50,,,TRUE,,,,,,,,,,,,,,,,MVFR,,,,,,,,,,,,METAR,1
LFMP 272200Z AUTO 29013G29KT 9999 -RA FEW040/// BKN064/// OVC074/// //////CB 12/10 Q1002,LFMP,2025-01-27T22:00:00Z,42.737,2.873,12,10,290,13,29,6+,29.59,,,TRUE,,,,,,,-RA,FEW,4000,BKN,6400,OVC,7400,,,VFR,,,,,,,,,,,,METAR,41
LFMO 272200Z AUTO 24002KT 9999 BKN041 OVC140 11/10 Q1000 TEMPO VRB15G25KT 2000 TSRA SCT015 BKN020CB,LFMO,2025-01-27T22:00:00Z,44.144,4.861,11,10,240,2,,6+,29.53,,,TRUE,,,,,,,,BKN,4100,OVC,14000,,,,,VFR,,,,,,,,,,,,METAR,56
LFMN 272200Z 33008KT 4000 -RA BKN007 BKN016 11/11 Q1005 NOSIG,LFMN,2025-01-27T22:00:00Z,43.658,7.216,11,11,330,8,,2.49,29.68,,,,,,TRUE,,,,-RA,BKN,700,BKN,1600,,,,,IFR,,,,,,,,,,,,METAR,4
LFML 272200Z AUTO 13020KT 9999 BKN019 BKN025 OVC130 16/12 Q1001 TEMPO VRB20G40KT 2000 TSRA FEW020CB,LFML,2025-01-27T22:00:00Z,43.438,5.216,16,12,130,20,,6+,29.56,,,TRUE,,,,,,,,BKN,1900,BKN,2500,OVC,13000,,,MVFR,,,,,,,,,,,,METAR,20
LFMK 272200Z AUTO 31009KT 260V330 9999 -RA FEW056/// BKN070/// BKN096/// ///CB 09/07 Q1004,LFMK,2025-01-27T22:00:00Z,43.214,2.31,9,7,310,9,,6+,29.65,,,TRUE,,,,,,,-RA,FEW,5600,BKN,7000,BKN,9600,,,VFR,,,,,,,,,,,,METAR,124
LFMI 272200Z AUTO 14015KT 9999 SCT017 BKN120 OVC150 15/13 Q1000 TEMPO VRB20G40KT 2000 TSRA FEW020CB,LFMI,2025-01-27T22:00:00Z,43.516,4.935,15,13,140,15,,6+,29.53,,,TRUE,,,,,,,,SCT,1700,BKN,12000,OVC,15000,,,VFR,,,,,,,,,,,,METAR,20
LFMH 272200Z AUTO 13003KT 090V220 CAVOK 08/04 Q1000,LFMH,2025-01-27T22:00:00Z,45.533,4.293,8,4,130,3,,6+,29.53,,,TRUE,,,,,,,,CAVOK,,,,,,,,VFR,,,,,,,,,,,,METAR,400
LFMD 272200Z AUTO VRB03KT 2200 BR SCT002/// BKN007/// OVC011/// ///TCU 13/12 Q1005,LFMD,2025-01-27T22:00:00Z,43.544,6.953,13,12,VRB,3,,1.37,29.68,,,TRUE,,,,,,,BR,SCT,200,BKN,700,OVC,1100,,,IFR,,,,,,,,,,,,METAR,2
LFMC 272200Z AUTO 06004KT 040V120 5000 -RA BR ////// 14/13 Q1004,LFMC,2025-01-27T22:00:00Z,43.383,6.386,14,13,60,4,,3.11,29.65,,,TRUE,,,,,,,-RA BR,,,,,,,,,MVFR,,,,,,,,,,,,METAR,79
LFLY 272200Z AUTO VRB02KT CAVOK 08/05 Q1000 TEMPO 2000 TSRA BKN014 BKN020CB,LFLY,2025-01-27T22:00:00Z,45.726,4.938,8,5,VRB,2,,6+,29.53,,,TRUE,,,,,,,,CAVOK,,,,,,,,VFR,,,,,,,,,,,,METAR,197
LFLX 272200Z AUTO 21016KT 9999 FEW030 OVC230 07/05 Q0998 TEMPO 23018G35KT BKN020TCU,LFLX,2025-01-27T22:00:00Z,46.87,1.741,7,5,210,16,,6+,29.47,,,TRUE,,,,,,,,FEW,3000,OVC,23000,,,,,VFR,,,,,,,,,,,,METAR,157
LFLW 272200Z AUTO 28005KT 230V340 7000 -RA SCT007/// BKN014/// OVC019/// //////CB 05/04 Q1003,LFLW,2025-01-27T22:00:00Z,44.899,2.421,5,4,280,5,,4.35,29.62,,,TRUE,,,,,,,-RA,SCT,700,BKN,1400,OVC,1900,,,MVFR,,,,,,,,,,,,METAR,638
LFLS 272200Z AUTO 10004KT 9999 -RADZ FEW015/// SCT028/// BKN034/// ///CB 09/08 Q1000,LFLS,2025-01-27T22:00:00Z,45.363,5.329,9,8,100,4,,6+,29.53,,,TRUE,,,,,,,-RA -DZ,FEW,1500,SCT,2800,BKN,3400,,,VFR,,,,,,,,,,,,METAR,386
LFLP 272200Z AUTO VRB03KT 5000 RA BR SCT013/// BKN022/// BKN032/// ///CB 08/07 Q1001,LFLP,2025-01-27T22:00:00Z,45.93,6.106,8,7,VRB,3,,3.11,29.56,,,TRUE,,,,,,,RA BR,SCT,1300,BKN,2200,BKN,3200,,,MVFR,,,,,,,,,,,,METAR,460
LFLN 272200Z AUTO 27003KT CAVOK 08/03 Q1000,LFLN,2025-01-27T22:00:00Z,46.412,4.025,8,3,270,3,,6+,29.53,,,TRUE,,,,,,,,CAVOK,,,,,,,,VFR,,,,,,,,,,,,METAR,238
LFLL 272200Z 15004KT 130V190 CAVOK 08/07 Q1000 NOSIG,LFLL,2025-01-27T22:00:00Z,45.726,5.078,8,7,150,4,,6+,29.53,,,,,,TRUE,,,,,CAVOK,,,,,,,,VFR,,,,,,,,,,,,METAR,234
LFLC 272200Z AUTO 19007KT 9999 BKN041/// OVC048/// ///TCU 08/03 Q1001 BECMG BKN045,LFLC,2025-01-27T22:00:00Z,45.787,3.169,8,3,190,7,,6+,29.56,,,TRUE,,,,,,,,BKN,4100,OVC,4800,,,,,VFR,,,,,,,,,,,,METAR,325
LFLB 272200Z AUTO VRB03KT 3900 RA BR SCT006/// BKN013/// BKN035/// //////CB 09/08 Q1001,LFLB,2025-01-27T22:00:00Z,45.637,5.883,9,8,VRB,3,,2.42,29.56,,,TRUE,,,,,,,RA BR,SCT,600,BKN,1300,BKN,3500,,,IFR,,,,,,,,,,,,METAR,234
LFKS 272200Z AUTO 22013KT 190V250 9999 FEW066 SCT170 17/12 Q1008,LFKS,2025-01-27T22:00:00Z,41.924,9.406,17,12,220,13,,6+,29.76,,,TRUE,,,,,,,,FEW,6600,SCT,17000,,,,,VFR,,,,,,,,,,,,METAR,22
LFKJ 272200Z AUTO VRB05KT 9999 OVC018 16/13 Q1010 TEMPO 19015G25KT 4000 RA BKN008 FEW030CB,LFKJ,2025-01-27T22:00:00Z,41.924,8.803,16,13,VRB,5,,6+,29.82,,,TRUE,,,,,,,,OVC,1800,,,,,,,MVFR,,,,,,,,,,,,METAR,9
LFKF 272200Z AUTO 24008KT 9999 OVC024 16/13 Q1010,LFKF,2025-01-27T22:00:00Z,41.501,9.098,16,13,240,8,,6+,29.82,,,TRUE,,,,,,,,OVC,2400,,,,,,,MVFR,,,,,,,,,,,,METAR,15
LFKC 272200Z AUTO 20017G30KT 9999 SCT078 SCT096 BKN240 18/12 Q1006,LFKC,2025-01-27T22:00:00Z,42.531,8.793,18,12,200,17,30,6+,29.70,,,TRUE,,,,,,,,SCT,7800,SCT,9600,BKN,24000,,,VFR,,,,,,,,,,,,METAR,38
LFKB 272200Z AUTO 13004KT 030V190 9999 // FEW076 BKN100 OVC130 16/12 Q1007,LFKB,2025-01-27T22:00:00Z,42.553,9.484,16,12,130,4,,6+,29.73,,,TRUE,,,,,,,,FEW,7600,BKN,10000,OVC,13000,,,VFR,,,,,,,,,,,,METAR,7
LFJR 272200Z AUTO 21014KT 9999 SCT047/// BKN058/// OVC200/// ///TCU 08/04 Q0994,LFJR,2025-01-27T22:00:00Z,47.562,-0.317,8,4,210,14,,6+,29.35,,,TRUE,,,,,,,,SCT,4700,BKN,5800,OVC,20000,,,VFR,,,,,,,,,,,,METAR,50
LFJL 272200Z AUTO 17008KT CAVOK 07/05 Q0998 TEMPO FEW030TCU,LFJL,2025-01-27T22:00:00Z,48.982,6.251,7,5,170,8,,6+,29.47,,,TRUE,,,,,,,,CAVOK,,,,,,,,VFR,,,,,,,,,,,,METAR,259
LFGJ 272200Z AUTO VRB02KT CAVOK 07/05 Q0999,LFGJ,2025-01-27T22:00:00Z,47.044,5.427,7,5,VRB,2,,6+,29.50,,,TRUE,,,,,,,,CAVOK,,,,,,,,VFR,,,,,,,,,,,,METAR,191
LFCR 272200Z AUTO 21004KT 9999 -RA FEW017/// BKN035/// OVC048/// ///TCU 06/05 Q1003 TEMPO 4000 SHRA BKN016 BKN035TCU FEW050CB,LFCR,2025-01-27T22:00:00Z,44.41,2.483,6,5,210,4,,6+,29.62,,,TRUE,,,,,,,-RA,FEW,1700,BKN,3500,OVC,4800,,,VFR,,,,,,,,,,,,METAR,576
LFCK 272200Z AUTO 21002KT 9999 -RA FEW014/// BKN054/// BKN070/// ///CB 08/08 Q1005 TEMPO BKN005 BKN060TCU BECMG 31011KT,LFCK,2025-01-27T22:00:00Z,43.556,2.289,8,8,210,2,,6+,29.68,,,TRUE,,,,,,,-RA,FEW,1400,BKN,5400,BKN,7000,,,VFR,,,,,,,,,,,,METAR,223
LFBZ 272200Z AUTO 23005KT 200V270 CAVOK 09/08 Q1005 TEMPO 23015G30KT,LFBZ,2025-01-27T22:00:00Z,43.469,-1.534,9,8,230,5,,6+,29.68,,,TRUE,,,,,,,,CAVOK,,,,,,,,VFR,,,,,,,,,,,,METAR,70
LFBY 272200Z AUTO 20006KT 9999 // ////// 09/08 Q1004,LFBY,2025-01-27T22:00:00Z,43.69,-1.07,9,8,200,6,,6+,29.65,,,TRUE,,,,,,,,,,,,,,,,VFR,,,,,,,,,,,,METAR,32
LFBX 272200Z AUTO 19003KT 090V260 9999 SCT035 BKN074 BKN100 08/07 Q1002,LFBX,2025-01-27T22:00:00Z,45.196,0.815,8,7,190,3,,6+,29.59,,,TRUE,,,,,,,,SCT,3500,BKN,7400,BKN,10000,,,VFR,,,,,,,,,,,,METAR,97
LFBU 272200Z AUTO 18010KT 140V200 9999 FEW029/// SCT041/// OVC210/// ///TCU 08/06 Q1000,LFBU,2025-01-27T22:00:00Z,45.728,0.22,8,6,180,10,,6+,29.53,,,TRUE,,,,,,,,FEW,2900,SCT,4100,OVC,21000,,,VFR,,,,,,,,,,,,METAR,124
LFBT 272200Z AUTO 29017KT 9999 FEW070 OVC200 10/04 Q1004 NOSIG,LFBT,2025-01-27T22:00:00Z,43.189,,10,4,290,17,,6+,29.65,,,TRUE,,,TRUE,,,,,FEW,7000,OVC,20000,,,,,VFR,,,,,,,,,,,,METAR,359
LFBP 272200Z AUTO 31007KT 9999 FEW012 BKN120 BKN160 08/07 Q1005 NOSIG,LFBP,2025-01-27T22:00:00Z,43.385,-0.416,8,7,310,7,,6+,29.68,,,TRUE,,,TRUE,,,,,FEW,1200,BKN,12000,BKN,16000,,,VFR,,,,,,,,,,,,METAR,182
LFBO 272200Z AUTO VRB02KT CAVOK 08/07 Q1004 NOSIG,LFBO,2025-01-27T22:00:00Z,43.621,1.379,8,7,VRB,2,,6+,29.65,,,TRUE,,,TRUE,,,,,CAVOK,,,,,,,,VFR,,,,,,,,,,,,METAR,150
LFBM 272200Z AUTO 23005KT 180V250 9999 FEW049/// BKN056/// BKN066/// //////TCU 08/08 Q1004 BECMG SCT030,LFBM,2025-01-27T22:00:00Z,43.912,-0.507,8,8,230,5,,6+,29.65,,,TRUE,,,,,,,,FEW,4900,BKN,5600,BKN,6600,,,VFR,,,,,,,,,,,,METAR,56
LFBL 272200Z AUTO 19010KT 9999 SCT009 BKN019 OVC024 06/05 Q1000 TEMPO 23015G30KT 3000 SHRA BKN020TCU,LFBL,2025-01-27T22:00:00Z,45.863,1.179,6,5,190,10,,6+,29.53,,,TRUE,,,,,,,,SCT,900,BKN,1900,OVC,2400,,,MVFR,,,,,,,,,,,,METAR,402
LFBI 272200Z AUTO 21020KT 9999 FEW032 08/06 Q0997 TEMPO 22025G50KT 2000 TSRAGS BKN012 BKN020CB,LFBI,2025-01-27T22:00:00Z,46.584,0.309,8,6,210,20,,6+,29.44,,,TRUE,,,,,,,,FEW,3200,,,,,,,VFR,,,,,,,,,,,,METAR,117
LFBH 272200Z AUTO 24026G42KT 9999 FEW036/// BKN170/// OVC210/// ///TCU 11/06 Q0998 TEMPO 22030G52KT 2000 TSRAGS BKN012 BKN020CB,LFBH,2025-01-27T22:00:00Z,46.178,-1.193,11,6,240,26,42,6+,29.47,,,TRUE,,,,,,,,FEW,3600,BKN,17000,OVC,21000,,,VFR,,,,,,,,,,,,METAR,18
LFBG 272200Z AUTO 20013KT 6000 SCT016/// SCT037/// BKN060/// //////TCU 08/07 Q1000,LFBG,2025-01-27T22:00:00Z,45.665,-0.316,8,7,200,13,,3.73,29.53,,,TRUE,,,,,,,,SCT,1600,SCT,3700,BKN,6000,,,MVFR,,,,,,,,,,,,METAR,28
LFBE 272200Z AUTO 19009KT CAVOK 09/07 Q1003,LFBE,2025-01-27T22:00:00Z,44.826,0.516,9,7,190,9,,6+,29.62,,,TRUE,,,,,,,,CAVOK,,,,,,,,VFR,,,,,,,,,,,,METAR,49
LFBD 272200Z AUTO 19007KT 9999 BKN032/// BKN078/// BKN180/// //////CB 08/07 Q1002 TEMPO 25020G40KT 1400 TSRA,LFBD,2025-01-27T22:00:00Z,44.831,-0.691,8,7,190,7,,6+,29.59,,,TRUE,,,,,,,,BKN,3200,BKN,7800,BKN,18000,,,VFR,,,,,,,,,,,,METAR,48
LFBC 272200Z AUTO 27016KT 9999 FEW036 SCT042 BKN049 12/05 Q1003,LFBC,2025-01-27T22:00:00Z,44.533,-1.125,12,5,270,16,,6+,29.62,,,TRUE,,,,,,,,FEW,3600,SCT,4200,BKN,4900,,,VFR,,,,,,,,,,,,METAR,22
LFBA 272200Z AUTO 27008KT 240V300 9999 -RA SCT047/// OVC054/// ///CB 09/09 Q1004,LFBA,2025-01-27T22:00:00Z,44.176,0.593,9,9,270,8,,6+,29.65,,,TRUE,,,,,,,-RA,SCT,4700,OVC,5400,,,,,VFR,,,,,,,,,,,,METAR,68
LFAT 272200Z AUTO 20013G25KT 170V230 CAVOK 08/03 Q0988,LFAT,2025-01-27T22:00:00Z,50.515,1.623,8,3,200,13,25,6+,29.17,,,TRUE,,,,,,,,CAVOK,,,,,,,,VFR,,,,,,,,,,,,METAR,2
LFAQ 272200Z AUTO 20017KT CAVOK 07/04 Q0991,LFAQ,2025-01-27T22:00:00Z,49.972,2.704,7,4,200,17,,6+,29.26,,,TRUE,,,,,,,,CAVOK,,,,,,,,VFR,,,,,,,,,,,,METAR,107
LFAC 272200Z AUTO 20016KT CAVOK 08/04 Q0987,LFAC,2025-01-27T22:00:00Z,50.962,1.955,8,4,200,16,,6+,29.14,,,TRUE,,,,,,,,CAVOK,,,,,,,,VFR,,,,,,,,,,,,METAR,3
LEZL 272200Z 24008KT 9999 FEW045 14/09 Q1023 NOSIG,LEZL,2025-01-27T22:00:00Z,37.418,-5.893,14,9,240,8,,6+,30.21,,,,,,TRUE,,,,,FEW,4500,,,,,,,VFR,,,,,,,,,,,,METAR,26
LEZG 272200Z 27012KT CAVOK 11/05 Q1009 NOSIG,LEZG,2025-01-27T22:00:00Z,41.661,-1.004,11,5,270,12,,6+,29.79,,,,,,TRUE,,,,,CAVOK,,,,,,,,VFR,,,,,,,,,,,,METAR,245
LEXJ 272200Z 26008KT 220V280 9999 FEW070 SCT082 10/04 Q1005,LEXJ,2025-01-27T22:00:00Z,43.429,-3.831,10,4,260,8,,6+,29.68,,,,,,,,,,,FEW,7000,SCT,8200,,,,,VFR,,,,,,,,,,,,METAR,1
LEVT 272200Z 23017G28KT 9999 FEW033 06/02 Q1006,LEVT,2025-01-27T22:00:00Z,42.872,-2.733,6,2,230,17,28,6+,29.70,,,,,,,,,,,FEW,3300,,,,,,,VFR,,,,,,,,,,,,METAR,501
LEVS 272200Z AUTO 22015KT 9999 FEW022 08/06 Q1013,LEVS,2025-01-27T22:00:00Z,40.371,-3.785,8,6,220,15,,6+,29.91,,,TRUE,,,,,,,,FEW,2200,,,,,,,VFR,,,,,,,,,,,,METAR,683
LEVD 272200Z AUTO 25018KT 9999 -RA BKN009 OVC014 04/03 Q1011,LEVD,2025-01-27T22:00:00Z,41.706,-4.852,4,3,250,18,,6+,29.85,,,TRUE,,,,,,,-RA,BKN,900,OVC,1400,,,,,IFR,,,,,,,,,,,,METAR,844
LEVC 272200Z 28021G31KT CAVOK 17/08 Q1009 NOSIG,LEVC,2025-01-27T22:00:00Z,39.489,-0.482,17,8,280,21,31,6+,29.79,,,,,,TRUE,,,,,CAVOK,,,,,,,,VFR,,,,,,,,,,,,METAR,58
LETU 272200Z AUTO 26008KT CAVOK 09/03 Q1008,LETU,2025-01-27T22:00:00Z,-99.99,-99.99,9,3,260,8,,6+,29.76,,,TRUE,,,,,,,,CAVOK,,,,,,,,VFR,,,,,,,,,,,,METAR,9999
LETO 272200Z 25007KT 200V270 CAVOK 08/06 Q1013 NOSIG,LETO,2025-01-27T22:00:00Z,40.489,-3.451,8,6,250,7,,6+,29.91,,,,,,TRUE,,,,,CAVOK,,,,,,,,VFR,,,,,,,,,,,,METAR,598
LETL 272200Z AUTO 26019KT CAVOK 07/02 Q1011,LETL,2025-01-27T22:00:00Z,40.404,-1.218,7,2,260,19,,6+,29.85,,,TRUE,,,,,,,,CAVOK,,,,,,,,VFR,,,,,,,,,,,,METAR,1024
LEST 272200Z 28007G18KT 210V340 9999 SCT015 BKN025 BKN030 04/02 Q1009 RETSRA TEMPO 3000 SHRA SCT040TCU,LEST,2025-01-27T22:00:00Z,42.888,-8.411,4,2,280,7,18,6+,29.79,,,,,,,,,,,SCT,1500,BKN,2500,BKN,3000,,,MVFR,,,,,,,,,,,,METAR,363
LESO 272200Z AUTO 18006KT CAVOK 11/09 Q1005,LESO,2025-01-27T22:00:00Z,43.361,-1.787,11,9,180,6,,6+,29.68,,,TRUE,,,,,,,,CAVOK,,,,,,,,VFR,,,,,,,,,,,,METAR,3
LESB 272200Z AUTO 19006KT 160V220 9000 FEW015 16/14 Q1009,LESB,2025-01-27T22:00:00Z,39.599,2.703,16,14,190,6,,5.59,29.79,,,TRUE,,,,,,,,FEW,1500,,,,,,,VFR,,,,,,,,,,,,METAR,48
LESA 272200Z AUTO 27024KT 250V310 2900 -RA BR FEW018 SCT026 BKN048 04/02 Q1014,LESA,2025-01-27T22:00:00Z,40.96,-5.498,4,2,270,24,,1.8,29.94,,,TRUE,,,,,,,-RA BR,FEW,1800,SCT,2600,BKN,4800,,,IFR,,,,,,,,,,,,METAR,788
LERT 272200Z 27014KT CAVOK 16/12 Q1024 NOSIG,LERT,2025-01-27T22:00:00Z,36.645,-6.349,16,12,270,14,,6+,30.24,,,,,,TRUE,,,,,CAVOK,,,,,,,,VFR,,,,,,,,,,,,METAR,27
LERS 272200Z AUTO 28018KT CAVOK 15/04 Q1007,LERS,2025-01-27T22:00:00Z,41.15,1.179,15,4,280,18,,6+,29.73,,,TRUE,,,,,,,,CAVOK,,,,,,,,VFR,,,,,,,,,,,,METAR,68
LEPP 272200Z 22011KT CAVOK 08/02 Q1006,LEPP,2025-01-27T22:00:00Z,42.777,-1.65,8,2,220,11,,6+,29.70,,,,,,,,,,,CAVOK,,,,,,,,VFR,,,,,,,,,,,,METAR,448
LEPA 272200Z 23006KT 9000 SCT012 16/15 Q1009 NOSIG,LEPA,2025-01-27T22:00:00Z,39.561,2.737,16,15,230,6,,5.59,29.79,,,,,,TRUE,,,,,SCT,1200,,,,,,,VFR,,,,,,,,,,,,METAR,8
LEMO 272200Z 23009KT 9000 SCT060 14/10 Q1023 NOSIG,LEMO,2025-01-27T22:00:00Z,37.175,-5.616,14,10,230,9,,5.59,30.21,,,,,,TRUE,,,,,SCT,6000,,,,,,,VFR,,,,,,,,,,,,METAR,82
LEMI 272200Z AUTO 24024G38KT 200V270 9000 NCD 21/05 Q1013,LEMI,2025-01-27T22:00:00Z,37.803,-1.125,21,5,240,24,38,5.59,29.91,,,TRUE,,,,,,,,CLR,,,,,,,,VFR,,,,,,,,,,,,METAR,193
LEMH 272200Z AUTO 24018G29KT 200V270 9000 FEW007/// 16/15 Q1008,LEMH,2025-01-27T22:00:00Z,39.855,4.216,16,15,240,18,29,5.59,29.76,,,TRUE,,,,,,,,FEW,700,,,,,,,VFR,,,,,,,,,,,,METAR,82
LEMG 272200Z 29009KT 250V330 9999 FEW050 17/06 Q1021 NOSIG,LEMG,2025-01-27T22:00:00Z,36.666,-4.482,17,6,290,9,,6+,30.15,,,,,,TRUE,,,,,FEW,5000,,,,,,,VFR,,,,,,,,,,,,METAR,5
LEMD 272200Z 23014KT CAVOK 09/06 Q1013 NOSIG,LEMD,2025-01-27T22:00:00Z,40.466,-3.555,9,6,230,14,,6+,29.91,,,,,,TRUE,,,,,CAVOK,,,,,,,,VFR,,,,,,,,,,,,METAR,589
LELO 272200Z AUTO 28008KT 250V310 9999 SCT065 06/03 Q1008,LELO,2025-01-27T22:00:00Z,42.4523,-2.3309,6,3,280,8,,6+,29.76,,,TRUE,,,,,,,,SCT,6500,,,,,,,VFR,,,,,,,,,,,,METAR,352
LELN 272200Z AUTO 23007KT 2500 -SN BR SCT010 BKN014 OVC027 01/01 Q1008,LELN,2025-01-27T22:00:00Z,42.588,-5.651,1,1,230,7,,1.55,29.76,,,TRUE,,,,,,,-SN BR,SCT,1000,BKN,1400,OVC,2700,,,IFR,,,,,,,,,,,,METAR,911
LELL 272200Z AUTO 27021G33KT 230V300 CAVOK 14/06 Q1005,LELL,2025-01-27T22:00:00Z,41.521,2.105,14,6,270,21,33,6+,29.68,,,TRUE,,,,,,,,CAVOK,,,,,,,,VFR,,,,,,,,,,,,METAR,136
LELC 272200Z AUTO 22020KT 190V250 9000 NCD 18/14 Q1012,LELC,2025-01-27T22:00:00Z,37.775,-0.812,18,14,220,20,,5.59,29.88,,,TRUE,,,,,,,,CLR,,,,,,,,VFR,,,,,,,,,,,,METAR,3
LEJR 272200Z 25007KT 8000 SCT035 15/12 Q1024,LEJR,2025-01-27T22:00:00Z,36.751,-6.056,15,12,250,7,,4.97,30.24,,,,,,,,,,,SCT,3500,,,,,,,MVFR,,,,,,,,,,,,METAR,25
LEIB 272200Z 24015KT 220V280 9999 BKN008 16/14 Q1010 NOSIG,LEIB,2025-01-27T22:00:00Z,38.876,1.384,16,14,240,15,,6+,29.82,,,,,,TRUE,,,,,BKN,800,,,,,,,IFR,,,,,,,,,,,,METAR,4
LEHC 272200Z AUTO 28008KT 250V310 9999 SCT034 BKN043 07/06 Q1007,LEHC,2025-01-27T22:00:00Z,42.082,-0.324,7,6,280,8,,6+,29.73,,,TRUE,,,,,,,,SCT,3400,BKN,4300,,,,,VFR,,,,,,,,,,,,METAR,540
LEGT 272200Z AUTO 24018KT 210V270 9999 FEW015/// SCT021/// 08/05 Q1014,LEGT,2025-01-27T22:00:00Z,40.299,-3.723,8,5,240,18,,6+,29.94,,,TRUE,,,,,,,,FEW,1500,SCT,2100,,,,,VFR,,,,,,,,,,,,METAR,619
LEGR 272200Z 28014KT 240V320 9999 SCT035 SCT050 13/08 Q1022,LEGR,2025-01-27T22:00:00Z,37.19,-3.789,13,8,280,14,,6+,30.18,,,,,,,,,,,SCT,3500,SCT,5000,,,,,VFR,,,,,,,,,,,,METAR,560
LEGE 272200Z 26020G39KT 210V310 9999 FEW062 18/07 Q1002 NOSIG,LEGE,2025-01-27T22:00:00Z,41.911,2.763,18,7,260,20,39,6+,29.59,,,,,,TRUE,,,,,FEW,6200,,,,,,,VFR,,,,,,,,,,,,METAR,140
LEDA 272200Z AUTO 24017KT CAVOK 10/08 Q1007,LEDA,2025-01-27T22:00:00Z,41.734,0.538,10,8,240,17,,6+,29.73,,,TRUE,,,,,,,,CAVOK,,,,,,,,VFR,,,,,,,,,,,,METAR,352
LECO 272200Z 25019G30KT 210V330 9999 FEW020 07/01 Q1007 TEMPO 3000 SHRA SCT040TCU,LECO,2025-01-27T22:00:00Z,43.307,-8.372,7,1,250,19,30,6+,29.73,,,,,,,,,,,FEW,2000,,,,,,,VFR,,,,,,,,,,,,METAR,80
LECH 272200Z AUTO 27027G40KT 240V300 CAVOK 16/04 Q1007,LECH,2025-01-27T22:00:00Z,40.211,0.067,16,4,270,27,40,6+,29.73,,,TRUE,,,,,,,,CAVOK,,,,,,,,VFR,,,,,,,,,,,,METAR,360
LEBT 272200Z AUTO 27019G37KT 200V330 CAVOK 17/06 Q1009,LEBT,2025-01-27T22:00:00Z,39.58,-0.45,17,6,270,19,37,6+,29.79,,,TRUE,,,,,,,,CAVOK,,,,,,,,VFR,,,,,,,,,,,,METAR,50
LEBR 272200Z AUTO VRB01KT CAVOK 06/04 Q1008,LEBR,2025-01-27T22:00:00Z,42.2,-1.43,6,4,VRB,1,,6+,29.76,,,TRUE,,,,,,,,CAVOK,,,,,,,,VFR,,,,,,,,,,,,METAR,347
LEBL 272200Z 29023G37KT 260V330 7000 FEW060 15/07 Q1005 RERA NOSIG,LEBL,2025-01-27T22:00:00Z,41.293,2.07,15,7,290,23,37,4.35,29.68,,,,,,TRUE,,,,,FEW,6000,,,,,,,MVFR,,,,,,,,,,,,METAR,2
LEBG 272200Z AUTO 25019KT 220V280 9000 OVC013 02/01 Q1009,LEBG,2025-01-27T22:00:00Z,42.356,-3.622,2,1,250,19,,5.59,29.79,,,TRUE,,,,,,,,OVC,1300,,,,,,,MVFR,,,,,,,,,,,,METAR,892
LEBB 272200Z 21016G27KT 160V260 CAVOK 13/02 Q1005 NOSIG,LEBB,2025-01-27T22:00:00Z,43.298,-2.906,13,2,210,16,27,6+,29.68,,,,,,TRUE,,,,,CAVOK,,,,,,,,VFR,,,,,,,,,,,,METAR,38
LEBA 272200Z AUTO 24008KT CAVOK 12/10 Q1021,LEBA,2025-01-27T22:00:00Z,37.842,-4.849,12,10,240,8,,6+,30.15,,,TRUE,,,,,,,,CAVOK,,,,,,,,VFR,,,,,,,,,,,,METAR,88
LEAS 272200Z 23012KT 200V260 9000 -RA FEW020 BKN065 07/03 Q1005 NOSIG,LEAS,2025-01-27T22:00:00Z,43.567,-6.044,7,3,230,12,,5.59,29.68,,,,,,TRUE,,,,-RA,FEW,2000,BKN,6500,,,,,VFR,,,,,,,,,,,,METAR,120
LEAO 272200Z 26021KT 9999 FEW020 SCT040 09/06 Q1017 RERA,LEAO,2025-01-27T22:00:00Z,38.953,-3.741,9,6,260,21,,6+,30.03,,,,,,,,,,,FEW,2000,SCT,4000,,,,,VFR,,,,,,,,,,,,METAR,621
LEAM 272200Z AUTO 25021KT CAVOK 17/14 Q1015,LEAM,2025-01-27T22:00:00Z,36.846,-2.357,17,14,250,21,,6+,29.97,,,TRUE,,,,,,,,CAVOK,,,,,,,,VFR,,,,,,,,,,,,METAR,16
LEAL 272200Z 26009KT CAVOK 20/08 Q1012 NOSIG,LEAL,2025-01-27T22:00:00Z,38.282,-0.558,20,8,260,9,,6+,29.88,,,,,,TRUE,,,,,CAVOK,,,,,,,,VFR,,,,,,,,,,,,METAR,26
LEAG 272200Z AUTO 31015G26KT 270V010 CAVOK 16/12 Q1024,LEAG,2025-01-27T22:00:00Z,36.129,-5.441,16,12,310,15,26,6+,30.24,,,TRUE,,,,,,,,CAVOK,,,,,,,,VFR,,,,,,,,,,,,METAR,4
LEAB 272200Z 27022G32KT 9999 FEW030 11/05 Q1016 NOSIG,LEAB,2025-01-27T22:00:00Z,38.952,-1.863,11,5,270,22,32,6+,30.00,,,,,,TRUE,,,,,FEW,3000,,,,,,,VFR,,,,,,,,,,,,METAR,704
LDZD 272200Z 13013KT 110V170 CAVOK 13/09 Q1013,LDZD,2025-01-27T22:00:00Z,44.108,15.347,13,9,130,13,,6+,29.91,,,,,,,,,,,CAVOK,,,,,,,,VFR,,,,,,,,,,,,METAR,82
LDZA 272200Z 36003KT 300V060 CAVOK 10/04 Q1009 NOSIG,LDZA,2025-01-27T22:00:00Z,45.729,16.054,10,4,360,3,,6+,29.79,,,,,,TRUE,,,,,CAVOK,,,,,,,,VFR,,,,,,,,,,,,METAR,103
LDSP 272200Z AUTO 11011KT 070V140 CAVOK 14/10 Q1015,LDSP,2025-01-27T22:00:00Z,43.539,16.301,14,10,110,11,,6+,29.97,,,TRUE,,,,,,,,CAVOK,,,,,,,,VFR,,,,,,,,,,,,METAR,16
LDRI 272200Z 16011KT 090V230 9999 FEW016 BKN040 13/09 Q1011,LDRI,2025-01-27T22:00:00Z,45.218,14.573,13,9,160,11,,6+,29.85,,,,,,,,,,,FEW,1600,BKN,4000,,,,,VFR,,,,,,,,,,,,METAR,80
LDPL 272200Z AUTO 14009KT 100V190 8000 -RA FEW005/// BKN006/// BKN007/// 13/12 Q1011,LDPL,2025-01-27T22:00:00Z,44.894,13.922,13,12,140,9,,4.97,29.85,,,TRUE,,,,,,,-RA,FEW,500,BKN,600,BKN,700,,,IFR,,,,,,,,,,,,METAR,63
LDOS 272200Z 15008KT CAVOK 06/03 Q1011,LDOS,2025-01-27T22:00:00Z,45.463,18.81,6,3,150,8,,6+,29.85,,,,,,,,,,,CAVOK,,,,,,,,VFR,,,,,,,,,,,,METAR,82
LDDU 272200Z 12016KT 9999 FEW036 13/10 Q1019,LDDU,2025-01-27T22:00:00Z,42.56,18.269,13,10,120,16,,6+,30.09,,,,,,,,,,,FEW,3600,,,,,,,VFR,,,,,,,,,,,,METAR,156
LCPH 272200Z 03008KT 010V080 CAVOK 10/05 Q1021 NOSIG,LCPH,2025-01-27T22:00:00Z,34.715,32.479,10,5,30,8,,6+,30.15,,,,,,TRUE,,,,,CAVOK,,,,,,,,VFR,,,,,,,,,,,,METAR,8
LCLK 272200Z 33006KT CAVOK 10/08 Q1022 NOSIG,LCLK,2025-01-27T22:00:00Z,34.874,33.617,10,8,330,6,,6+,30.18,,,,,,TRUE,,,,,CAVOK,,,,,,,,VFR,,,,,,,,,,,,METAR,2
LBWN 272200Z AUTO 31002KT 9999 NCD 03/02 Q1018 TEMPO 3000 BR,LBWN,2025-01-27T22:00:00Z,43.232,27.825,3,2,310,2,,6+,30.06,,,TRUE,,,,,,,,CLR,,,,,,,,VFR,,,,,,,,,,,,METAR,74
LBSF 272200Z AUTO VRB02KT 9000 NSC 01/M00 Q1019 TEMPO 5000 BR,LBSF,2025-01-27T22:00:00Z,42.694,23.414,1,0,VRB,2,,5.59,30.09,,,TRUE,,,,,,,,CLR,,,,,,,,VFR,,,,,,,,,,,,METAR,531
LBPL 272200Z 21004KT 9999 SCT200 04/02 Q1017,LBPL,2025-01-27T22:00:00Z,43.453,24.504,4,2,210,4,,6+,30.03,,,,,,,,,,,SCT,20000,,,,,,,VFR,,,,,,,,,,,,METAR,93
LBPG 272200Z 03002KT 9999 BKN200 02/02 Q1019,LBPG,2025-01-27T22:00:00Z,42.289,24.714,2,2,30,2,,6+,30.09,,,,,,,,,,,BKN,20000,,,,,,,VFR,,,,,,,,,,,,METAR,198
LBPD 272200Z AUTO 00000KT 9999 NCD 05/04 Q1019,LBPD,2025-01-27T22:00:00Z,42.064,24.86,5,4,0,0,,6+,30.09,,,TRUE,,,,,,,,CLR,,,,,,,,VFR,,,,,,,,,,,,METAR,182
LBIA 272200Z 00000KT 0500 FG VV000 05/05 Q1019,LBIA,2025-01-27T22:00:00Z,42.456,26.352,5,5,0,0,,0.31,30.09,,,,,,,,,,FG,OVX,0,,,,,,,LIFR,,,,,,,,,,,0,METAR,155
LBGO 272200Z AUTO 10005KT 9999 FEW220/// BKN250/// 00/M00 Q1017,LBGO,2025-01-27T22:00:00Z,43.151,25.713,0,0,100,5,,6+,30.03,,,TRUE,,,,,,,,FEW,22000,BKN,25000,,,,,VFR,,,,,,,,,,,,METAR,84
LBBG 272200Z AUTO 23009KT 5000 BR NCD 04/03 Q1019 TEMPO 3000 BR,LBBG,2025-01-27T22:00:00Z,42.569,27.514,4,3,230,9,,3.11,30.09,,,TRUE,,,,,,,BR,CLR,,,,,,,,MVFR,,,,,,,,,,,,METAR,41
KW40 272200Z AUTO 20008KT 7SM -RA BR OVC005 08/08 A3000 RMK AO2 T00800076,KW40,2025-01-27T22:00:00Z,35.2211,-78.0404,8,7.6,200,8,,7,30.00,,,TRUE,TRUE,,,,,,-RA BR,OVC,500,,,,,,,IFR,,,,,,,,,,,,METAR,50
KPRN 272200Z AUTO 30004KT 7SM BKN004 BKN009 OVC015 13/13 A3008 RMK AO2 SLP133 T01330128,KPRN,2025-01-27T22:00:00Z,31.8467,-86.6141,13.3,12.8,300,4,,7,30.08,1013.3,,TRUE,TRUE,,,,,,,BKN,400,BKN,900,OVC,1500,,,LIFR,,,,,,,,,,,,METAR,137
KOZR 272200Z AUTO 31003KT 5SM -DZ BR BKN007 OVC011 14/13 A3006 RMK AO2 CIG 007V009 SLP182,KOZR,2025-01-27T22:00:00Z,31.2767,-85.7105,14,13,310,3,,5,30.06,1018.2,,TRUE,TRUE,,,,,,-DZ BR,BKN,700,OVC,1100,,,,,IFR,,,,,,,,,,,,SPECI,90
KOCW 272200Z AUTO 20004KT 10SM RA OVC006 08/07 A3000 RMK AO2 P0001 T00750065,KOCW,2025-01-27T22:00:00Z,35.5703,-77.05,7.5,6.5,200,4,,10+,30.00,,,TRUE,TRUE,,,,,,RA,OVC,600,,,,,,,IFR,,,,,,0.01,,,,,,METAR,10
KNEL 272200Z AUTO 23006KT 10SM CLR 04/M14 A2982 RMK AO2 SLP099 T00391144 $,KNEL,2025-01-27T22:00:00Z,40.037,-74.326,3.9,-14.4,230,6,,10+,29.82,1009.9,,TRUE,TRUE,TRUE,,,,,,CLR,,,,,,,,VFR,,,,,,,,,,,,METAR,26
KM54 272200Z AUTO 24006KT 10SM CLR 08/M10 A3005 RMK A01,KM54,2025-01-27T22:00:00Z,36.1932,-86.3139,8,-10,240,6,,10+,30.05,,,TRUE,TRUE,,,,,,,CLR,,,,,,,,VFR,,,,,,,,,,,,METAR,168
KGZN 272200Z AUTO 00000KT 10SM OVC030 09/M08 A3017 RMK AO2,KGZN,2025-01-27T22:00:00Z,32.3682,-99.026,9,-8,0,0,,10+,30.17,,,TRUE,TRUE,,,,,,,OVC,3000,,,,,,,MVFR,,,,,,,,,,,,METAR,522
KGSP 272200Z 24010KT 10SM OVC013 10/06 A2997 RMK AO2 T01000061,KGSP,2025-01-27T22:00:00Z,34.8842,-82.2209,10,6.1,240,10,,10+,29.97,,,,TRUE,,,,,,,OVC,1300,,,,,,,MVFR,,,,,,,,,,,,SPECI,285
KGLS 272200Z 36010KT 10SM OVC029 13/12 A3016 RMK AO2 T01280117,KGLS,2025-01-27T22:00:00Z,29.2704,-94.8642,12.8,11.7,360,10,,10+,30.16,,,,TRUE,,,,,,,OVC,2900,,,,,,,MVFR,,,,,,,,,,,,SPECI,2
KDMW 272200Z AUTO 22008KT 10SM CLR 06/M06 A2983 RMK AO2,KDMW,2025-01-27T22:00:00Z,39.61,-77.007,6,-6,220,8,,10+,29.83,,,TRUE,TRUE,,,,,,,CLR,,,,,,,,VFR,,,,,,,,,,,,METAR,239
KACZ 272200Z AUTO 19005KT 4SM -RA BR OVC004 08/08 A3002 RMK AO2 T00810078,KACZ,2025-01-27T22:00:00Z,34.718,-78.005,8.1,7.8,190,5,,4,30.02,,,TRUE,TRUE,,,,,,-RA BR,OVC,400,,,,,,,LIFR,,,,,,,,,,,,METAR,30
K1D1 272200Z AUTO 32016KT 10SM CLR 05/M05 A2978 RMK AO2,K1D1,2025-01-27T22:00:00Z,45.231,-96.566,5,-5,320,16,,10+,29.78,,,TRUE,TRUE,,,,,,,CLR,,,,,,,,VFR,,,,,,,,,,,,METAR,340
K10U 272200Z AUTO VRB06KT 10SM CLR 03/M16 A3019 RMK AO2,K10U,2025-01-27T22:00:00Z,41.953,-116.182,3,-16,VRB,6,,10+,30.19,,,TRUE,TRUE,,,,,,,CLR,,,,,,,,VFR,,,,,,,,,,,,METAR,1638
HRYR 272200Z 26003KT 9999 -RA SCT022 BKN100 18/16 Q1020 NOSIG,HRYR,2025-01-27T22:00:00Z,-1.969,30.14,18,16,260,3,,6+,30.12,,,,,,TRUE,,,,-RA,SCT,2200,BKN,10000,,,,,VFR,,,,,,,,,,,,METAR,1493
HKJK 272200Z 24004KT 9999 BKN019 17/16 Q1020 NOSIG,HKJK,2025-01-27T22:00:00Z,-1.319,36.928,17,16,240,4,,6+,30.12,,,,,,TRUE,,,,,BKN,1900,,,,,,,MVFR,,,,,,,,,,,,METAR,1615
HETR 272200Z 00000KT CAVOK 15/09 Q1016,HETR,2025-01-27T22:00:00Z,28.209,33.646,15,9,0,0,,6+,30.00,,,,,,,,,,,CAVOK,,,,,,,,VFR,,,,,,,,,,,,METAR,35
HESX 272200Z 01006KT CAVOK 12/10 Q1020 NOSIG,HESX,2025-01-27T22:00:00Z,30.108,30.896,12,10,10,6,,6+,30.12,,,,,,TRUE,,,,,CAVOK,,,,,,,,VFR,,,,,,,,,,,,METAR,168
HESW 272200Z 03011KT CAVOK 15/08 Q1021,HESW,2025-01-27T22:00:00Z,29.346,25.507,15,8,30,11,,6+,30.15,,,,,,,,,,,CAVOK,,,,,,,,VFR,,,,,,,,,,,,METAR,101
HESN 272200Z 33003KT CAVOK 15/01 Q1017 NOSIG,HESN,2025-01-27T22:00:00Z,23.964,32.82,15,1,330,3,,6+,30.03,,,,,,TRUE,,,,,CAVOK,,,,,,,,VFR,,,,,,,,,,,,METAR,197
HESH 272200Z 36016KT CAVOK 19/07 Q1016 NOSIG,HESH,2025-01-27T22:00:00Z,27.977,34.395,19,7,360,16,,6+,30.00,,,,,,TRUE,,,,,CAVOK,,,,,,,,VFR,,,,,,,,,,,,METAR,50
HESG 272200Z 30008KT CAVOK 14/05 Q1016 NOSIG,HESG,2025-01-27T22:00:00Z,26.343,31.743,14,5,300,8,,6+,30.00,,,,,,TRUE,,,,,CAVOK,,,,,,,,VFR,,,,,,,,,,,,METAR,70
HEPS 272200Z 02007KT CAVOK 18/12 Q1020 NOSIG,HEPS,2025-01-27T22:00:00Z,31.279,32.238,18,12,20,7,,6+,30.12,,,,,,TRUE,,,,,CAVOK,,,,,,,,VFR,,,,,,,,,,,,METAR,2
HEMM 272200Z 22005KT 9999 SCT020 16/14 Q1022 NOSIG,HEMM,2025-01-27T22:00:00Z,31.325,27.222,16,14,220,5,,6+,30.18,,,,,,TRUE,,,,,SCT,2000,,,,,,,VFR,,,,,,,,,,,,METAR,26
HEMA 272200Z 28009KT CAVOK 16/09 Q1016 NOSIG,HEMA,2025-01-27T22:00:00Z,25.557,34.584,16,9,280,9,,6+,30.00,,,,,,TRUE,,,,,CAVOK,,,,,,,,VFR,,,,,,,,,,,,METAR,77
HEGN 272200Z 30010KT CAVOK 16/07 Q1018 NOSIG,HEGN,2025-01-27T22:00:00Z,27.179,33.801,16,7,300,10,,6+,30.06,,,,,,TRUE,,,,,CAVOK,,,,,,,,VFR,,,,,,,,,,,,METAR,14
HEBL 272200Z 32005KT CAVOK 15/04 Q1017 NOSIG,HEBL,2025-01-27T22:00:00Z,22.376,31.612,15,4,320,5,,6+,30.03,,,,,,TRUE,,,,,CAVOK,,,,,,,,VFR,,,,,,,,,,,,METAR,184
HEBA 272200Z 00000KT CAVOK 12/10 Q1021 NOSIG,HEBA,2025-01-27T22:00:00Z,30.918,29.696,12,10,0,0,,6+,30.15,,,,,,TRUE,,,,,CAVOK,,,,,,,,VFR,,,,,,,,,,,,METAR,41
HEAT 272200Z 01004KT CAVOK 12/07 Q1021 NOSIG,HEAT,2025-01-27T22:00:00Z,27.049,31.014,12,7,10,4,,6+,30.15,,,,,,TRUE,,,,,CAVOK,,,,,,,,VFR,,,,,,,,,,,,METAR,229
HEAR 272200Z 00000KT CAVOK 12/08 Q1020 NOSIG,HEAR,2025-01-27T22:00:00Z,31.041,33.817,12,8,0,0,,6+,30.12,,,,,,TRUE,,,,,CAVOK,,,,,,,,VFR,,,,,,,,,,,,METAR,36
HAAB 272200Z 08007KT 9999 SCT024 15/08 Q1025,HAAB,2025-01-27T22:00:00Z,8.978,38.799,15,8,80,7,,6+,30.27,,,,,,,,,,,SCT,2400,,,,,,,VFR,,,,,,,,,,,,METAR,2319
GVSV 272200Z 05031KT 9999 SCT020 22/17 Q1016 NOSIG,GVSV,2025-01-27T22:00:00Z,16.833,-25.055,22,17,50,31,,6+,30.00,,,,,,TRUE,,,,,SCT,2000,,,,,,,VFR,,,,,,,,,,,,METAR,16
GVNP 272200Z 03017KT 9000 FEW017 22/18 Q1015 NOSIG,GVNP,2025-01-27T22:00:00Z,14.947,-23.484,22,18,30,17,,5.59,29.97,,,,,,TRUE,,,,,FEW,1700,,,,,,,VFR,,,,,,,,,,,,METAR,70
GVAC 272200Z 04016KT 9999 SCT013 21/18 Q1017 NOSIG,GVAC,2025-01-27T22:00:00Z,16.742,-22.949,21,18,40,16,,6+,30.03,,,,,,TRUE,,,,,SCT,1300,,,,,,,VFR,,,,,,,,,,,,METAR,54
GUCY 272200Z 29004KT 4000 BR NSC 27/24 Q1011 NOSIG,GUCY,2025-01-27T22:00:00Z,9.577,-13.612,27,24,290,4,,2.49,29.85,,,,,,TRUE,,,,BR,CLR,,,,,,,,IFR,,,,,,,,,,,,METAR,10
GQPP 272200Z 02015KT 7000 NSC 20/14 Q1018 NOSIG,GQPP,2025-01-27T22:00:00Z,20.929,-17.031,20,14,20,15,,4.35,30.06,,,,,,TRUE,,,,,CLR,,,,,,,,MVFR,,,,,,,,,,,,METAR,5
GQNO 272200Z 06004KT 8000 NSC 22/02 Q1015 NOSIG,GQNO,2025-01-27T22:00:00Z,18.31,-15.97,22,2,60,4,,4.97,29.97,,,,,,TRUE,,,,,CLR,,,,,,,,MVFR,,,,,,,,,,,,METAR,1
GOTT 272200Z 04006KT CAVOK 28/12 Q1012,GOTT,2025-01-27T22:00:00Z,13.733,-13.657,28,12,40,6,,6+,29.88,,,,,,,,,,,CAVOK,,,,,,,,VFR,,,,,,,,,,,,METAR,53
GOSS 272200Z 01006KT 330V070 CAVOK 22/14 Q1014,GOSS,2025-01-27T22:00:00Z,16.051,-16.461,22,14,10,6,,6+,29.94,,,,,,,,,,,CAVOK,,,,,,,,VFR,,,,,,,,,,,,METAR,3
GOSP 272200Z 04002KT CAVOK 28/11 Q1014,GOSP,2025-01-27T22:00:00Z,16.677,-14.964,28,11,40,2,,6+,29.94,,,,,,,,,,,CAVOK,,,,,,,,VFR,,,,,,,,,,,,METAR,10
GOSM 272200Z 08002KT CAVOK 28/11 Q1013,GOSM,2025-01-27T22:00:00Z,15.597,-13.326,28,11,80,2,,6+,29.91,,,,,,,,,,,CAVOK,,,,,,,,VFR,,,,,,,,,,,,METAR,28
GOOY 272200Z 35008KT CAVOK 19/17 Q1013,GOOY,2025-01-27T22:00:00Z,14.741,-17.49,19,17,350,8,,6+,29.91,,,,,,,,,,,CAVOK,,,,,,,,VFR,,,,,,,,,,,,METAR,21
GOOK 272200Z 36008KT CAVOK 29/06 Q1012,GOOK,2025-01-27T22:00:00Z,14.147,-16.052,29,6,360,8,,6+,29.88,,,,,,,,,,,CAVOK,,,,,,,,VFR,,,,,,,,,,,,METAR,8
GOOG 272200Z 04002KT CAVOK 28/12 Q1011,GOOG,2025-01-27T22:00:00Z,15.4,-15.084,28,12,40,2,,6+,29.85,,,,,,,,,,,CAVOK,,,,,,,,VFR,,,,,,,,,,,,METAR,38
GOOD 272200Z 04008KT CAVOK 29/09 Q1012,GOOD,2025-01-27T22:00:00Z,14.65,-16.23,29,9,40,8,,6+,29.88,,,,,,,,,,,CAVOK,,,,,,,,VFR,,,,,,,,,,,,METAR,9
GOGS 272200Z 36006KT CAVOK 22/16 Q1012,GOGS,2025-01-27T22:00:00Z,12.389,-16.742,22,16,360,6,,6+,29.88,,,,,,,,,,,CAVOK,,,,,,,,VFR,,,,,,,,,,,,METAR,13
GOGK 272200Z 00000KT CAVOK 25/20 Q1009,GOGK,2025-01-27T22:00:00Z,12.898,-14.967,25,20,0,0,,6+,29.79,,,,,,,,,,,CAVOK,,,,,,,,VFR,,,,,,,,,,,,METAR,37
GOGG 272200Z 18004KT CAVOK 24/20 Q1012,GOGG,2025-01-27T22:00:00Z,12.556,-16.282,24,20,180,4,,6+,29.88,,,,,,,,,,,CAVOK,,,,,,,,VFR,,,,,,,,,,,,METAR,24
GOBD 272200Z 36015KT CAVOK 21/14 Q1013 NOSIG,GOBD,2025-01-27T22:00:00Z,14.671,-17.067,21,14,360,15,,6+,29.91,,,,,,TRUE,,,,,CAVOK,,,,,,,,VFR,,,,,,,,,,,,METAR,90
GMTT 272200Z 26013KT 7000 SCT016 SCT026 17/15 Q1025 NOSIG,GMTT,2025-01-27T22:00:00Z,35.727,-5.917,17,15,260,13,,4.35,30.27,,,,,,TRUE,,,,,SCT,1600,SCT,2600,,,,,MVFR,,,,,,,,,,,,METAR,19
GMTN 272200Z 26019KT 230V290 8000 BKN016 17/14 Q1023 NOSIG,GMTN,2025-01-27T22:00:00Z,35.594,-5.32,17,14,260,19,,4.97,30.21,,,,,,TRUE,,,,,BKN,1600,,,,,,,MVFR,,,,,,,,,,,,METAR,10
GMTA 272200Z 30013KT 260V350 9999 FEW020 SCT080 18/14 Q1022 NOSIG,GMTA,2025-01-27T22:00:00Z,35.177,-3.84,18,14,300,13,,6+,30.18,,,,,,TRUE,,,,,FEW,2000,SCT,8000,,,,,VFR,,,,,,,,,,,,METAR,14
GMMZ 272200Z 27013KT CAVOK 16/M08 Q1028 NOSIG,GMMZ,2025-01-27T22:00:00Z,30.939,-6.909,16,-8,270,13,,6+,30.35,,,,,,TRUE,,,,,CAVOK,,,,,,,,VFR,,,,,,,,,,,,METAR,1139
GMMX 272200Z 23007KT 8000 NSC 15/09 Q1028 NOSIG,GMMX,2025-01-27T22:00:00Z,31.607,-8.036,15,9,230,7,,4.97,30.35,,,,,,TRUE,,,,,CLR,,,,,,,,MVFR,,,,,,,,,,,,METAR,465
GMMW 272200Z 33008KT 7000 NSC 18/12 Q1022 NOSIG,GMMW,2025-01-27T22:00:00Z,34.993,-3.025,18,12,330,8,,4.35,30.18,,,,,,TRUE,,,,,CLR,,,,,,,,MVFR,,,,,,,,,,,,METAR,174
GMMN 272200Z 23005KT 5000 SCT005 BKN013 17/15 Q1028 REDZ NOSIG,GMMN,2025-01-27T22:00:00Z,33.367,-7.59,17,15,230,5,,3.11,30.35,,,,,,TRUE,,,,,SCT,500,BKN,1300,,,,,MVFR,,,,,,,,,,,,METAR,196
GMML 272200Z 04016KT 8000 FEW010 17/15 Q1026 NOSIG,GMML,2025-01-27T22:00:00Z,27.141,-13.23,17,15,40,16,,4.97,30.30,,,,,,TRUE,,,,,FEW,1000,,,,,,,MVFR,,,,,,,,,,,,METAR,63
GMMI 272200Z AUTO 04004KT 010V080 7000 NSC 16/16 Q1028 NOSIG,GMMI,2025-01-27T22:00:00Z,31.406,-9.687,16,16,40,4,,4.35,30.35,,,TRUE,,,TRUE,,,,,CLR,,,,,,,,MVFR,,,,,,,,,,,,METAR,102
GMME 272200Z 25009G19KT 5000 SCT010 BKN018 18/18 Q1026 TEMPO -RA,GMME,2025-01-27T22:00:00Z,34.051,-6.752,18,18,250,9,19,3.11,30.30,,,,,,,,,,,SCT,1000,BKN,1800,,,,,MVFR,,,,,,,,,,,,METAR,84
GMMB 272200Z AUTO 23007KT 9999 BKN007/// 17/17 Q1027 NOSIG,GMMB,2025-01-27T22:00:00Z,33.655,-7.221,17,17,230,7,,6+,30.32,,,TRUE,,,TRUE,,,,,BKN,700,,,,,,,IFR,,,,,,,,,,,,METAR,191
GMFO 272200Z 24025KT CAVOK 17/08 Q1023 NOSIG,GMFO,2025-01-27T22:00:00Z,34.787,-1.924,17,8,240,25,,6+,30.21,,,,,,TRUE,,,,,CAVOK,,,,,,,,VFR,,,,,,,,,,,,METAR,452
GMFM 272200Z 25007KT 9999 SCT016 BKN100 14/12 Q1028 NOSIG,GMFM,2025-01-27T22:00:00Z,33.875,-5.52,14,12,250,7,,6+,30.35,,,,,,TRUE,,,,,SCT,1600,BKN,10000,,,,,VFR,,,,,,,,,,,,METAR,569
GMFK 272200Z 32005KT CAVOK 14/M03 Q1028 NOSIG,GMFK,2025-01-27T22:00:00Z,31.946,-4.399,14,-3,320,5,,6+,30.35,,,,,,TRUE,,,,,CAVOK,,,,,,,,VFR,,,,,,,,,,,,METAR,1033
GMFF 272200Z 26010KT 9999 SCT016 15/15 Q1027 NOSIG,GMFF,2025-01-27T22:00:00Z,33.929,-4.976,15,15,260,10,,6+,30.32,,,,,,TRUE,,,,,SCT,1600,,,,,,,VFR,,,,,,,,,,,,METAR,575
GMFB 272200Z AUTO 30005KT 250V320 9999 NSC 12/01 Q1027 NOSIG,GMFB,2025-01-27T22:00:00Z,32.514,-1.978,12,1,300,5,,6+,30.32,,,TRUE,,,TRUE,,,,,CLR,,,,,,,,VFR,,,,,,,,,,,,METAR,1106
GMAZ 272200Z 23013KT CAVOK 16/M03 Q1026 NOSIG,GMAZ,2025-01-27T22:00:00Z,30.266,-5.854,16,-3,230,13,,6+,30.30,,,,,,TRUE,,,,,CAVOK,,,,,,,,VFR,,,,,,,,,,,,METAR,729
GLRB 272200Z 00000KT 9999 FEW012 26/25 Q1012 NOSIG,GLRB,2025-01-27T22:00:00Z,6.234,-10.362,26,25,0,0,,6+,29.88,,,,,,TRUE,,,,,FEW,1200,,,,,,,VFR,,,,,,,,,,,,METAR,12
GGOV 272200Z 22004KT 8000 NSC 25/17 Q1012 NOSIG,GGOV,2025-01-27T22:00:00Z,11.895,-15.654,25,17,220,4,,4.97,29.88,,,,,,TRUE,,,,,CLR,,,,,,,,MVFR,,,,,,,,,,,,METAR,31
GEML 272200Z AUTO 31014G26KT 270V340 9999 BKN016 18/14 Q1022,GEML,2025-01-27T22:00:00Z,35.278,-2.956,18,14,310,14,26,6+,30.18,,,TRUE,,,,,,,,BKN,1600,,,,,,,MVFR,,,,,,,,,,,,METAR,48
GECE 272200Z AUTO 28018G30KT 220V300 9999 FEW028 SCT038 18/13 Q1024,GECE,2025-01-27T22:00:00Z,35.893,-5.306,18,13,280,18,30,6+,30.24,,,TRUE,,,,,,,,FEW,2800,SCT,3800,,,,,VFR,,,,,,,,,,,,METAR,2
GCXO 272200Z 27010KT 0050 R30/0600N R12/0450D FG OVC001 14/14 Q1029 NOSIG,GCXO,2025-01-27T22:00:00Z,28.483,-16.342,14,14,270,10,,0.03,30.38,,,,,,TRUE,,,,FG,OVC,100,,,,,,,LIFR,,,,,,,,,,,,METAR,623
GCTS 272200Z 06013KT 9999 BKN013 19/17 Q1027 NOSIG,GCTS,2025-01-27T22:00:00Z,28.047,-16.561,19,17,60,13,,6+,30.32,,,,,,TRUE,,,,,BKN,1300,,,,,,,MVFR,,,,,,,,,,,,METAR,59
GCRR 272200Z 03009KT 340V050 9999 VCFG BKN009 18/15 Q1028,GCRR,2025-01-27T22:00:00Z,28.952,-13.6,18,15,30,9,,6+,30.35,,,,,,,,,,VCFG,BKN,900,,,,,,,IFR,,,,,,,,,,,,METAR,9
GCLP 272200Z 01016KT 9999 BKN019 19/15 Q1028 NOSIG,GCLP,2025-01-27T22:00:00Z,27.923,-15.389,19,15,10,16,,6+,30.35,,,,,,TRUE,,,,,BKN,1900,,,,,,,MVFR,,,,,,,,,,,,METAR,16
GCLA 272200Z AUTO 36013KT 9999 OVC020 19/17 Q1029,GCLA,2025-01-27T22:00:00Z,28.633,-17.755,19,17,360,13,,6+,30.38,,,TRUE,,,,,,,,OVC,2000,,,,,,,MVFR,,,,,,,,,,,,METAR,20
GCHI 272200Z AUTO 36013KT 9999 BKN009 19/17 Q1028,GCHI,2025-01-27T22:00:00Z,27.819,-17.889,19,17,360,13,,6+,30.35,,,TRUE,,,,,,,,BKN,900,,,,,,,IFR,,,,,,,,,,,,METAR,21
GCGM 272200Z AUTO 23003KT 9999 FEW004 18/17 Q1027 RMK R09/VRB01KT ARP/VRB01KT,GCGM,2025-01-27T22:00:00Z,28.032,-17.211,18,17,230,3,,6+,30.32,,,TRUE,,,,,,,,FEW,400,,,,,,,VFR,,,,,,,,,,,,METAR,217
GCFV 272200Z 35009KT 9999 SCT012 18/15 Q1028,GCFV,2025-01-27T22:00:00Z,28.445,-13.863,18,15,350,9,,6+,30.35,,,,,,,,,,,SCT,1200,,,,,,,VFR,,,,,,,,,,,,METAR,11
GBYD 272200Z 28005KT CAVOK 22/14 Q1011,GBYD,2025-01-27T22:00:00Z,13.341,-16.653,22,14,280,5,,6+,29.85,,,,,,,,,,,CAVOK,,,,,,,,VFR,,,,,,,,,,,,METAR,29
GABS 272200Z 06009KT CAVOK 28/01 Q1015 NOSIG,GABS,2025-01-27T22:00:00Z,12.534,-7.95,28,1,60,9,,6+,29.97,,,,,,TRUE,,,,,CAVOK,,,,,,,,VFR,,,,,,,,,,,,METAR,375
FTTJ 272200Z 03007KT 8000 NSC 22/M02 Q1014 NOSIG,FTTJ,2025-01-27T22:00:00Z,12.134,15.034,22,-2,30,7,,4.97,29.94,,,,,,TRUE,,,,,CLR,,,,,,,,MVFR,,,,,,,,,,,,METAR,295
FSIA 272200Z VRB01KT 9999 FEW030 26/26 Q1009 NOSIG,FSIA,2025-01-27T22:00:00Z,-4.674,55.522,26,26,VRB,1,,6+,29.79,,,,,,TRUE,,,,,FEW,3000,,,,,,,VFR,,,,,,,,,,,,METAR,3
FOOL 272200Z 23004KT 200V270 9999 FEW013 27/24 Q1013 NOSIG,FOOL,2025-01-27T22:00:00Z,0.459,9.412,27,24,230,4,,6+,29.91,,,,,,TRUE,,,,,FEW,1300,,,,,,,VFR,,,,,,,,,,,,METAR,9
FOOG 272200Z 22002KT 8000 FEW008 26/25 Q1012,FOOG,2025-01-27T22:00:00Z,-0.712,8.754,26,25,220,2,,4.97,29.88,,,,,,,,,,,FEW,800,,,,,,,MVFR,,,,,,,,,,,,METAR,4
FMMI 272200Z 05003KT 9999 FEW017 20/20 Q1015 NOSIG,FMMI,2025-01-27T22:00:00Z,-18.797,47.479,20,20,50,3,,6+,29.97,,,,,,TRUE,,,,,FEW,1700,,,,,,,VFR,,,,,,,,,,,,METAR,1269
FMEP 272200Z AUTO 03004KT 9999 FEW023 27/21 Q1009,FMEP,2025-01-27T22:00:00Z,-21.32,55.425,27,21,30,4,,6+,29.79,,,TRUE,,,,,,,,FEW,2300,,,,,,,VFR,,,,,,,,,,,,METAR,21
FMEE 272200Z AUTO 14005KT 090V210 9999 OVC052 26/23 Q1009 TEMPO 4500 SHRA BKN030TCU,FMEE,2025-01-27T22:00:00Z,-20.887,55.51,26,23,140,5,,6+,29.79,,,TRUE,,,,,,,,OVC,5200,,,,,,,VFR,,,,,,,,,,,,METAR,20
FMCZ 272200Z AUTO 34009KT CAVOK 28/25 Q1008 NOSIG,FMCZ,2025-01-27T22:00:00Z,-12.805,45.281,28,25,340,9,,6+,29.76,,,TRUE,,,TRUE,,,,,CAVOK,,,,,,,,VFR,,,,,,,,,,,,METAR,7
FIMP 272200Z 32003KT 9999 FEW018 BKN250 25/24 Q1010,FIMP,2025-01-27T22:00:00Z,-20.434,57.684,25,24,320,3,,6+,29.82,,,,,,,,,,,FEW,1800,BKN,25000,,,,,VFR,,,,,,,,,,,,METAR,57
FEFF 272200Z VRB03KT 6000 NSC 23/16 Q1012 NOSIG,FEFF,2025-01-27T22:00:00Z,4.399,18.519,23,16,VRB,3,,3.73,29.88,,,,,,TRUE,,,,,CLR,,,,,,,,MVFR,,,,,,,,,,,,METAR,364
EPWR 272200Z 19005KT 190V250 9999 -RA FEW024 07/06 Q1004,EPWR,2025-01-27T22:00:00Z,51.1032,16.8998,7,6,190,5,,6+,29.65,,,,,,,,,,-RA,FEW,2400,,,,,,,VFR,,,,,,,,,,,,METAR,118
EPWA 272200Z 15005KT CAVOK 05/03 Q1005 NOSIG,EPWA,2025-01-27T22:00:00Z,52.163,20.961,5,3,150,5,,6+,29.68,,,,,,TRUE,,,,,CAVOK,,,,,,,,VFR,,,,,,,,,,,,METAR,107
EPSY 272200Z 19007KT CAVOK 06/04 Q1004,EPSY,2025-01-27T22:00:00Z,53.482,20.938,6,4,190,7,,6+,29.65,,,,,,,,,,,CAVOK,,,,,,,,VFR,,,,,,,,,,,,METAR,136
EPSC 272200Z 15008KT CAVOK 08/05 Q0998,EPSC,2025-01-27T22:00:00Z,53.585,14.902,8,5,150,8,,6+,29.47,,,,,,,,,,,CAVOK,,,,,,,,VFR,,,,,,,,,,,,METAR,47
EPRZ 272200Z 18009KT CAVOK 08/04 Q1006,EPRZ,2025-01-27T22:00:00Z,50.112,22.025,8,4,180,9,,6+,29.70,,,,,,,,,,,CAVOK,,,,,,,,VFR,,,,,,,,,,,,METAR,206
EPRA 272200Z 15006KT CAVOK 02/01 Q1005,EPRA,2025-01-27T22:00:00Z,51.39,21.211,2,1,150,6,,6+,29.68,,,,,,,,,,,CAVOK,,,,,,,,VFR,,,,,,,,,,,,METAR,182
EPPO 272200Z 19007KT 9999 -RA NSC 08/04 Q1001,EPPO,2025-01-27T22:00:00Z,52.417,16.835,8,4,190,7,,6+,29.56,,,,,,,,,,-RA,CLR,,,,,,,,VFR,,,,,,,,,,,,METAR,87
EPMO 272200Z 13007KT CAVOK 06/04 Q1004,EPMO,2025-01-27T22:00:00Z,52.452,20.642,6,4,130,7,,6+,29.65,,,,,,,,,,,CAVOK,,,,,,,,VFR,,,,,,,,,,,,METAR,102
EPLL 272200Z VRB02KT CAVOK 07/03 Q1003,EPLL,2025-01-27T22:00:00Z,51.724,19.401,7,3,VRB,2,,6+,29.62,,,,,,,,,,,CAVOK,,,,,,,,VFR,,,,,,,,,,,,METAR,176
EPLB 272200Z 16005KT CAVOK 06/04 Q1006,EPLB,2025-01-27T22:00:00Z,51.239,22.714,6,4,160,5,,6+,29.70,,,,,,,,,,,CAVOK,,,,,,,,VFR,,,,,,,,,,,,METAR,206
EPKT 272200Z VRB01KT CAVOK 03/01 Q1004,EPKT,2025-01-27T22:00:00Z,50.478,19.085,3,1,VRB,1,,6+,29.65,,,,,,,,,,,CAVOK,,,,,,,,VFR,,,,,,,,,,,,METAR,296
EPKK 272200Z 03004KT CAVOK 02/00 Q1004,EPKK,2025-01-27T22:00:00Z,50.078,19.797,2,0,30,4,,6+,29.65,,,,,,,,,,,CAVOK,,,,,,,,VFR,,,,,,,,,,,,METAR,237
EPGD 272200Z 19009KT CAVOK 07/05 Q0999,EPGD,2025-01-27T22:00:00Z,54.379,18.466,7,5,190,9,,6+,29.50,,,,,,,,,,,CAVOK,,,,,,,,VFR,,,,,,,,,,,,METAR,136
EPBY 272200Z 20009KT 180V240 CAVOK 08/04 Q1001,EPBY,2025-01-27T22:00:00Z,53.0962,17.9949,8,4,200,9,,6+,29.56,,,,,,,,,,,CAVOK,,,,,,,,VFR,,,,,,,,,,,,METAR,66
EINN 272200Z 33013KT 9999 FEW004 BKN006 08/07 Q0968 NOSIG,EINN,2025-01-27T22:00:00Z,52.702,-8.925,8,7,330,13,,6+,28.58,,,,,,TRUE,,,,,FEW,400,BKN,600,,,,,IFR,,,,,,,,,,,,METAR,20
EIME 272200Z 05004KT 8000 -RADZ FEW020 SCT037 BKN043 07/06 Q0966,EIME,2025-01-27T22:00:00Z,53.306,-6.442,7,6,50,4,,4.97,28.52,,,,,,,,,,-RA -DZ,FEW,2000,SCT,3700,BKN,4300,,,MVFR,,,,,,,,,,,,METAR,90
EIDW 272200Z 13004KT 100V160 9999 -RA FEW008 SCT026 BKN045 08/07 Q0966 NOSIG,EIDW,2025-01-27T22:00:00Z,53.422,-6.298,8,7,130,4,,6+,28.52,,,,,,TRUE,,,,-RA,FEW,800,SCT,2600,BKN,4500,,,VFR,,,,,,,,,,,,METAR,75
EICK 272200Z 30011KT 9999 FEW006 SCT018CB BKN035 06/05 Q0966 TEMPO 4000,EICK,2025-01-27T22:00:00Z,51.848,-8.479,6,5,300,11,,6+,28.52,,,,,,,,,,,FEW,600,SCT,1800,BKN,3500,,,VFR,,,,,,,,,,,,METAR,158
DXXX 272200Z 22007KT 9999 FEW012 28/26 Q1013 NOSIG,DXXX,2025-01-27T22:00:00Z,6.166,1.254,28,26,220,7,,6+,29.91,,,,,,TRUE,,,,,FEW,1200,,,,,,,VFR,,,,,,,,,,,,METAR,22
DTTZ 272200Z 00000KT CAVOK 16/05 Q1022,DTTZ,2025-01-27T22:00:00Z,33.94,8.111,16,5,0,0,,6+,30.18,,,,,,,,,,,CAVOK,,,,,,,,VFR,,,,,,,,,,,,METAR,87
DTTX 272200Z 22003KT 9999 FEW030 13/08 Q1021,DTTX,2025-01-27T22:00:00Z,34.718,10.691,13,8,220,3,,6+,30.15,,,,,,,,,,,FEW,3000,,,,,,,VFR,,,,,,,,,,,,METAR,17
DTTR 272200Z AUTO 12002KT NCD 12/07 Q1026,DTTR,2025-01-27T22:00:00Z,31.703,9.257,12,7,120,2,,,30.30,,,TRUE,,,,,,,,CLR,,,,,,,,,,,,,,,,,,,,METAR,253
DTTN 272200Z 26002KT 9999 FEW020 11/09 Q1019,DTTN,2025-01-27T22:00:00Z,36.483,8.8,11,9,260,2,,6+,30.09,,,,,,,,,,,FEW,2000,,,,,,,VFR,,,,,,,,,,,,METAR,145
DTTL 272200Z VRB02KT 6000 SCT016 15/14 Q1018,DTTL,2025-01-27T22:00:00Z,36.85,11.083,15,14,VRB,2,,3.73,30.06,,,,,,,,,,,SCT,1600,,,,,,,MVFR,,,,,,,,,,,,METAR,18
DTTK 272200Z 22004KT 150V280 9999 FEW026 17/05 Q1019,DTTK,2025-01-27T22:00:00Z,35.667,10.1,17,5,220,4,,6+,30.09,,,,,,,,,,,FEW,2600,,,,,,,VFR,,,,,,,,,,,,METAR,65
DTTJ 272200Z 20006KT CAVOK 14/10 Q1023,DTTJ,2025-01-27T22:00:00Z,33.875,10.775,14,10,200,6,,6+,30.21,,,,,,,,,,,CAVOK,,,,,,,,VFR,,,,,,,,,,,,METAR,3
DTTG 272200Z 28006KT CAVOK 12/07 Q1023 NOSIG,DTTG,2025-01-27T22:00:00Z,33.733,9.918,12,7,280,6,,6+,30.21,,,,,,TRUE,,,,,CAVOK,,,,,,,,VFR,,,,,,,,,,,,METAR,120
DTTF 272200Z 18005KT CAVOK 13/07 Q1023,DTTF,2025-01-27T22:00:00Z,34.422,8.822,13,7,180,5,,6+,30.21,,,,,,,,,,,CAVOK,,,,,,,,VFR,,,,,,,,,,,,METAR,314
DTTD 272200Z AUTO 25006KT 220V280 NCD 15/06 Q1025,DTTD,2025-01-27T22:00:00Z,32.312,10.386,15,6,250,6,,,30.27,,,TRUE,,,,,,,,CLR,,,,,,,,,,,,,,,,,,,,METAR,306
DTTB 272200Z 33002KT 9999 FEW020 12/11 Q1018,DTTB,2025-01-27T22:00:00Z,37.245,9.791,12,11,330,2,,6+,30.06,,,,,,,,,,,FEW,2000,,,,,,,VFR,,,,,,,,,,,,METAR,4
DTTA 272200Z 15004KT 8000 FEW026 13/12 Q1018,DTTA,2025-01-27T22:00:00Z,36.851,10.227,13,12,150,4,,4.97,30.06,,,,,,,,,,,FEW,2600,,,,,,,MVFR,,,,,,,,,,,,METAR,4
DTNH 272200Z 25004KT 8000 FEW033 12/10 Q1018,DTNH,2025-01-27T22:00:00Z,36.074,10.436,12,10,250,4,,4.97,30.06,,,,,,,,,,,FEW,3300,,,,,,,MVFR,,,,,,,,,,,,METAR,1
DTMB 272200Z 20012KT 170V240 8000 NSC 16/07 Q1019,DTMB,2025-01-27T22:00:00Z,35.758,10.755,16,7,200,12,,4.97,30.09,,,,,,,,,,,CLR,,,,,,,,MVFR,,,,,,,,,,,,METAR,1
DTKA 272200Z 15003KT 120V180 9999 FEW020 12/08 Q1017,DTKA,2025-01-27T22:00:00Z,36.98,8.877,12,8,150,3,,6+,30.03,,,,,,,,,,,FEW,2000,,,,,,,VFR,,,,,,,,,,,,METAR,70
DRRN 272200Z 04002KT 8000 NSC 24/M04 Q1015 NOSIG,DRRN,2025-01-27T22:00:00Z,13.483,2.17,24,-4,40,2,,4.97,29.97,,,,,,TRUE,,,,,CLR,,,,,,,,MVFR,,,,,,,,,,,,METAR,223
DNZA 272200Z 06006KT CAVOK 21/08 Q1018,DNZA,2025-01-27T22:00:00Z,11.13,7.686,21,8,60,6,,6+,30.06,,,,,,,,,,,CAVOK,,,,,,,,VFR,,,,,,,,,,,,METAR,655
DNPO 272200Z 00000KT 8000 BKN007 26/23 Q1012 NOSIG,DNPO,2025-01-27T22:00:00Z,4.848,7.022,26,23,0,0,,4.97,29.88,,,,,,TRUE,,,,,BKN,700,,,,,,,IFR,,,,,,,,,,,,METAR,17
DNMM 272200Z 18004KT 9999 FEW011 28/26 Q1013 NOSIG,DNMM,2025-01-27T22:00:00Z,6.577,3.321,28,26,180,4,,6+,29.91,,,,,,TRUE,,,,,FEW,1100,,,,,,,VFR,,,,,,,,,,,,METAR,27
DNKA 272200Z 04006KT CAVOK 22/2 Q1018 NOSIG,DNKA,2025-01-27T22:00:00Z,10.6,7.45,22,,40,6,,6+,30.06,,,,,,TRUE,,,,,CAVOK,,,,,,,,VFR,,,,,,,,,,,,METAR,631
DNIM 272200Z 00000KT 9999 BKN011 26/22 Q1013,DNIM,2025-01-27T22:00:00Z,5.427,7.206,26,22,0,0,,6+,29.91,,,,,,,,,,,BKN,1100,,,,,,,MVFR,,,,,,,,,,,,METAR,113
DNIL 272200Z 00000KT CAVOK 27/11 Q1013,DNIL,2025-01-27T22:00:00Z,8.438,4.491,27,11,0,0,,6+,29.91,,,,,,,,,,,CAVOK,,,,,,,,VFR,,,,,,,,,,,,METAR,341
DNIB 272200Z 17004KT CAVOK 27/24 Q1013,DNIB,2025-01-27T22:00:00Z,7.36,3.976,27,24,170,4,,6+,29.91,,,,,,,,,,,CAVOK,,,,,,,,VFR,,,,,,,,,,,,METAR,220
DNAA 272200Z 00000KT CAVOK 25/15 Q1014 NOSIG,DNAA,2025-01-27T22:00:00Z,9.007,7.263,25,15,0,0,,6+,29.94,,,,,,TRUE,,,,,CAVOK,,,,,,,,VFR,,,,,,,,,,,,METAR,338
DIYO 272200Z 00000KT CAVOK 26/20 Q1013 NOSIG,DIYO,2025-01-27T22:00:00Z,6.903,-5.366,26,20,0,0,,6+,29.91,,,,,,TRUE,,,,,CAVOK,,,,,,,,VFR,,,,,,,,,,,,METAR,202
DIAP 272200Z 22005KT 9000 FEW011 27/24 Q1012 NOSIG,DIAP,2025-01-27T22:00:00Z,5.261,-3.926,27,24,220,5,,5.59,29.88,,,,,,TRUE,,,,,FEW,1100,,,,,,,VFR,,,,,,,,,,,,METAR,4
DGLE 272200Z 00000KT 8000 NSC 27/11 Q1013 NOSIG,DGLE,2025-01-27T22:00:00Z,9.554,-0.862,27,11,0,0,,4.97,29.91,,,,,,TRUE,,,,,CLR,,,,,,,,MVFR,,,,,,,,,,,,METAR,169
DGAA 272200Z 22007KT CAVOK 28/26 Q1012 NOSIG,DGAA,2025-01-27T22:00:00Z,5.6,-0.17,28,26,220,7,,6+,29.88,,,,,,TRUE,,,,,CAVOK,,,,,,,,VFR,,,,,,,,,,,,METAR,68
DFOO 272200Z 05005KT CAVOK 22/04 Q1015,DFOO,2025-01-27T22:00:00Z,11.163,-4.322,22,4,50,5,,6+,29.97,,,,,,,,,,,CAVOK,,,,,,,,VFR,,,,,,,,,,,,METAR,461
DFFD 272200Z 04004KT CAVOK 23/M01 Q1015 NOSIG,DFFD,2025-01-27T22:00:00Z,12.356,-1.512,23,-1,40,4,,6+,29.97,,,,,,TRUE,,,,,CAVOK,,,,,,,,VFR,,,,,,,,,,,,METAR,309
DBBB 272200Z 20007KT 9999 FEW010 28/26 Q1012 NOSIG,DBBB,2025-01-27T22:00:00Z,6.357,2.384,28,26,200,7,,6+,29.88,,,,,,TRUE,,,,,FEW,1000,,,,,,,VFR,,,,,,,,,,,,METAR,4
DAUZ 272200Z 04006KT CAVOK 12/M07 Q1026,DAUZ,2025-01-27T22:00:00Z,28.052,9.643,12,-7,40,6,,6+,30.30,,,,,,,,,,,CAVOK,,,,,,,,VFR,,,,,,,,,,,,METAR,567
DAUU 272200Z 21005KT CAVOK 15/02 Q1024,DAUU,2025-01-27T22:00:00Z,31.917,5.413,15,2,210,5,,6+,30.24,,,,,,,,,,,CAVOK,,,,,,,,VFR,,,,,,,,,,,,METAR,147
DAUT 272200Z 06004KT CAVOK 15/01 Q1025,DAUT,2025-01-27T22:00:00Z,29.237,0.276,15,1,60,4,,6+,30.27,,,,,,,,,,,CAVOK,,,,,,,,VFR,,,,,,,,,,,,METAR,307
DAUO 272200Z 21008KT CAVOK 16/05 Q1022,DAUO,2025-01-27T22:00:00Z,33.513,6.782,16,5,210,8,,6+,30.18,,,,,,,,,,,CAVOK,,,,,,,,VFR,,,,,,,,,,,,METAR,55
DAUL 272200Z 25010KT 9999 FEW030 SCT100 13/00 Q1024,DAUL,2025-01-27T22:00:00Z,33.764,2.928,13,0,250,10,,6+,30.24,,,,,,,,,,,FEW,3000,SCT,10000,,,,,VFR,,,,,,,,,,,,METAR,755
DAUK 272200Z 18006KT CAVOK 16/04 Q1023,DAUK,2025-01-27T22:00:00Z,33.068,6.089,16,4,180,6,,6+,30.21,,,,,,,,,,,CAVOK,,,,,,,,VFR,,,,,,,,,,,,METAR,83
DAUI 272200Z 04009KT CAVOK 19/M03 Q1024,DAUI,2025-01-27T22:00:00Z,27.251,2.512,19,-3,40,9,,6+,30.24,,,,,,,,,,,CAVOK,,,,,,,,VFR,,,,,,,,,,,,METAR,271
DAUH 272200Z 22003KT CAVOK 12/02 Q1024,DAUH,2025-01-27T22:00:00Z,31.673,6.14,12,2,220,3,,6+,30.24,,,,,,,,,,,CAVOK,,,,,,,,VFR,,,,,,,,,,,,METAR,141
DAUG 272200Z 21004KT CAVOK 16/05 Q1025,DAUG,2025-01-27T22:00:00Z,32.384,3.794,16,5,210,4,,6+,30.27,,,,,,,,,,,CAVOK,,,,,,,,VFR,,,,,,,,,,,,METAR,444
DAUE 272200Z VRB01KT CAVOK 11/01 Q1027,DAUE,2025-01-27T22:00:00Z,30.571,2.86,11,1,VRB,1,,6+,30.32,,,,,,,,,,,CAVOK,,,,,,,,VFR,,,,,,,,,,,,METAR,396
DAUB 272200Z 34003KT 9999 FEW040 13/06 Q1022,DAUB,2025-01-27T22:00:00Z,34.793,5.738,13,6,340,3,,6+,30.18,,,,,,,,,,,FEW,4000,,,,,,,VFR,,,,,,,,,,,,METAR,75
DAUA 272200Z 01007KT CAVOK 15/M02 Q1025,DAUA,2025-01-27T22:00:00Z,27.839,-0.186,15,-2,10,7,,6+,30.27,,,,,,,,,,,CAVOK,,,,,,,,VFR,,,,,,,,,,,,METAR,278
DAOY 272200Z 17003KT CAVOK 06/M01 Q1025,DAOY,2025-01-27T22:00:00Z,33.721,1.091,6,-1,170,3,,6+,30.27,,,,,,,,,,,CAVOK,,,,,,,,VFR,,,,,,,,,,,,METAR,1340
DAOV 272200Z 22005KT CAVOK 15/06 Q1023,DAOV,2025-01-27T22:00:00Z,35.208,0.147,15,6,220,5,,6+,30.21,,,,,,,,,,,CAVOK,,,,,,,,VFR,,,,,,,,,,,,METAR,506
DAOR 272200Z 22006KT 8000 NSC 12/M01 Q1027,DAOR,2025-01-27T22:00:00Z,31.65,-2.261,12,-1,220,6,,4.97,30.32,,,,,,,,,,,CLR,,,,,,,,MVFR,,,,,,,,,,,,METAR,809
DAOO 272200Z 23007KT 9999 FEW026 SCT233 15/11 Q1020,DAOO,2025-01-27T22:00:00Z,35.623,-0.624,15,11,230,7,,6+,30.12,,,,,,,,,,,FEW,2600,SCT,23300,,,,,VFR,,,,,,,,,,,,METAR,87
DAON 272200Z 23018KT CAVOK 19/07 Q1022,DAON,2025-01-27T22:00:00Z,35.013,-1.457,19,7,230,18,,6+,30.18,,,,,,,,,,,CAVOK,,,,,,,,VFR,,,,,,,,,,,,METAR,245
DAOI 272200Z 24008KT 9999 FEW030 16/11 Q1021,DAOI,2025-01-27T22:00:00Z,36.213,1.332,16,11,240,8,,6+,30.15,,,,,,,,,,,FEW,3000,,,,,,,VFR,,,,,,,,,,,,METAR,141
DAOF 272200Z 20004KT CAVOK 18/M05 Q1025,DAOF,2025-01-27T22:00:00Z,27.7,-8.167,18,-5,200,4,,6+,30.27,,,,,,,,,,,CAVOK,,,,,,,,VFR,,,,,,,,,,,,METAR,441
DAOB 272200Z 23010KT CAVOK 11/02 Q1023,DAOB,2025-01-27T22:00:00Z,35.345,1.476,11,2,230,10,,6+,30.21,,,,,,,,,,,CAVOK,,,,,,,,VFR,,,,,,,,,,,,METAR,976
DABT 272200Z 09003KT CAVOK 09/02 Q1022,DABT,2025-01-27T22:00:00Z,35.752,6.309,9,2,90,3,,6+,30.18,,,,,,,,,,,CAVOK,,,,,,,,VFR,,,,,,,,,,,,METAR,813
DABS 272200Z 14003KT CAVOK 13/00 Q1022,DABS,2025-01-27T22:00:00Z,35.432,8.121,13,0,140,3,,6+,30.18,,,,,,,,,,,CAVOK,,,,,,,,VFR,,,,,,,,,,,,METAR,806
DABC 272200Z 27010KT CAVOK 11/03 Q1021,DABC,2025-01-27T22:00:00Z,36.278,6.629,11,3,270,10,,6+,30.15,,,,,,,,,,,CAVOK,,,,,,,,VFR,,,,,,,,,,,,METAR,686
DABB 272200Z 19008KT CAVOK 15/06 Q1017,DABB,2025-01-27T22:00:00Z,36.822,7.809,15,6,190,8,,6+,30.03,,,,,,,,,,,CAVOK,,,,,,,,VFR,,,,,,,,,,,,METAR,3
DAAY 272200Z 22006KT CAVOK 10/M01 Q1028,DAAY,2025-01-27T22:00:00Z,33.532,-0.248,10,-1,220,6,,6+,30.35,,,,,,,,,,,CAVOK,,,,,,,,VFR,,,,,,,,,,,,METAR,1116
DAAV 272200Z 17005KT CAVOK 16/05 Q1016,DAAV,2025-01-27T22:00:00Z,36.795,5.877,16,5,170,5,,6+,30.00,,,,,,,,,,,CAVOK,,,,,,,,VFR,,,,,,,,,,,,METAR,11
DAAT 272200Z 00000KT CAVOK 11/M14 Q1027,DAAT,2025-01-27T22:00:00Z,22.824,5.452,11,-14,0,0,,6+,30.32,,,,,,,,,,,CAVOK,,,,,,,,VFR,,,,,,,,,,,,METAR,1372
DAAS 272200Z VRB02KT CAVOK 08/03 Q1022,DAAS,2025-01-27T22:00:00Z,36.18,5.33,8,3,VRB,2,,6+,30.18,,,,,,,,,,,CAVOK,,,,,,,,VFR,,,,,,,,,,,,METAR,1012
DAAP 272200Z 10004KT CAVOK 14/M04 Q1025,DAAP,2025-01-27T22:00:00Z,26.724,8.622,14,-4,100,4,,6+,30.27,,,,,,,,,,,CAVOK,,,,,,,,VFR,,,,,,,,,,,,METAR,542
DAAJ 272200Z 36005KT CAVOK 15/M09 Q1025,DAAJ,2025-01-27T22:00:00Z,24.286,9.464,15,-9,360,5,,6+,30.27,,,,,,,,,,,CAVOK,,,,,,,,VFR,,,,,,,,,,,,METAR,962
DAAG 272200Z 25012KT CAVOK 21/06 Q1016,DAAG,2025-01-27T22:00:00Z,36.691,3.215,21,6,250,12,,6+,30.00,,,,,,,,,,,CAVOK,,,,,,,,VFR,,,,,,,,,,,,METAR,18
DAAE 272200Z 25009KT CAVOK 16/06 Q1016,DAAE,2025-01-27T22:00:00Z,36.712,5.07,16,6,250,9,,6+,30.00,,,,,,,,,,,CAVOK,,,,,,,,VFR,,,,,,,,,,,,METAR,1
CZZJ 272200Z AUTO 28006KT 07/M08 RMK AO1 SOG 17 6025 SLP155 T00681075,CZZJ,2025-01-27T22:00:00Z,53.583,-116.462,6.8,-7.5,280,6,,,0.00,1015.5,,TRUE,TRUE,,,,,,,,,,,,,,,,,,,,,,,,,,,METAR,927
CZVL 272200Z AUTO 27009G15KT 9SM BKN230 07/M07 A2983 RMK SLP124,CZVL,2025-01-27T22:00:00Z,53.67,-113.863,7,-7,270,9,15,9,29.83,1012.4,,TRUE,,,,,,,,BKN,23000,,,,,,,VFR,,,,,,,,,,,,METAR,685
CZUM 272200Z AUTO 13008G20KT 110V170 3SM -SN OVC034 M14/M16 A2892 RMK SLP840,CZUM,2025-01-27T22:00:00Z,53.562,-64.107,-14,-16,130,8,20,3,28.92,984,,TRUE,,,,,,,-SN,OVC,3400,,,,,,,MVFR,,,,,,,,,,,,METAR,431
CZTB 272200Z AUTO 33015G23KT M06/M19 RMK AO1 PRESRR SOG 05 3043 PK WND 31032/2116 SLP004 T10571186,CZTB,2025-01-27T22:00:00Z,48.369,-89.327,-5.7,-18.6,330,15,23,,0.00,1000.4,,TRUE,TRUE,,,,,,,,,,,,,,,,,,,,,,,,,,,METAR,197
CZST 272200Z 05004KT 340V070 6SM BR OVC020 M03/M04 A3044 RMK SC8 SLP311,CZST,2025-01-27T22:00:00Z,55.935,-129.984,-3,-4,50,4,,6,30.44,1031.1,,,,,,,,,BR,OVC,2000,,,,,,,MVFR,,,,,,,,,,,,METAR,10
CZSP 272200Z AUTO 16012G18KT M03/M08 RMK AO1 PRESFR SOG 18 8043 PK WND 16021/2123 SLP002 T10311081,CZSP,2025-01-27T22:00:00Z,46.45,-62.576,-3.1,-8.1,160,12,18,,0.00,1000.2,,TRUE,TRUE,,,,,,,,,,,,,,,,,,,,,,,,,,,METAR,31
CZSM 272200Z AUTO 15004KT M04/M06 RMK AO1 PRESFR SOG 39 7057 SLP969 T10401059,CZSM,2025-01-27T22:00:00Z,60.026,-111.929,-4,-5.9,150,4,,,0.00,996.9,,TRUE,TRUE,,,,,,,,,,,,,,,,,,,,,,,,,,,METAR,203
CZSJ 272200Z AUTO 31008KT 9SM CLR M16/M20 A2965 RMK SLP071,CZSJ,2025-01-27T22:00:00Z,53.063,-93.344,-16,-20,310,8,,9,29.65,1007.1,,TRUE,,,,,,,,CLR,,,,,,,,VFR,,,,,,,,,,,,METAR,286
CZRP 272200Z AUTO 32009KT M25/M28 RMK AO1 SOG 99 3011 SLP089 T12541278,CZRP,2025-01-27T22:00:00Z,75.377,-105.715,-25.4,-27.8,320,9,,,0.00,1008.9,,TRUE,TRUE,,,,,,,,,,,,,,,,,,,,,,,,,,,METAR,6
CZPC 272200Z AUTO 25021G27KT 9SM CLR 05/M12 A3004 RMK SLP212,CZPC,2025-01-27T22:00:00Z,49.522,-114.005,5,-12,250,21,27,9,30.04,1021.2,,TRUE,,,,,,,,CLR,,,,,,,,VFR,,,,,,,,,,,,METAR,1187
CZMT 272200Z 19004KT 160V230 10SM FEW006 SCT044 OVC250 04/03 A3043 RMK CF1SC3CS5 CF TR SLP308,CZMT,2025-01-27T22:00:00Z,54.023,-132.12,4,3,190,4,,10+,30.43,1030.8,,,,,,,,,,FEW,600,SCT,4400,OVC,25000,,,VFR,,,,,,,,,,,,METAR,11
CZMJ 272200Z AUTO 26014KT M00/M05 RMK AO1 SOG 08 6012 PK WND 26020/2138 SLP153 T10031054,CZMJ,2025-01-27T22:00:00Z,50.332,-105.538,-0.3,-5.4,260,14,,,0.00,1015.3,,TRUE,TRUE,,,,,,,,,,,,,,,,,,,,,,,,,,,METAR,571
CZMD 272200Z AUTO 29011G19KT 270V330 8SM -SN OVC028 M17/M22 A2962 RMK SLP061,CZMD,2025-01-27T22:00:00Z,53.439,-91.766,-17,-22,290,11,19,8,29.62,1006.1,,TRUE,,,,,,,-SN,OVC,2800,,,,,,,MVFR,,,,,,,,,,,,METAR,276
CZKD 272200Z AUTO 31008KT M17/M23 RMK AO1 SOG 38 3011 SLP096 T11711231,CZKD,2025-01-27T22:00:00Z,56.037,-96.51,-17.1,-23.1,310,8,,,0.00,1009.6,,TRUE,TRUE,,,,,,,,,,,,,,,,,,,,,,,,,,,METAR,190
CZHY 272200Z AUTO 29011KT M00/M04 RMK AO1 SOG 06 6030 SLP946 T10031041,CZHY,2025-01-27T22:00:00Z,60.839,-115.781,-0.3,-4.1,290,11,,,0.00,994.6,,TRUE,TRUE,,,,,,,,,,,,,,,,,,,,,,,,,,,METAR,159
CZFS 272200Z AUTO 14003KT M05/M06 RMK AO1 SOG 23 3025 SLP000 T10491061,CZFS,2025-01-27T22:00:00Z,61.76,-121.23,-4.9,-6.1,140,3,,,0.00,1000,,TRUE,TRUE,,,,,,,,,,,,,,,,,,,,,,,,,,,METAR,174
CZFN 272200Z 04003KT 330V060 15SM FEW009 SCT110 SCT210 M09/M12 A2954 RMK ST1AC3CI1 ST TR CI TR SLP015,CZFN,2025-01-27T22:00:00Z,64.908,-125.563,-9,-12,40,3,,15,29.54,1001.5,,,,,,,,,,FEW,900,SCT,11000,SCT,21000,,,VFR,,,,,,,,,,,,METAR,135
CZFM 272200Z 31006KT 15SM SCT015 M17/M20 A2951 RMK SC3 SLP000,CZFM,2025-01-27T22:00:00Z,67.41,-134.871,-17,-20,310,6,,15,29.51,1000,,,,,,,,,,SCT,1500,,,,,,,VFR,,,,,,,,,,,,METAR,33
CZFA 272200Z 26010G18KT 220V330 30SM BKN071 03/M10 A2973 RMK AC5 LAST STFD OBS/NXT 281400Z SLP113,CZFA,2025-01-27T22:00:00Z,62.211,-133.385,3,-10,260,10,18,30,29.73,1011.3,,,,,,,,,,BKN,7100,,,,,,,VFR,,,,,,,,,,,,METAR,702
CZEV 272200Z AUTO 33002KT M14/M15 RMK AO1 SOG 51 3012 SLP004 T11361153,CZEV,2025-01-27T22:00:00Z,68.313,-133.496,-13.6,-15.3,330,2,,,0.00,1000.4,,TRUE,TRUE,,,,,,,,,,,,,,,,,,,,,,,,,,,METAR,92
CZEL 272200Z AUTO 23022G31KT M04/M10 RMK AO1 SOG 14 6027 PK WND 23031/2152 SLP988 T10391095,CZEL,2025-01-27T22:00:00Z,43.642,-80.412,-3.9,-9.5,230,22,31,,0.00,998.8,,TRUE,TRUE,,,,,,,,,,,,,,,,,,,,,,,,,,,METAR,370
CZDB 272200Z AUTO 17012G17KT M02/M05 RMK AO1 SOG 09 6036 PK WND 17021/2116 SLP021 T10201052,CZDB,2025-01-27T22:00:00Z,45.422,-63.466,-2,-5.2,170,12,17,,0.00,1002.1,,TRUE,TRUE,,,,,,,,,,,,,,,,,,,,,,,,,,,METAR,38
CZCR 272200Z AUTO 20008G17KT M02/M11 RMK AO1 SOG 02 6035 PK WND 23019/2121 SLP912 T10201107,CZCR,2025-01-27T22:00:00Z,47.99,-66.334,-2,-10.7,200,8,17,,0.00,991.2,,TRUE,TRUE,,,,,,,,,,,,,,,,,,,,,,,,,,,METAR,39
CZBF 272200Z AUTO 19011G21KT 9SM BKN096 OVC110 M02/M11 A2931 RMK SLP930,CZBF,2025-01-27T22:00:00Z,47.628,-65.746,-2,-11,190,11,21,9,29.31,993,,TRUE,,,,,,,,BKN,9600,OVC,11000,,,,,VFR,,,,,,,,,,,,METAR,60
CYZX 272200Z 21012G18KT 15SM FEW045 SCT250 M01/M07 A2958 RMK SC2CI2 DENSITY ALT -1379FT SLP017,CYZX,2025-01-27T22:00:00Z,44.985,-64.912,-1,-7,210,12,18,15,29.58,1001.7,,,,,,,,,,FEW,4500,SCT,25000,,,,,VFR,,,,,,,,,,,,METAR,28
CYZW 272200Z 00000KT 30SM FEW030 SCT160 02/M07 A2993 RMK SC1AC3 SLP171,CYZW,2025-01-27T22:00:00Z,60.175,-132.734,2,-7,0,0,,30,29.93,1017.1,,,,,,,,,,FEW,3000,SCT,16000,,,,,VFR,,,,,,,,,,,,METAR,700
CYZV 272200Z 19020G32KT 4SM -SN BLSN OVC018 M04/M06 A2908 RMK BLSN6SC2 PRESFR SLP855,CYZV,2025-01-27T22:00:00Z,50.217,-66.26,-4,-6,190,20,32,4,29.08,985.5,,,,,,,,,-SN BLSN,OVC,1800,,,,,,,MVFR,,,,,,,,,,,,METAR,43
CYZU 272200Z 28007KT 15SM BKN240 06/M09 A2986 RMK CI7 SLP140,CYZU,2025-01-27T22:00:00Z,54.142,-115.785,6,-9,280,7,,15,29.86,1014,,,,,,,,,,BKN,24000,,,,,,,VFR,,,,,,,,,,,,METAR,785
CYZS 272200Z 34014KT 15SM BKN060 M24/M28 A2928 RMK SC6 SLP925,CYZS,2025-01-27T22:00:00Z,64.188,-83.351,-24,-28,340,14,,15,29.28,992.5,,,,,,,,,,BKN,6000,,,,,,,VFR,,,,,,,,,,,,METAR,60
CYZR 272200Z AUTO 22017G27KT 9SM OVC210 02/M10 A2954 RMK SLP012,CYZR,2025-01-27T22:00:00Z,42.995,-82.307,2,-10,220,17,27,9,29.54,1001.2,,TRUE,,,,,,,,OVC,21000,,,,,,,VFR,,,,,,,,,,,,METAR,181
CYZP 272200Z AUTO 14007KT 9SM SCT045 BKN100 04/03 A3044 RMK SLP309,CYZP,2025-01-27T22:00:00Z,53.254,-131.814,4,3,140,7,,9,30.44,1030.9,,TRUE,,,,,,,,SCT,4500,BKN,10000,,,,,VFR,,,,,,,,,,,,METAR,7
CYZH 272200Z AUTO 28019G26KT 9SM CLR 08/M08 A2974 RMK SLP091,CYZH,2025-01-27T22:00:00Z,55.293,-114.773,8,-8,280,19,26,9,29.74,1009.1,,TRUE,,,,,,,,CLR,,,,,,,,VFR,,,,,,,,,,,,METAR,583
CYZG 272200Z VRB02KT 3SM -SN OVC008 M23/M26 A2905 RMK ST8 LST STFD OBS/NXT 281300Z SLP870,CYZG,2025-01-27T22:00:00Z,62.181,-75.67,-23,-26,VRB,2,,3,29.05,987,,,,,,,,,-SN,OVC,800,,,,,,,IFR,,,,,,,,,,,,METAR,217
CYZF 272200Z 09012KT 15SM -SN BKN007 OVC019 M10/M11 A2937 RMK SC7SC1 PRESFR SLP965,CYZF,2025-01-27T22:00:00Z,62.475,-114.448,-10,-11,90,12,,15,29.37,996.5,,,,,,,,,-SN,BKN,700,OVC,1900,,,,,IFR,,,,,,,,,,,,METAR,202
CYYZ 272200Z 23018G29KT 15SM BKN140 BKN250 M01/M10 A2948 RMK AC7CI1 CI TR SLP994,CYYZ,2025-01-27T22:00:00Z,43.679,-79.629,-1,-10,230,18,29,15,29.48,999.4,,,,,,,,,,BKN,14000,BKN,25000,,,,,VFR,,,,,,,,,,,,METAR,171
CYYY 272200Z 20023G35KT 3/4SM R06/6000FT/N -SN BLSN OVC015 M03/M06 A2908 RMK BLSN5SC3 SLP852,CYYY,2025-01-27T22:00:00Z,48.609,-68.208,-3,-6,200,23,35,0.75,29.08,985.2,,,,,,,,,BLSN -SN,OVC,1500,,,,,,,LIFR,,,,,,,,,,,,METAR,43
CYYW 272200Z AUTO 32014G22KT 9SM SCT036 M15/M23 A2952 RMK SLP030,CYYW,2025-01-27T22:00:00Z,50.296,-88.912,-15,-23,320,14,22,9,29.52,1003,,TRUE,,,,,,,,SCT,3600,,,,,,,VFR,,,,,,,,,,,,METAR,320
CYYT 272200Z 26012KT 15SM FEW020 SCT042 M04/M06 A2968 RMK SC2SC1 SLP062,CYYT,2025-01-27T22:00:00Z,47.627,-52.748,-4,-6,260,12,,15,29.68,1006.2,,,,,,,,,,FEW,2000,SCT,4200,,,,,VFR,,,,,,,,,,,,METAR,128
CYYR 272200Z 03007KT 15SM FEW038 FEW090 BKN240 M16/M18 A2924 RMK SC1AC1CI4 DENSITY ALT -2886FT SLP906,CYYR,2025-01-27T22:00:00Z,53.32,-60.417,-16,-18,30,7,,15,29.24,990.6,,,,,,,,,,FEW,3800,FEW,9000,BKN,24000,,,VFR,,,,,,,,,,,,METAR,42
CYYQ 272200Z 32016G25KT 5SM IC BLSN BKN016 M25/M29 A2969 RMK SC6 SLP060,CYYQ,2025-01-27T22:00:00Z,58.745,-94.074,-25,-29,320,16,25,5,29.69,1006,,,,,,,,,IC BLSN,BKN,1600,,,,,,,MVFR,,,,,,,,,,,,METAR,20
CYYN 272200Z AUTO 27024G29KT 9SM CLR M01/M06 A2988 RMK SLP152,CYYN,2025-01-27T22:00:00Z,50.292,-107.691,-1,-6,270,24,29,9,29.88,1015.2,,TRUE,,,,,,,,CLR,,,,,,,,VFR,,,,,,,,,,,,METAR,814
CYYL 272200Z AUTO 34006KT 270V040 9SM BKN086 BKN140 M14/M19 A2971 RMK SLP099,CYYL,2025-01-27T22:00:00Z,56.863,-101.073,-14,-19,340,6,,9,29.71,1009.9,,TRUE,,,,,,,,BKN,8600,BKN,14000,,,,,VFR,,,,,,,,,,,,METAR,351
CYYJ 272200Z 07005KT 30SM FEW025 06/02 A3035 RMK SC1 SC TR SLP279,CYYJ,2025-01-27T22:00:00Z,48.642,-123.433,6,2,70,5,,30,30.35,1027.9,,,,,,,,,,FEW,2500,,,,,,,VFR,,,,,,,,,,,,METAR,16
CYYH 272200Z 20005KT 4SM -SG BR BKN014 OVC022 M32/M35 A2959 RMK FG2ST4SC2 SLP029,CYYH,2025-01-27T22:00:00Z,69.543,-93.568,-32,-35,200,5,,4,29.59,1002.9,,,,,,,,,-SG BR,BKN,1400,OVC,2200,,,,,MVFR,,,,,,,,,,,,METAR,19
CYYG 272200Z 17021G29KT 15SM DRSN BKN036 M03/M06 A2950 RMK SC6 SLP994,CYYG,2025-01-27T22:00:00Z,46.289,-63.128,-3,-6,170,21,29,15,29.50,999.4,,,,,,,,,DRSN,BKN,3600,,,,,,,VFR,,,,,,,,,,,,METAR,48
CYYF 272200Z 36007KT 15SM OVC021 M02/M06 A3047 RMK SC8 SLP343,CYYF,2025-01-27T22:00:00Z,49.46,-119.606,-2,-6,360,7,,15,30.47,1034.3,,,,,,,,,,OVC,2100,,,,,,,MVFR,,,,,,,,,,,,METAR,342
CYYE 272200Z 28012G24KT 30SM FEW080 BKN250 11/M06 A2971 RMK AC1CI4 SLP078,CYYE,2025-01-27T22:00:00Z,58.839,-122.59,11,-6,280,12,24,30,29.71,1007.8,,,,,,,,,,FEW,8000,BKN,25000,,,,,VFR,,,,,,,,,,,,METAR,379
CYYD 272200Z 19002KT 10SM SCT005 BKN090 M06/M07 A3030 RMK ST4AC2 SLP294,CYYD,2025-01-27T22:00:00Z,54.823,-127.185,-6,-7,190,2,,10+,30.30,1029.4,,,,,,,,,,SCT,500,BKN,9000,,,,,VFR,,,,,,,,,,,,METAR,527
CYYC 272200Z 25007KT 40SM BKN250 09/M09 A2997 RMK CI7 SLP185,CYYC,2025-01-27T22:00:00Z,51.116,-114.011,9,-9,250,7,,40,29.97,1018.5,,,,,,,,,,BKN,25000,,,,,,,VFR,,,,,,,,,,,,METAR,1085
CYYB 272200Z 23021G31KT 1/2SM R08/5000VP6000FT/D SN DRSN VV004 M02/M02 A2910 RMK SN8 SLP875,CYYB,2025-01-27T22:00:00Z,46.365,-79.423,-2,-2,230,21,31,0.5,29.10,987.5,,,,,,,,,DRSN SN,OVX,0,,,,,,,LIFR,,,,,,,,,,,400,METAR,360
CYXZ 272200Z 32008G21KT 280V020 10SM FEW025 FEW032 BKN081 M09/M15 A2931 RMK SF1SC1AC3 PCPN VISBL S QUAD PRESRR SLP943,CYXZ,2025-01-27T22:00:00Z,47.974,-84.781,-9,-15,320,8,21,10+,29.31,994.3,,,,,,,,,,FEW,2500,FEW,3200,BKN,8100,,,VFR,,,,,,,,,,,,METAR,287
CYXY 272200Z 21016G28KT 180V240 40SM FEW020 FEW140 03/M10 A2987 RMK SC1AC2 SC TR SLP152,CYXY,2025-01-27T22:00:00Z,60.71,-135.059,3,-10,210,16,28,40,29.87,1015.2,,,,,,,,,,FEW,2000,FEW,14000,,,,,VFR,,,,,,,,,,,,METAR,677
CYXX 272200Z 19003KT 170V260 30SM SKC 07/M02 A3033 RMK SLP277,CYXX,2025-01-27T22:00:00Z,49.027,-122.377,7,-2,190,3,,30,30.33,1027.7,,,,,,,,,,SKC,,,,,,,,VFR,,,,,,,,,,,,METAR,54
CYXU 272200Z 22018G30KT 15SM DRSN BKN170 M02/M10 A2955 RMK AS7 VIRGA SLP021,CYXU,2025-01-27T22:00:00Z,43.039,-81.162,-2,-10,220,18,30,15,29.55,1002.1,,,,,,,,,DRSN,BKN,17000,,,,,,,VFR,,,,,,,,,,,,METAR,278
CYXS 272200Z AUTO 17005KT 9SM CLR M06/M07 A3030 RMK SLP315,CYXS,2025-01-27T22:00:00Z,53.884,-122.677,-6,-7,170,5,,9,30.30,1031.5,,TRUE,,,,,,,,CLR,,,,,,,,VFR,,,,,,,,,,,,METAR,685
CYXQ 272200Z 24004KT 200V010 25SM BKN080 OVC250 02/M14 A2967 RMK AC6CI2 /LAST STFD OBS/NXT 281600Z/ SLP075,CYXQ,2025-01-27T22:00:00Z,62.408,-140.866,2,-14,240,4,,25,29.67,1007.5,,,,,,,,,,BKN,8000,OVC,25000,,,,,VFR,,,,,,,,,,,,METAR,663
CYXP 272200Z 00000KT 3SM -SN BKN038 OVC045 M14/M16 A2920 RMK SC6SC2 SLP893,CYXP,2025-01-27T22:00:00Z,66.144,-65.712,-14,-16,0,0,,3,29.20,989.3,,,,,,,,,-SN,BKN,3800,OVC,4500,,,,,MVFR,,,,,,,,,,,,METAR,29
CYXN 272200Z 33014KT 10SM DRSN SKC M34/M37 A2956 RMK SLP014,CYXN,2025-01-27T22:00:00Z,62.238,-92.597,-34,-37,330,14,,10+,29.56,1001.4,,,,,,,,,DRSN,SKC,,,,,,,,VFR,,,,,,,,,,,,METAR,9
CYXL 272200Z 36011G20KT 15SM DRSN FEW043 FEW200 M12/M19 A2960 RMK SC1CI1 CI TR SLP052,CYXL,2025-01-27T22:00:00Z,50.114,-91.905,-12,-19,360,11,20,15,29.60,1005.2,,,,,,,,,DRSN,FEW,4300,FEW,20000,,,,,VFR,,,,,,,,,,,,METAR,381
CYXJ 272200Z 24027G33KT 60SM SCT180 BKN240 06/M08 A2985 RMK AC4CI3 SLP137,CYXJ,2025-01-27T22:00:00Z,56.247,-120.737,6,-8,240,27,33,60,29.85,1013.7,,,,,,,,,,SCT,18000,BKN,24000,,,,,VFR,,,,,,,,,,,,METAR,700
CYXH 272200Z 23010G16KT 30SM BKN250 02/M04 A3001 RMK CI6 SLP192,CYXH,2025-01-27T22:00:00Z,50.018,-110.717,2,-4,230,10,16,30,30.01,1019.2,,,,,,,,,,BKN,25000,,,,,,,VFR,,,,,,,,,,,,METAR,717
CYXE 272200Z 20008KT 15SM SCT180 BKN240 M01/M05 A2980 RMK AC3CI3 SLP122,CYXE,2025-01-27T22:00:00Z,52.172,-106.695,-1,-5,200,8,,15,29.80,1012.2,,,,,,,,,,SCT,18000,BKN,24000,,,,,VFR,,,,,,,,,,,,METAR,504
CYXC 272200Z 35002KT 25SM FEW240 M07/M13 A3036 RMK CI1 SLP348,CYXC,2025-01-27T22:00:00Z,49.614,-115.784,-7,-13,350,2,,25,30.36,1034.8,,,,,,,,,,FEW,24000,,,,,,,VFR,,,,,,,,,,,,METAR,928
CYWL 272200Z 12004KT 15SM SCT200 M06/M07 A3030 RMK CI4 SLP323,CYWL,2025-01-27T22:00:00Z,52.186,-122.066,-6,-7,120,4,,15,30.30,1032.3,,,,,,,,,,SCT,20000,,,,,,,VFR,,,,,,,,,,,,METAR,942
CYWK 272200Z 18015G25KT 2SM -SN DRSN OVC032 M12/M15 A2872 RMK SC8 SLP778,CYWK,2025-01-27T22:00:00Z,52.927,-66.874,-12,-15,180,15,25,2,28.72,977.8,,,,,,,,,-SN DRSN,OVC,3200,,,,,,,IFR,,,,,,,,,,,,METAR,547
CYWJ 272200Z 27005KT 40SM FEW020 SCT100 BKN220 M12/M14 A2951 RMK SC2AC2CI2 SLP017,CYWJ,2025-01-27T22:00:00Z,65.209,-123.434,-12,-14,270,5,,40,29.51,1001.7,,,,,,,,,,FEW,2000,SCT,10000,BKN,22000,,,VFR,,,,,,,,,,,,METAR,208
CYWH 272200Z 03003KT 360V080 15SM SKC 07/02 A3035 RMK SLP279,CYWH,2025-01-27T22:00:00Z,48.423,-123.387,7,2,30,3,,15,30.35,1027.9,,,,,,,,,,SKC,,,,,,,,VFR,,,,,,,,,,,,METAR,4
CYWG 272200Z 04011KT 15SM FEW012 BKN035 M06/M12 A2979 RMK SF1SC7 SF TR SLP105,CYWG,2025-01-27T22:00:00Z,49.916,-97.249,-6,-12,40,11,,15,29.79,1010.5,,,,,,,,,,FEW,1200,BKN,3500,,,,,VFR,,,,,,,,,,,,METAR,238
CYWE 272200Z AUTO 07010G18KT 3/4SM -SN VV013 M18/M20 A2948 RMK SLP027,CYWE,2025-01-27T22:00:00Z,64.192,-114.078,-18,-20,70,10,18,0.75,29.48,1002.7,,TRUE,,,,,,,-SN,OVX,0,,,,,,,LIFR,,,,,,,,,,,1300,METAR,374
CYVV 272200Z 23022G36KT 15SM DRSN OVC040 00/M05 A2930 RMK SC8 OCNL BLSN SLP931,CYVV,2025-01-27T22:00:00Z,44.745,-81.107,0,-5,230,22,36,15,29.30,993.1,,,,,,,,,DRSN,OVC,4000,,,,,,,VFR,,,,,,,,,,,,METAR,221
CYVT 272200Z AUTO 21005KT 9SM FEW200 01/M05 A2958 RMK SLP039,CYVT,2025-01-27T22:00:00Z,55.842,-108.418,1,-5,210,5,,9,29.58,1003.9,,TRUE,,,,,,,,FEW,20000,,,,,,,VFR,,,,,,,,,,,,METAR,438
CYVR 272200Z 30006KT 30SM FEW059 06/03 A3035 RMK CU1 CU TR SLP281,CYVR,2025-01-27T22:00:00Z,49.183,-123.168,6,3,300,6,,30,30.35,1028.1,,,,,,,,,,FEW,5900,,,,,,,VFR,,,,,,,,,,,,METAR,2
CYVQ 272200Z 13006KT 30SM FEW010 BKN050 BKN099 M08/M10 A2955 RMK ST2SC3AC2 PRESRR SLP017,CYVQ,2025-01-27T22:00:00Z,65.278,-126.796,-8,-10,130,6,,30,29.55,1001.7,,,,,,,,,,FEW,1000,BKN,5000,BKN,9900,,,VFR,,,,,,,,,,,,METAR,63
CYVP 272200Z 10010KT 4SM -SN VV018 M22/M26 A2897 RMK SN8 SLP819,CYVP,2025-01-27T22:00:00Z,58.1,-68.415,-22,-26,100,10,,4,28.97,981.9,,,,,,,,,-SN,OVX,0,,,,,,,MVFR,,,,,,,,,,,1800,METAR,28
CYUY 272200Z 33014G21KT 3SM -SN VV018 M09/M12 A2906 RMK SN8 PRESRR SLP862,CYUY,2025-01-27T22:00:00Z,48.209,-78.83,-9,-12,330,14,21,3,29.06,986.2,,,,,,,,,-SN,OVX,0,,,,,,,MVFR,,,,,,,,,,,1800,METAR,304
CYUT 272200Z 35019G24KT 5SM BLSN BKN040 M31/M35 A2943 RMK SC6 SLP971,CYUT,2025-01-27T22:00:00Z,66.525,-86.23,-31,-35,350,19,24,5,29.43,997.1,,,,,,,,,BLSN,BKN,4000,,,,,,,MVFR,,,,,,,,,,,,METAR,22
CYUL 272200Z 24029G40KT 15SM -SN DRSN OVC085 01/M09 A2929 RMK AC8 SLP923,CYUL,2025-01-27T22:00:00Z,45.468,-73.742,1,-9,240,29,40,15,29.29,992.3,,,,,,,,,-SN DRSN,OVC,8500,,,,,,,VFR,,,,,,,,,,,,METAR,31
CYUB 272200Z 10014G22KT 1 1/2SM -SN DRSN OVC024 M18/M21 A2957 RMK BLSN2SC6 SLP017,CYUB,2025-01-27T22:00:00Z,69.434,-133.026,-18,-21,100,14,22,1.5,29.57,1001.7,,,,,,,,,-SN DRSN,OVC,2400,,,,,,,IFR,,,,,,,,,,,,METAR,5
CYTZ 272200Z AUTO 23031G40KT 9SM SCT170 M00/M07 A2949 RMK SLP992,CYTZ,2025-01-27T22:00:00Z,43.627,-79.397,0,-7,230,31,40,9,29.49,999.2,,TRUE,,,,,,,,SCT,17000,,,,,,,VFR,,,,,,,,,,,,METAR,76
CYTR 272200Z 23029G41KT 15SM FEW028 BKN110 00/M07 A2940 RMK CF1AC7 DENSITY ALT -815FT SLP961,CYTR,2025-01-27T22:00:00Z,44.115,-77.531,0,-7,230,29,41,15,29.40,996.1,,,,,,,,,,FEW,2800,BKN,11000,,,,,VFR,,,,,,,,,,,,METAR,80
CYTQ 272200Z 06008KT 12SM BKN030 M24/M28 A2899 RMK SC6 LAST OBS NEXT/281300 UTC SLP824,CYTQ,2025-01-27T22:00:00Z,58.671,-69.948,-24,-28,60,8,,12,28.99,982.4,,,,,,,,,,BKN,3000,,,,,,,MVFR,,,,,,,,,,,,METAR,14
CYTH 272200Z 32005KT 15SM DRSN FEW028 SCT250 M17/M23 A2976 RMK SC1CI3 SC TR SLP104,CYTH,2025-01-27T22:00:00Z,55.803,-97.846,-17,-23,320,5,,15,29.76,1010.4,,,,,,,,,DRSN,FEW,2800,SCT,25000,,,,,VFR,,,,,,,,,,,,METAR,212
CYTE 272200Z 02006KT 15SM SCT027 BKN038 M21/M24 A2916 RMK SC4SC2 LAST STFD OB/NXT 281400Z SLP882,CYTE,2025-01-27T22:00:00Z,64.23,-76.528,-21,-24,20,6,,15,29.16,988.2,,,,,,,,,,SCT,2700,BKN,3800,,,,,VFR,,,,,,,,,,,,METAR,49
CYSP 272200Z 35016G22KT 15SM SCT036 BKN048 M13/M21 A2940 RMK SC3SC2 LAST STFD OBS/NEXT 281300UTC SLP977,CYSP,2025-01-27T22:00:00Z,48.759,-86.351,-13,-21,350,16,22,15,29.40,997.7,,,,,,,,,,SCT,3600,BKN,4800,,,,,VFR,,,,,,,,,,,,METAR,312
CYSN 272200Z 23038G46KT 15SM DRSN BKN150 BKN250 M00/M11 A2954 RMK AC5CI2 SLP008,CYSN,2025-01-27T22:00:00Z,43.192,-79.176,0,-11,230,38,46,15,29.54,1000.8,,,,,,,,,DRSN,BKN,15000,BKN,25000,,,,,VFR,,,,,,,,,,,,METAR,96
CYSJ 272200Z 22018G28KT 15SM DRSN BKN030 BKN150 M01/M05 A2951 RMK SC5AC1 SLP000,CYSJ,2025-01-27T22:00:00Z,45.309,-65.886,-1,-5,220,18,28,15,29.51,1000,,,,,,,,,DRSN,BKN,3000,BKN,15000,,,,,MVFR,,,,,,,,,,,,METAR,89
CYSF 272200Z AUTO 10006KT 1SM -SN VV018 M13/M14 A2959 RMK SLP046,CYSF,2025-01-27T22:00:00Z,59.252,-105.837,-13,-14,100,6,,1,29.59,1004.6,,TRUE,,,,,,,-SN,OVX,0,,,,,,,IFR,,,,,,,,,,,1800,METAR,238
CYSC 272200Z AUTO 21015G29KT 180V250 9SM FEW250 01/M11 A2930 RMK SLP934,CYSC,2025-01-27T22:00:00Z,45.44,-71.692,1,-11,210,15,29,9,29.30,993.4,,TRUE,,,,,,,,FEW,25000,,,,,,,VFR,,,,,,,,,,,,METAR,236
CYRV 272200Z AUTO 17008KT 9SM CLR M04/M07 A3047 RMK SLP351,CYRV,2025-01-27T22:00:00Z,50.958,-118.176,-4,-7,170,8,,9,30.47,1035.1,,TRUE,,,,,,,,CLR,,,,,,,,VFR,,,,,,,,,,,,METAR,456
CYRT 272200Z 35011G17KT 3SM IC BLSN SKC M34/M38 A2952 RMK BLSN2 VIS VRB 2-4 SLP004,CYRT,2025-01-27T22:00:00Z,62.811,-92.1,-34,-38,350,11,17,3,29.52,1000.4,,,,,,,,,IC BLSN,SKC,,,,,,,,MVFR,,,,,,,,,,,,METAR,29
CYRL 272200Z 34011G19KT 15SM FEW038 FEW240 M11/M20 A2965 RMK SC1CI1 SC TR CI TR SLP069,CYRL,2025-01-27T22:00:00Z,51.067,-93.799,-11,-20,340,11,19,15,29.65,1006.9,,,,,,,,,,FEW,3800,FEW,24000,,,,,VFR,,,,,,,,,,,,METAR,370
CYRJ 272200Z 21016G26KT 2SM -SN DRSN OVC030 M03/M05 A2889 RMK NS8 SLP795,CYRJ,2025-01-27T22:00:00Z,48.523,-72.266,-3,-5,210,16,26,2,28.89,979.5,,,,,,,,,-SN DRSN,OVC,3000,,,,,,,IFR,,,,,,,,,,,,METAR,173
CYRB 272200Z 04014KT 20SM IC SKC M23/M26 A2963 RMK SLP048,CYRB,2025-01-27T22:00:00Z,74.713,-94.982,-23,-26,40,14,,20,29.63,1004.8,,,,,,,,,IC,SKC,,,,,,,,VFR,,,,,,,,,,,,METAR,59
CYRA 272200Z 10007KT 3/8SM SHSN VV013 M11/M13 A2944 RMK SN8 SLP994,CYRA,2025-01-27T22:00:00Z,64.115,-117.313,-11,-13,100,7,,0.38,29.44,999.4,,,,,,,,,SHSN,OVX,0,,,,,,,LIFR,,,,,,,,,,,1300,METAR,232
CYQZ 272200Z AUTO 35004KT 8SM CLR M05/M08 A3036 RMK SLP325,CYQZ,2025-01-27T22:00:00Z,53.027,-122.506,-5,-8,350,4,,8,30.36,1032.5,,TRUE,,,,,,,,CLR,,,,,,,,VFR,,,,,,,,,,,,METAR,548
CYQY 272200Z 15008KT 15SM SCT038 BKN068 M05/M13 A2971 RMK SC3AC3 SLP066,CYQY,2025-01-27T22:00:00Z,46.166,-60.049,-5,-13,150,8,,15,29.71,1006.6,,,,,,,,,,SCT,3800,BKN,6800,,,,,VFR,,,,,,,,,,,,METAR,58
CYQX 272200Z 23009KT 15SM BKN037 M05/M08 A2961 RMK SC5 SLP038,CYQX,2025-01-27T22:00:00Z,48.946,-54.576,-5,-8,230,9,,15,29.61,1003.8,,,,,,,,,,BKN,3700,,,,,,,VFR,,,,,,,,,,,,METAR,144
CYQW 272200Z AUTO 27009KT 9SM CLR 00/M06 A2982 RMK SLP126,CYQW,2025-01-27T22:00:00Z,52.769,-108.251,0,-6,270,9,,9,29.82,1012.6,,TRUE,,,,,,,,CLR,,,,,,,,VFR,,,,,,,,,,,,METAR,545
CYQV 272200Z AUTO 27009KT 9SM BKN076 OVC220 00/M02 A2977 RMK SLP110,CYQV,2025-01-27T22:00:00Z,51.26,-102.461,0,-2,270,9,,9,29.77,1011,,TRUE,,,,,,,,BKN,7600,OVC,22000,,,,,VFR,,,,,,,,,,,,METAR,493
CYQU 272200Z 25017G23KT 25SM SCT120 BKN210 OVC250 07/M06 A2988 RMK AC4CI2CI2 SLP146,CYQU,2025-01-27T22:00:00Z,55.182,-118.882,7,-6,250,17,23,25,29.88,1014.6,,,,,,,,,,SCT,12000,BKN,21000,OVC,25000,,,VFR,,,,,,,,,,,,METAR,668
CYQT 272200Z 33017G29KT 20SM DRSN FEW060 M06/M19 A2950 RMK SC1 SLP003,CYQT,2025-01-27T22:00:00Z,48.374,-89.33,-6,-19,330,17,29,20,29.50,1000.3,,,,,,,,,DRSN,FEW,6000,,,,,,,VFR,,,,,,,,,,,,METAR,197
CYQR 272200Z 26008KT 15SM SCT270 M03/M05 A2986 RMK CI3 SLP147,CYQR,2025-01-27T22:00:00Z,50.427,-104.67,-3,-5,260,8,,15,29.86,1014.7,,,,,,,,,,SCT,27000,,,,,,,VFR,,,,,,,,,,,,METAR,576
CYQQ 272200Z 36006KT 20SM FEW250 06/M00 A3036 RMK CI1 DENSITY ALT -1477FT SLP283,CYQQ,2025-01-27T22:00:00Z,49.712,-124.895,6,0,360,6,,20,30.36,1028.3,,,,,,,,,,FEW,25000,,,,,,,VFR,,,,,,,,,,,,METAR,24
CYQM 272200Z 21014G22KT 15SM FEW015 SCT030 BKN220 M02/M06 A2946 RMK SC1SC3CI1 SLP983,CYQM,2025-01-27T22:00:00Z,46.107,-64.682,-2,-6,210,14,22,15,29.46,998.3,,,,,,,,,,FEW,1500,SCT,3000,BKN,22000,,,VFR,,,,,,,,,,,,METAR,67
CYQL 272200Z 24017KT 60SM SCT250 09/M09 A3001 RMK CI3 SLP193,CYQL,2025-01-27T22:00:00Z,49.627,-112.792,9,-9,240,17,,60,30.01,1019.3,,,,,,,,,,SCT,25000,,,,,,,VFR,,,,,,,,,,,,METAR,923
CYQK 272200Z CCA 34009G21KT 20SM DRSN FEW040 M08/M20 A2967 RMK SC1 SLP075,CYQK,2025-01-27T22:00:00Z,49.791,-94.361,-8,-20,340,9,21,20,29.67,1007.5,,,,,,,,,DRSN,FEW,4000,,,,,,,VFR,,,,,,,,,,,,METAR,413
CYQI 272200Z 24026G33KT 15SM BKN034 01/M06 A2966 RMK SC7 SLP047,CYQI,2025-01-27T22:00:00Z,43.831,-66.088,1,-6,240,26,33,15,29.66,1004.7,,,,,,,,,,BKN,3400,,,,,,,VFR,,,,,,,,,,,,METAR,37
CYQH 272200Z 28012G21KT 30SM FEW120 OVC230 03/M05 A2986 RMK AC1CI7 SLP154,CYQH,2025-01-27T22:00:00Z,60.116,-128.832,3,-5,280,12,21,30,29.86,1015.4,,,,,,,,,,FEW,12000,OVC,23000,,,,,VFR,,,,,,,,,,,,METAR,692
CYQG 272200Z AUTO 23026G37KT 9SM CLR 02/M09 A2961 RMK SLP036,CYQG,2025-01-27T22:00:00Z,42.269,-82.963,2,-9,230,26,37,9,29.61,1003.6,,TRUE,,,,,,,,CLR,,,,,,,,VFR,,,,,,,,,,,,METAR,189
CYQF 272200Z AUTO 23008KT 9SM FEW220 05/M06 A2993 RMK SLP175,CYQF,2025-01-27T22:00:00Z,52.179,-113.903,5,-6,230,8,,9,29.93,1017.5,,TRUE,,,,,,,,FEW,22000,,,,,,,VFR,,,,,,,,,,,,METAR,912
CYQD 272200Z AUTO 14004KT 9SM OVC035 M10/M17 A2979 RMK SLP107,CYQD,2025-01-27T22:00:00Z,53.975,-101.089,-10,-17,140,4,,9,29.79,1010.7,,TRUE,,,,,,,,OVC,3500,,,,,,,VFR,,,,,,,,,,,,METAR,268
CYQB 272200Z 24024G35KT 5SM -SN BLSN OVC027 M00/M05 A2917 RMK SC8 SLP886,CYQB,2025-01-27T22:00:00Z,46.791,-71.396,0,-5,240,24,35,5,29.17,988.6,,,,,,,,,-SN BLSN,OVC,2700,,,,,,,MVFR,,,,,,,,,,,,METAR,73
CYPX 272200Z AUTO 03012KT 9SM CLR M32/M35 A2911 RMK SLP862,CYPX,2025-01-27T22:00:00Z,60.045,-77.281,-32,-35,30,12,,9,29.11,986.2,,TRUE,,,,,,,,CLR,,,,,,,,VFR,,,,,,,,,,,,METAR,10
CYPW 272200Z 27005KT 30SM FEW250 04/01 A3035 RMK CI1 CI TR SLP287,CYPW,2025-01-27T22:00:00Z,49.835,-124.499,4,1,270,5,,30,30.35,1028.7,,,,,,,,,,FEW,25000,,,,,,,VFR,,,,,,,,,,,,METAR,122
CYPG 272200Z 34012KT 15SM FEW011 SCT022 OVC041 M04/M06 A2981 RMK SF1SC3SC5 DENSITY ALT -1101FT SLP109,CYPG,2025-01-27T22:00:00Z,49.903,-98.284,-4,-6,340,12,,15,29.81,1010.9,,,,,,,,,,FEW,1100,SCT,2200,OVC,4100,,,VFR,,,,,,,,,,,,METAR,270
CYPE 272200Z AUTO 23010G18KT 9SM SCT170 05/M05 A2972 RMK SLP089,CYPE,2025-01-27T22:00:00Z,56.228,-117.453,5,-5,230,10,18,9,29.72,1008.9,,TRUE,,,,,,,,SCT,17000,,,,,,,VFR,,,,,,,,,,,,METAR,572
CYPD 272200Z AUTO 16009G16KT 9SM CLR M04/M07 A2965 RMK SLP050,CYPD,2025-01-27T22:00:00Z,45.657,-61.374,-4,-7,160,9,16,9,29.65,1005,,TRUE,,,,,,,,CLR,,,,,,,,VFR,,,,,,,,,,,,METAR,106
CYPC 272200Z 09004KT 10SM -SN OVC032 M17/M23 A2971 RMK SC8 SLP065,CYPC,2025-01-27T22:00:00Z,69.355,-124.077,-17,-23,90,4,,10+,29.71,1006.5,,,,,,,,,-SN,OVC,3200,,,,,,,VFR,,,,,,,,,,,,METAR,5
CYPA 272200Z 25008KT 15SM FEW040 FEW080 BKN270 02/M04 A2971 RMK SC1AC1CI6 SC TR SLP087,CYPA,2025-01-27T22:00:00Z,53.217,-105.679,2,-4,250,8,,15,29.71,1008.7,,,,,,,,,,FEW,4000,FEW,8000,BKN,27000,,,VFR,,,,,,,,,,,,METAR,428
CYOW 272200Z 22029G40KT 15SM DRSN SCT030 OVC100 M00/M08 A2926 RMK SC4AC4 SLP917,CYOW,2025-01-27T22:00:00Z,45.307,-75.66,0,-8,220,29,40,15,29.26,991.7,,,,,,,,,DRSN,SCT,3000,OVC,10000,,,,,VFR,,,,,,,,,,,,METAR,111
CYOO 272200Z AUTO 23023G39KT 9SM FEW130 OVC180 M01/M08 A2944 RMK SLP978,CYOO,2025-01-27T22:00:00Z,43.921,-78.899,-1,-8,230,23,39,9,29.44,997.8,,TRUE,,,,,,,,FEW,13000,OVC,18000,,,,,VFR,,,,,,,,,,,,METAR,136
CYOJ 272200Z 30014G25KT 280V340 15SM FEW170 BKN260 10/M06 A2957 RMK AC2CI4 SLP027,CYOJ,2025-01-27T22:00:00Z,58.628,-117.174,10,-6,300,14,25,15,29.57,1002.7,,,,,,,,,,FEW,17000,BKN,26000,,,,,VFR,,,,,,,,,,,,METAR,339
CYOD 272200Z 24008KT 15SM OVC240 02/M06 A2971 RMK CI8 DENSITY ALT 872FT SLP088,CYOD,2025-01-27T22:00:00Z,54.41,-110.287,2,-6,240,8,,15,29.71,1008.8,,,,,,,,,,OVC,24000,,,,,,,VFR,,,,,,,,,,,,METAR,540
CYNE 272200Z AUTO 34005KT 9SM CLR M12/M18 A2977 RMK SLP102,CYNE,2025-01-27T22:00:00Z,53.958,-97.845,-12,-18,340,5,,9,29.77,1010.2,,TRUE,,,,,,,,CLR,,,,,,,,VFR,,,,,,,,,,,,METAR,220
CYND 272200Z 23021G34KT 15SM DRSN FEW060 OVC110 01/M07 A2925 RMK SC2AC6 SLP910,CYND,2025-01-27T22:00:00Z,45.52,-75.563,1,-7,230,21,34,15,29.25,991,,,,,,,,,DRSN,FEW,6000,OVC,11000,,,,,VFR,,,,,,,,,,,,METAR,57
CYMX 272200Z CCA 23017G32KT 25SM -SN DRSN OVC070 00/M09 A2924 RMK AC8 SLP907,CYMX,2025-01-27T22:00:00Z,45.68,-74.038,0,-9,230,17,32,25,29.24,990.7,,,,,,,,,DRSN -SN,OVC,7000,,,,,,,VFR,,,,,,,,,,,,METAR,78
CYMM 272200Z AUTO 24021G27KT 9SM OVC220 04/M06 A2954 RMK SLP022,CYMM,2025-01-27T22:00:00Z,56.65,-111.221,4,-6,240,21,27,9,29.54,1002.2,,TRUE,,,,,,,,OVC,22000,,,,,,,VFR,,,,,,,,,,,,METAR,371
CYMJ 272200Z 25012KT 15SM BKN250 M00/M04 A2988 RMK CI5 DENSITY ALT 487FT SLP147,CYMJ,2025-01-27T22:00:00Z,50.33,-105.559,0,-4,250,12,,15,29.88,1014.7,,,,,,,,,,BKN,25000,,,,,,,VFR,,,,,,,,,,,,METAR,578
CYMH 272200Z AUTO 20008KT 9SM CLR M11/M12 A2945 RMK SLP975,CYMH,2025-01-27T22:00:00Z,52.304,-55.833,-11,-12,200,8,,9,29.45,997.5,,TRUE,,,,,,,,CLR,,,,,,,,VFR,,,,,,,,,,,,METAR,18
CYMA 272200Z VRB02KT 20SM FEW060 SCT084 BKN120 M04/M06 A2963 RMK SC2AC2AC1 SLP072,CYMA,2025-01-27T22:00:00Z,63.616,-135.88,-4,-6,VRB,2,,20,29.63,1007.2,,,,,,,,,,FEW,6000,SCT,8400,BKN,12000,,,VFR,,,,,,,,,,,,METAR,519
CYLW 272200Z AUTO 33005KT 9SM OVC016 M03/M06 A3046 RMK SLP347,CYLW,2025-01-27T22:00:00Z,49.953,-119.375,-3,-6,330,5,,9,30.46,1034.7,,TRUE,,,,,,,,OVC,1600,,,,,,,MVFR,,,,,,,,,,,,METAR,420
CYLL 272200Z 27013G19KT 15SM BKN170 01/M05 A2978 RMK AC7 SLP120,CYLL,2025-01-27T22:00:00Z,53.312,-110.074,1,-5,270,13,19,15,29.78,1012,,,,,,,,,,BKN,17000,,,,,,,VFR,,,,,,,,,,,,METAR,664
CYLJ 272200Z 25011KT 15SM FEW180 BKN210 01/M05 A2969 RMK AC1CI6 SLP080,CYLJ,2025-01-27T22:00:00Z,54.126,-108.519,1,-5,250,11,,15,29.69,1008,,,,,,,,,,FEW,18000,BKN,21000,,,,,VFR,,,,,,,,,,,,METAR,481
CYLD 272200Z 34011G21KT 280V020 8SM -SN OVC012 M10/M13 A2920 RMK SC8 PRESRR SLP920,CYLD,2025-01-27T22:00:00Z,47.818,-83.358,-10,-13,340,11,21,8,29.20,992,,,,,,,,,-SN,OVC,1200,,,,,,,MVFR,,,,,,,,,,,,METAR,449
CYLA 272200Z 08014KT 12SM -SN BKN018 M19/M23 A2901 RMK SC7 LAST STFD OBS/ NXT 281300Z SLP832,CYLA,2025-01-27T22:00:00Z,59.302,-69.598,-19,-23,80,14,,12,29.01,983.2,,,,,,,,,-SN,BKN,1800,,,,,,,MVFR,,,,,,,,,,,,METAR,35
CYKY 272200Z 27017KT 15SM FEW060 FEW070 FEW110 SCT210 SCT240 M01/M05 A2988 RMK SC1AC1AC1CI2CI1 SC TR CI TR SLP152,CYKY,2025-01-27T22:00:00Z,51.517,-109.175,-1,-5,270,17,,15,29.88,1015.2,,,,,,,,,,FEW,6000,FEW,7000,FEW,11000,SCT,21000,VFR,,,,,,,,,,,,METAR,692
CYKP 272200Z AUTO 31014G24KT 9SM SCT031 M18/M22 A2943 RMK SLP986,CYKP,2025-01-27T22:00:00Z,51.659,-85.901,-18,-22,310,14,24,9,29.43,998.6,,TRUE,,,,,,,,SCT,3100,,,,,,,VFR,,,,,,,,,,,,METAR,181
CYKO 272200Z 10002KT 15SM FEW010 FEW230 M30/M33 A2917 RMK ST1CI1 ST TR CI TR LST STFD OBS / NXT 28 1300Z SLP882,CYKO,2025-01-27T22:00:00Z,60.818,-78.154,-30,-33,100,2,,15,29.17,988.2,,,,,,,,,,FEW,1000,FEW,23000,,,,,VFR,,,,,,,,,,,,METAR,23
CYKL 272200Z AUTO 15010G15KT 6SM -SN OVC035 M19/M21 A2871 RMK SLP781,CYKL,2025-01-27T22:00:00Z,54.803,-66.804,-19,-21,150,10,15,6,28.71,978.1,,TRUE,,,,,,,-SN,OVC,3500,,,,,,,VFR,,,,,,,,,,,,METAR,507
CYKJ 272200Z AUTO 16007KT 1 1/2SM -SN OVC016 M10/M11 A2955 RMK SLP046,CYKJ,2025-01-27T22:00:00Z,57.256,-105.618,-10,-11,160,7,,1.5,29.55,1004.6,,TRUE,,,,,,,-SN,OVC,1600,,,,,,,IFR,,,,,,,,,,,,METAR,519
CYKG 272200Z 00000KT 15SM BKN018 M22/M25 A2905 RMK SC7 LAST STFD OBS / NEXT 281300 UTC SLP860,CYKG,2025-01-27T22:00:00Z,61.591,-71.932,-22,-25,0,0,,15,29.05,986,,,,,,,,,,BKN,1800,,,,,,,MVFR,,,,,,,,,,,,METAR,134
CYKF 272200Z AUTO 22021G36KT 9SM BKN150 OVC170 M03/M10 A2948 RMK SLP998,CYKF,2025-01-27T22:00:00Z,43.462,-80.386,-3,-10,220,21,36,9,29.48,999.8,,TRUE,,,,,,,,BKN,15000,OVC,17000,,,,,VFR,,,,,,,,,,,,METAR,312
CYKA 272200Z 08004KT 20SM OVC021 M03/M07 A3049 RMK SC8 SLP353,CYKA,2025-01-27T22:00:00Z,50.704,-120.444,-3,-7,80,4,,20,30.49,1035.3,,,,,,,,,,OVC,2100,,,,,,,MVFR,,,,,,,,,,,,METAR,344
CYJT 272200Z 20021KT 15SM DRSN BKN032 M04/M08 A2962 RMK SC7 SLP034,CYJT,2025-01-27T22:00:00Z,48.545,-58.564,-4,-8,200,21,,15,29.62,1003.4,,,,,,,,,DRSN,BKN,3200,,,,,,,VFR,,,,,,,,,,,,METAR,7
CYJF 272200Z 27007G20KT 180V350 15SM FEW075 SCT170 BKN210 09/M05 A2971 RMK CU2AC1CS3 SLP068,CYJF,2025-01-27T22:00:00Z,60.236,-123.47,9,-5,270,7,20,15,29.71,1006.8,,,,,,,,,,FEW,7500,SCT,17000,BKN,21000,,,VFR,,,,,,,,,,,,METAR,215
CYIV 272200Z AUTO 32009G22KT 9SM CLR M16/M22 A2971 RMK SLP088,CYIV,2025-01-27T22:00:00Z,53.857,-94.655,-16,-22,320,9,22,9,29.71,1008.8,,TRUE,,,,,,,,CLR,,,,,,,,VFR,,,,,,,,,,,,METAR,234
CYIO 272200Z 16004KT 15SM FEW036 FEW046 BKN095 M30/M33 A2955 RMK SC1SC1AC3 SLP019,CYIO,2025-01-27T22:00:00Z,72.694,-77.957,-30,-33,160,4,,15,29.55,1001.9,,,,,,,,,,FEW,3600,FEW,4600,BKN,9500,,,VFR,,,,,,,,,,,,METAR,61
CYIN 272200Z AUTO 06006KT 9SM CLR M05/M09 A3028 RMK SLP330,CYIN,2025-01-27T22:00:00Z,51.265,-121.681,-5,-9,60,6,,9,30.28,1033,,TRUE,,,,,,,,CLR,,,,,,,,VFR,,,,,,,,,,,,METAR,1127
CYIK 272200Z 34008KT 3SM -SN BKN036 BKN077 M18/M21 A2915 RMK SC6AC1 AC TR LST STFD OB/NXT 1300Z SLP878,CYIK,2025-01-27T22:00:00Z,62.417,-77.925,-18,-21,340,8,,3,29.15,987.8,,,,,,,,,-SN,BKN,3600,BKN,7700,,,,,MVFR,,,,,,,,,,,,METAR,44
CYHZ 272200Z 21011G19KT 15SM FEW051 FEW250 M01/M08 A2961 RMK SC1CI1 SC TR CI TR SLP035,CYHZ,2025-01-27T22:00:00Z,44.8781,-63.5136,-1,-8,210,11,19,15,29.61,1003.5,,,,,,,,,,FEW,5100,FEW,25000,,,,,VFR,,,,,,,,,,,,METAR,136
CYHU 272200Z AUTO 22021G35KT 9SM OVC091 02/M09 A2928 RMK SLP920,CYHU,2025-01-27T22:00:00Z,45.516,-73.415,2,-9,220,21,35,9,29.28,992,,TRUE,,,,,,,,OVC,9100,,,,,,,VFR,,,,,,,,,,,,METAR,26
CYHM 272200Z 22029G43KT 15SM FEW150 BKN170 BKN230 M02/M10 A2950 RMK AC2AC4CI1 SLP002,CYHM,2025-01-27T22:00:00Z,43.173,-79.936,-2,-10,220,29,43,15,29.50,1000.2,,,,,,,,,,FEW,15000,BKN,17000,BKN,23000,,,VFR,,,,,,,,,,,,METAR,237
CYHK 272200Z 33010KT 15SM FEW100 FEW200 M37/M41 A2960 RMK AC1CI1 AC TR CI TR SLP037,CYHK,2025-01-27T22:00:00Z,68.633,-95.851,-37,-41,330,10,,15,29.60,1003.7,,,,,,,,,,FEW,10000,FEW,20000,,,,,VFR,,,,,,,,,,,,METAR,36
CYHE 272200Z AUTO 13013G18KT 9SM CLR 05/M05 A3035 RMK SLP280,CYHE,2025-01-27T22:00:00Z,49.37,-121.493,5,-5,130,13,18,9,30.35,1028,,TRUE,,,,,,,,CLR,,,,,,,,VFR,,,,,,,,,,,,METAR,43
CYHD 272200Z AUTO 31012G21KT 9SM FEW240 M09/M21 A2960 RMK SLP053,CYHD,2025-01-27T22:00:00Z,49.83,-92.74,-9,-21,310,12,21,9,29.60,1005.3,,TRUE,,,,,,,,FEW,24000,,,,,,,VFR,,,,,,,,,,,,METAR,414
CYGX 272200Z 28006KT 15SM SKC M21/M25 A2970 RMK SLP078,CYGX,2025-01-27T22:00:00Z,56.359,-94.704,-21,-25,280,6,,15,29.70,1007.8,,,,,,,,,,SKC,,,,,,,,VFR,,,,,,,,,,,,METAR,145
CYGV 272200Z AUTO 18017G27KT 9SM -SN OVC060 M05/M08 A2924 RMK SLP907,CYGV,2025-01-27T22:00:00Z,50.286,-63.606,-5,-8,180,17,27,9,29.24,990.7,,TRUE,,,,,,,-SN,OVC,6000,,,,,,,VFR,,,,,,,,,,,,METAR,32
CYGR 272200Z 19016G23KT 15SM SCT050 BKN230 M03/M09 A2951 RMK SC4CI1 PRESFR SLP997,CYGR,2025-01-27T22:00:00Z,47.425,-61.775,-3,-9,190,16,23,15,29.51,999.7,,,,,,,,,,SCT,5000,BKN,23000,,,,,VFR,,,,,,,,,,,,METAR,4
CYGP 272200Z 20016G30KT 160V220 15SM FEW040 BKN070 OVC220 M03/M11 A2928 RMK SC2AS4CC2 SLP919,CYGP,2025-01-27T22:00:00Z,48.777,-64.478,-3,-11,200,16,30,15,29.28,991.9,,,,,,,,,,FEW,4000,BKN,7000,OVC,22000,,,VFR,,,,,,,,,,,,METAR,31
CYGL 272200Z 25012G18KT 2SM -SN DRSN OVC030 M18/M21 A2869 RMK SC8 SLP735,CYGL,2025-01-27T22:00:00Z,53.625,-77.7,-18,-21,250,12,18,2,28.69,973.5,,,,,,,,,-SN DRSN,OVC,3000,,,,,,,IFR,,,,,,,,,,,,METAR,192
CYGK 272200Z 22029G40KT 15SM FEW040 BKN120 BKN230 00/M09 A2943 RMK SC2AC4CI1 SLP973,CYGK,2025-01-27T22:00:00Z,44.223,-76.599,0,-9,220,29,40,15,29.43,997.3,,,,,,,,,,FEW,4000,BKN,12000,BKN,23000,,,VFR,,,,,,,,,,,,METAR,91
CYGH 272200Z VRB02KT 25SM FEW013 FEW070 SCT130 M11/M12 A2950 RMK SC1AC1AC2 SC TR AS ASOCTD SLP001,CYGH,2025-01-27T22:00:00Z,66.242,-128.644,-11,-12,VRB,2,,25,29.50,1000.1,,,,,,,,,,FEW,1300,FEW,7000,SCT,13000,,,VFR,,,,,,,,,,,,METAR,72
CYGE 272200Z 14002KT 20SM BKN220 M09/M12 A3041 RMK CI6 SLP366,CYGE,2025-01-27T22:00:00Z,51.3,-116.984,-9,-12,140,2,,20,30.41,1036.6,,,,,,,,,,BKN,22000,,,,,,,VFR,,,,,,,,,,,,METAR,786
CYFS 272200Z 17003KT 15SM FEW083 SCT096 BKN110 BKN240 M05/M06 A2949 RMK AS2AC1AC2CI1 SLP001,CYFS,2025-01-27T22:00:00Z,61.76,-121.23,-5,-6,170,3,,15,29.49,1000.1,,,,,,,,,,FEW,8300,SCT,9600,BKN,11000,BKN,24000,VFR,,,,,,,,,,,,METAR,174
CYFR 272200Z 14007KT 15SM DRSN SCT130 BKN240 M06/M08 A2933 RMK AC4CS3 SLP946,CYFR,2025-01-27T22:00:00Z,61.178,-113.688,-6,-8,140,7,,15,29.33,994.6,,,,,,,,,DRSN,SCT,13000,BKN,24000,,,,,VFR,,,,,,,,,,,,METAR,159
CYFO 272200Z 14004KT 15SM OVC037 M10/M18 A2977 RMK SC8 SLP106,CYFO,2025-01-27T22:00:00Z,54.678,-101.68,-10,-18,140,4,,15,29.77,1010.6,,,,,,,,,,OVC,3700,,,,,,,VFR,,,,,,,,,,,,METAR,303
CYFC 272200Z AUTO 20015G23KT 9SM BKN140 BKN160 OVC180 M01/M09 A2944 RMK SLP973,CYFC,2025-01-27T22:00:00Z,45.873,-66.539,-1,-9,200,15,23,9,29.44,997.3,,TRUE,,,,,,,,BKN,14000,BKN,16000,OVC,18000,,,VFR,,,,,,,,,,,,METAR,16
CYFB 272200Z 18002KT 10SM -SN FEW018 OVC035 M19/M22 A2917 RMK SC1SC7 SLP886,CYFB,2025-01-27T22:00:00Z,63.75,-68.544,-19,-22,180,2,,10+,29.17,988.6,,,,,,,,,-SN,FEW,1800,OVC,3500,,,,,VFR,,,,,,,,,,,,METAR,23
CYEV 272200Z VRB02KT 5SM -SN OVC045 M13/M16 A2950 RMK SN2SC6 SLP002,CYEV,2025-01-27T22:00:00Z,68.309,-133.5,-13,-16,VRB,2,,5,29.50,1000.2,,,,,,,,,-SN,OVC,4500,,,,,,,MVFR,,,,,,,,,,,,METAR,74
CYET 272200Z AUTO /////KT 9SM CLR 06/M08 A2990 RMK WIND MISG SLP158,CYET,2025-01-27T22:00:00Z,53.58,-116.455,6,-8,,,,9,29.90,1015.8,,TRUE,,,,,,,,CLR,,,,,,,,VFR,,,,,,,,,,,,METAR,925
CYEN 272200Z AUTO 30013G18KT 9SM CLR M02/M05 A2987 RMK SLP147,CYEN,2025-01-27T22:00:00Z,49.207,-102.963,-2,-5,300,13,18,9,29.87,1014.7,,TRUE,,,,,,,,CLR,,,,,,,,VFR,,,,,,,,,,,,METAR,580
CYED 272200Z 24009KT 15SM BKN250 05/M05 A2984 RMK CI7 DENSITY ALT 1603FT SLP129,CYED,2025-01-27T22:00:00Z,53.676,-113.471,5,-5,240,9,,15,29.84,1012.9,,,,,,,,,,BKN,25000,,,,,,,VFR,,,,,,,,,,,,METAR,688
CYDQ 272200Z AUTO 26020G30KT 9SM CLR 09/M09 A2987 RMK SLP137,CYDQ,2025-01-27T22:00:00Z,55.741,-120.188,9,-9,260,20,30,9,29.87,1013.7,,TRUE,,,,,,,,CLR,,,,,,,,VFR,,,,,,,,,,,,METAR,658
CYDP 272200Z 18004KT 15SM FEW180 FEW210 M20/M26 A2920 RMK AS1CS1 SLP892,CYDP,2025-01-27T22:00:00Z,56.549,-61.684,-20,-26,180,4,,15,29.20,989.2,,,,,,,,,,FEW,18000,FEW,21000,,,,,VFR,,,,,,,,,,,,METAR,14
CYDN 272200Z AUTO 08004KT 9SM OVC030 M05/M08 A2980 RMK SLP112,CYDN,2025-01-27T22:00:00Z,51.1,-100.057,-5,-8,80,4,,9,29.80,1011.2,,TRUE,,,,,,,,OVC,3000,,,,,,,MVFR,,,,,,,,,,,,METAR,302
CYDL 272200Z AUTO 18006KT 9SM SCT032 M01/M02 A3009 RMK SLP230,CYDL,2025-01-27T22:00:00Z,58.426,-130.025,-1,-2,180,6,,9,30.09,1023,,TRUE,,,,,,,,SCT,3200,,,,,,,VFR,,,,,,,,,,,,METAR,804
CYDF 272200Z 23004KT 12SM SCT045 M06/M11 A2961 RMK SC4 INTMT -SN SLP030,CYDF,2025-01-27T22:00:00Z,49.212,-57.394,-6,-11,230,4,,12,29.61,1003,,,,,,,,,,SCT,4500,,,,,,,VFR,,,,,,,,,,,,METAR,15
CYDC 272200Z 00000KT 25SM SKC M03/M10 A3036 RMK SLP326,CYDC,2025-01-27T22:00:00Z,49.468,-120.514,-3,-10,0,0,,25,30.36,1032.6,,,,,,,,,,SKC,,,,,,,,VFR,,,,,,,,,,,,METAR,703
CYDB 272200Z 20012G20KT 170V240 15SM FEW045 SCT075 SCT100 01/M16 A2969 RMK CU1AC3AC1 AC TR / LAST STFD OBS / NEXT 28 1400Z / SLP092,CYDB,2025-01-27T22:00:00Z,61.37,-139.032,1,-16,200,12,20,15,29.69,1009.2,,,,,,,,,,FEW,4500,SCT,7500,SCT,10000,,,VFR,,,,,,,,,,,,METAR,807
CYDA 272200Z VRB04KT 20SM BKN038 BKN088 OVC110 OVC230 M11/M12 A2966 RMK SC5AC2AC1CI1 CI TR SLP076,CYDA,2025-01-27T22:00:00Z,64.044,-139.127,-11,-12,VRB,4,,20,29.66,1007.6,,,,,,,,,,BKN,3800,BKN,8800,OVC,11000,OVC,23000,VFR,,,,,,,,,,,,METAR,338
CYCX 272200Z 20011G20KT 15SM SCT130 BKN200 M02/M08 A2945 RMK AC4CI3 DENSITY ALT -1256FT SLP974,CYCX,2025-01-27T22:00:00Z,45.839,-66.45,-2,-8,200,11,20,15,29.45,997.4,,,,,,,,,,SCT,13000,BKN,20000,,,,,VFR,,,,,,,,,,,,METAR,46
CYCQ 272200Z 23014G22KT 35SM FEW050 BKN140 OVC220 06/M08 A3000 RMK SC1AC6CI2 SC TR ROTOR CLD SE-S SLP186,CYCQ,2025-01-27T22:00:00Z,55.689,-121.62,6,-8,230,14,22,35,30.00,1018.6,,,,,,,,,,FEW,5000,BKN,14000,OVC,22000,,,VFR,,,,,,,,,,,,METAR,614
CYCP 272200Z 00000KT 15SM FEW150 BKN300 M06/M10 A3042 RMK AC2CS3 SLP354,CYCP,2025-01-27T22:00:00Z,52.129,-119.29,-6,-10,0,0,,15,30.42,1035.4,,,,,,,,,,FEW,15000,BKN,30000,,,,,VFR,,,,,,,,,,,,METAR,677
CYCK 272200Z AUTO 23028G37KT 9SM CLR M01/M07 A2962 RMK SLP041,CYCK,2025-01-27T22:00:00Z,42.307,-82.085,-1,-7,230,28,37,9,29.62,1004.1,,TRUE,,,,,,,,CLR,,,,,,,,VFR,,,,,,,,,,,,METAR,196
CYCG 272200Z VRB02KT 15SM FEW025 M02/M08 A3045 RMK SF1 SF TR SLP341,CYCG,2025-01-27T22:00:00Z,49.295,-117.634,-2,-8,VRB,2,,15,30.45,1034.1,,,,,,,,,,FEW,2500,,,,,,,VFR,,,,,,,,,,,,METAR,487
CYCD 272200Z VRB02KT 30SM SKC 08/M00 A3035 RMK SLP280,CYCD,2025-01-27T22:00:00Z,49.052,-123.874,8,0,VRB,2,,30,30.35,1028,,,,,,,,,,SKC,,,,,,,,VFR,,,,,,,,,,,,METAR,30
CYCB 272200Z 28008KT 15SM FEW160 M35/M39 A2977 RMK AC1 SLP088,CYCB,2025-01-27T22:00:00Z,69.106,-105.116,-35,-39,280,8,,15,29.77,1008.8,,,,,,,,,,FEW,16000,,,,,,,VFR,,,,,,,,,,,,METAR,19
CYBX 272200Z 25020G29KT 10SM -SN SCT025 BKN030 M06/M10 A2947 RMK SC4SC2 SLP983,CYBX,2025-01-27T22:00:00Z,51.442,-57.188,-6,-10,250,20,29,10+,29.47,998.3,,,,,,,,,-SN,SCT,2500,BKN,3000,,,,,MVFR,,,,,,,,,,,,METAR,32
CYBW 272200Z AUTO 32006KT 9SM CLR 07/M08 A2998 RMK SLP194,CYBW,2025-01-27T22:00:00Z,51.108,-114.382,7,-8,320,6,,9,29.98,1019.4,,TRUE,,,,,,,,CLR,,,,,,,,VFR,,,,,,,,,,,,METAR,1197
CYBV 272200Z 32008G16KT 15SM FEW075 FEW250 M12/M16 A2979 RMK AC1CI1 AC TR CI TR SNW CVR/MEDIUM PACK LAST STFD OBS/NEXT 281300UTC SLP105,CYBV,2025-01-27T22:00:00Z,52.36,-97.022,-12,-16,320,8,16,15,29.79,1010.5,,,,,,,,,,FEW,7500,FEW,25000,,,,,VFR,,,,,,,,,,,,METAR,219
CYBU 272200Z AUTO 10007KT 9SM OVC050 M02/M03 A2973 RMK SLP089,CYBU,2025-01-27T22:00:00Z,53.333,-104.005,-2,-3,100,7,,9,29.73,1008.9,,TRUE,,,,,,,,OVC,5000,,,,,,,VFR,,,,,,,,,,,,METAR,369
CYBR 272200Z 30011KT 15SM FEW030 SCT060 M01/M04 A2979 RMK SC1SC2 SLP114,CYBR,2025-01-27T22:00:00Z,49.91,-99.945,-1,-4,300,11,,15,29.79,1011.4,,,,,,,,,,FEW,3000,SCT,6000,,,,,VFR,,,,,,,,,,,,METAR,405
CYBQ 272200Z AUTO 31007KT 9SM CLR M23/M27 A2968 RMK ICE SLP087,CYBQ,2025-01-27T22:00:00Z,58.707,-98.511,-23,-27,310,7,,9,29.68,1008.7,,TRUE,,,,,,,,CLR,,,,,,,,VFR,,,,,,,,,,,,METAR,272
CYBL 272200Z VRB02KT 30SM FEW250 06/M00 A3035 RMK CI1 CI TR SLP283,CYBL,2025-01-27T22:00:00Z,49.951,-125.269,6,0,VRB,2,,30,30.35,1028.3,,,,,,,,,,FEW,25000,,,,,,,VFR,,,,,,,,,,,,METAR,94
CYBK 272200Z 32025KT 25SM IC DRSN SKC M33/M37 A2965 RMK WND EST SLP046,CYBK,2025-01-27T22:00:00Z,64.306,-96.078,-33,-37,320,25,,25,29.65,1004.6,,,,,,,,,IC DRSN,SKC,,,,,,,,VFR,,,,,,,,,,,,METAR,14
CYBG 272200Z 21023G35KT 7SM -SN DRSN FEW025 BKN045 OVC060 M02/M07 A2896 RMK SC2SC3SC3 DENSITY ALT -278FT VIS LWR SW SLP816,CYBG,2025-01-27T22:00:00Z,48.331,-70.989,-2,-7,210,23,35,7,28.96,981.6,,,,,,,,,-SN DRSN,FEW,2500,BKN,4500,OVC,6000,,,VFR,,,,,,,,,,,,METAR,151
CYBD 272200Z 24004KT 15SM FEW260 01/M01 A3042 RMK CS1 CONTRAIL SLP305,CYBD,2025-01-27T22:00:00Z,52.388,-126.589,1,-1,240,4,,15,30.42,1030.5,,,,,,,,,,FEW,26000,,,,,,,VFR,,,,,,,,,,,,METAR,40
CYBC 272200Z AUTO 21023G34KT 3/4SM -SN OVC010 M03/M04 A2903 RMK SLP835,CYBC,2025-01-27T22:00:00Z,49.135,-68.202,-3,-4,210,23,34,0.75,29.03,983.5,,TRUE,,,,,,,-SN,OVC,1000,,,,,,,LIFR,,,,,,,,,,,,METAR,20
CYBB 272200Z 24006KT 12SM IC BKN030 M31/M34 A2956 RMK SC6 SLP015,CYBB,2025-01-27T22:00:00Z,68.536,-89.792,-31,-34,240,6,,12,29.56,1001.5,,,,,,,,,IC,BKN,3000,,,,,,,MVFR,,,,,,,,,,,,METAR,13
CYAZ 272200Z 18005KT 15SM FEW250 07/03 A3034 RMK CC1 CC TR SLP278,CYAZ,2025-01-27T22:00:00Z,49.08,-125.767,7,3,180,5,,15,30.34,1027.8,,,,,,,,,,FEW,25000,,,,,,,VFR,,,,,,,,,,,,METAR,26
CYAY 272200Z AUTO 22011KT 9SM -SN BKN026 M07/M10 A2948 RMK SLP989,CYAY,2025-01-27T22:00:00Z,51.39,-56.081,-7,-10,220,11,,9,29.48,998.9,,TRUE,,,,,,,-SN,BKN,2600,,,,,,,MVFR,,,,,,,,,,,,METAR,23
CYAT 272200Z AUTO 31020G35KT 4SM HZ OVC031 M19/M22 A2923 RMK SLP900,CYAT,2025-01-27T22:00:00Z,52.927,-82.432,-19,-22,310,20,35,4,29.23,990,,TRUE,,,,,,,HZ,OVC,3100,,,,,,,MVFR,,,,,,,,,,,,METAR,4
CYAS 272200Z 05012KT 1SM BLSN OVC018 M23/M25 A2902 RMK SC8 LST STFD/NXT OBS 281300Z SLP847,CYAS,2025-01-27T22:00:00Z,60.026,-70.004,-23,-25,50,12,,1,29.02,984.7,,,,,,,,,BLSN,OVC,1800,,,,,,,IFR,,,,,,,,,,,,METAR,99
CYAH 272200Z AUTO 27017G30KT 1/2SM SN VV015 M17/M19 A2854 RMK SLP697,CYAH,2025-01-27T22:00:00Z,53.757,-73.676,-17,-19,270,17,30,0.5,28.54,969.7,,TRUE,,,,,,,SN,OVX,0,,,,,,,LIFR,,,,,,,,,,,1500,METAR,298
CXZV 272200Z AUTO 18008G20KT M04/M06 RMK AO1 4PAST HR SOG 36 8047 PK WND 20020/2132 SLP850 P0002 T10361055 50011,CXZV,2025-01-27T22:00:00Z,50.217,-66.26,-3.6,-5.5,180,8,20,,0.00,985,,TRUE,TRUE,,,,,,,,,,,,,,,,0.11,,,,,0.02,,,,,,METAR,43
CXZC 272200Z AUTO 29009G18KT M17/M21 RMK AO1 PRESRR SOG 11 3056 PK WND 27028/2130 SLP888 T11681208,CXZC,2025-01-27T22:00:00Z,51.292,-80.618,-16.8,-20.8,290,9,18,,0.00,988.8,,TRUE,TRUE,,,,,,,,,,,,,,,,,,,,,,,,,,,METAR,8
CXYH 272200Z AUTO 34005G17KT 10/M06 RMK AO1 SOG 10 3001 PK WND 29027/2145 SLP008 T00981058,CXYH,2025-01-27T22:00:00Z,61.242,-123.742,9.8,-5.8,340,5,17,,0.00,1000.8,,TRUE,TRUE,,,,,,,,,,,,,,,,,,,,,,,,,,,METAR,197
CXWN 272200Z AUTO 02005KT M06/M13 RMK AO1 SLP104 T10631130 51029,CXWN,2025-01-27T22:00:00Z,49.889,-97.13,-6.3,-13,20,5,,,0.00,1010.4,,TRUE,TRUE,,,,,,,,,,,,,,,,0.29,,,,,,,,,,,METAR,232
CXVN 272200Z AUTO 22025G39KT M00/M10 RMK AO1 SOG 02 6039 PK WND 23042/2113 SLP008 T10031099,CXVN,2025-01-27T22:00:00Z,43.183,-79.4,-0.3,-9.9,220,25,39,,0.00,1000.8,,TRUE,TRUE,,,,,,,,,,,,,,,,,,,,,,,,,,,METAR,86
CXTV 272200Z AUTO 05005KT M17/M18 RMK AO1 3009 SLP006 T11671184 50005,CXTV,2025-01-27T22:00:00Z,68.746,-133.502,-16.7,-18.4,50,5,,,0.00,1000.6,,TRUE,TRUE,,,,,,,,,,,,,,,,0.05,,,,,,,,,,,METAR,91
CXTP 272200Z AUTO 25007KT M05/M10 RMK AO1 SOG 06 3017 SLP042 T10491096,CXTP,2025-01-27T22:00:00Z,48.557,-53.975,-4.9,-9.6,250,7,,,0.00,1004.2,,TRUE,TRUE,,,,,,,,,,,,,,,,,,,,,,,,,,,METAR,104
CXTO 272200Z AUTO M00/M09 RMK AO1 SOG 04 6027 SLP990 T10021089,CXTO,2025-01-27T22:00:00Z,43.667,-79.4,-0.2,-8.9,,,,,0.00,999,,TRUE,TRUE,,,,,,,,,,,,,,,,,,,,,,,,,,,METAR,115
CXTN 272200Z AUTO 19006KT M22/M24 RMK AO1 SOG 102 1006 PK WND 14025/2129 SLP056 T12161242,CXTN,2025-01-27T22:00:00Z,69.199,-122.359,-21.6,-24.2,190,6,,,0.00,1005.6,,TRUE,TRUE,,,,,,,,,,,,,,,,,,,,,,,,,,,METAR,564
CXTD 272200Z AUTO 17010G15KT M03/M07 RMK AO1 SOG 08 8028 SLP046 T10301069,CXTD,2025-01-27T22:00:00Z,45.608,-61.68,-3,-6.9,170,10,15,,0.00,1004.6,,TRUE,TRUE,,,,,,,,,,,,,,,,,,,,,,,,,,,METAR,58
CXSH 272200Z AUTO 21018G29KT M01/M05 RMK AO1 PK WND 22031/2145 SLP880 T10111047 56028,CXSH,2025-01-27T22:00:00Z,46.564,-72.733,-1.1,-4.7,210,18,29,,0.00,988,,TRUE,TRUE,,,,,,,,,,,,,,,,-0.28,,,,,,,,,,,METAR,106
CXSE 272200Z AUTO 32012KT M28/M32 RMK AO1 SOG 15 0004 SLP073 T12831315,CXSE,2025-01-27T22:00:00Z,73.766,-105.296,-28.3,-31.5,320,12,,,0.00,1007.3,,TRUE,TRUE,,,,,,,,,,,,,,,,,,,,,,,,,,,METAR,11
CXRH 272200Z AUTO 21010G16KT M06/M11 RMK AO1 SOG 05 8003 PK WND 23020/2133 SLP016 T10551111,CXRH,2025-01-27T22:00:00Z,49.57,-57.878,-5.5,-11.1,210,10,16,,0.00,1001.6,,TRUE,TRUE,,,,,,,,,,,,,,,,,,,,,,,,,,,METAR,68
CXRB 272200Z AUTO 05014KT M24/M26 RMK AO1 SOG 04 3008 PK WND 06019/2102 SLP043 T12381263 50002,CXRB,2025-01-27T22:00:00Z,74.716,-94.983,-23.8,-26.3,50,14,,,0.00,1004.3,,TRUE,TRUE,,,,,,,,,,,,,,,,0.02,,,,,,,,,,,METAR,30
CXPC 272200Z AUTO 01/M05 RMK AO1 SOG 45 6021 SLP921 T00071048 50002,CXPC,2025-01-27T22:00:00Z,45.344,-80.044,0.7,-4.8,,,,,0.00,992.1,,TRUE,TRUE,,,,,,,,,,,,,,,,0.02,,,,,,,,,,,METAR,176
CXOX 272200Z AUTO 15006KT M04/M05 RMK AO1 SOG 35 8036 SLP063 T10381053,CXOX,2025-01-27T22:00:00Z,55.146,-105.27,-3.8,-5.3,150,6,,,0.00,1006.3,,TRUE,TRUE,,,,,,,,,,,,,,,,,,,,,,,,,,,METAR,381
CXNP 272200Z AUTO 19011KT M02/M04 RMK AO1 SOG 12 6040 PK WND 18021/2133 SLP997 T10171035,CXNP,2025-01-27T22:00:00Z,45.76,-64.241,-1.7,-3.5,190,11,,,0.00,999.7,,TRUE,TRUE,,,,,,,,,,,,,,,,,,,,,,,,,,,METAR,19
CXNM 272200Z AUTO 17012G21KT M09/M14 RMK AO1 SOG 91 PK WND 16021/2153 T10941141,CXNM,2025-01-27T22:00:00Z,46.818,-60.673,-9.4,-14.1,170,12,21,,0.00,,,TRUE,TRUE,,,,,,,,,,,,,,,,,,,,,,,,,,,METAR,452
CXMY 272200Z AUTO M02/M04 RMK AO1 T10171039,CXMY,2025-01-27T22:00:00Z,44.984,-62.484,-1.7,-3.9,,,,,0.00,,,TRUE,TRUE,,,,,,,,,,,,,,,,,,,,,,,,,,,METAR,37
CXMM 272200Z AUTO 25018G24KT 04/M06 RMK AO1 SOG 29 6053 PK WND 24024/2157 SLP029 T00411058,CXMM,2025-01-27T22:00:00Z,56.649,-111.221,4.1,-5.8,250,18,24,,0.00,1002.9,,TRUE,TRUE,,,,,,,,,,,,,,,,,,,,,,,,,,,METAR,372
CXMI 272200Z AUTO 27014G20KT 01/M04 RMK AO1 PK WND 26023/2106 SLP038 T00141035 56029,CXMI,2025-01-27T22:00:00Z,44.602,-63.534,1.4,-3.5,270,14,20,,0.00,1003.8,,TRUE,TRUE,,,,,,,,,,,,,,,,-0.29,,,,,,,,,,,METAR,15
CXMD 272200Z AUTO 30008KT 01/M04 RMK AO1 SOG 15 3015 SLP099 T00091038,CXMD,2025-01-27T22:00:00Z,49.188,-98.084,0.9,-3.8,300,8,,,0.00,1009.9,,TRUE,TRUE,,,,,,,,,,,,,,,,,,,,,,,,,,,METAR,297
CXLL 272200Z AUTO 27006KT 08/M05 RMK AO1 PK WND 21020/2133 SLP020 T00841046 53003,CXLL,2025-01-27T22:00:00Z,61.125,-122.851,8.4,-4.6,270,6,,,0.00,1002,,TRUE,TRUE,,,,,,,,,,,,,,,,0.03,,,,,,,,,,,METAR,180
CXLB 272200Z AUTO 22014KT 01/M05 RMK AO1 PK WND 21018/2159 SLP036 T00141050 56023,CXLB,2025-01-27T22:00:00Z,44.36,-64.296,1.4,-5,220,14,,,0.00,1003.6,,TRUE,TRUE,,,,,,,,,,,,,,,,-0.23,,,,,,,,,,,METAR,4
CXKT 272200Z AUTO 20006KT M01/M07 RMK AO1 SOG 09 6029 SLP017 T10061071,CXKT,2025-01-27T22:00:00Z,45.067,-64.478,-0.6,-7.1,200,6,,,0.00,1001.7,,TRUE,TRUE,,,,,,,,,,,,,,,,,,,,,,,,,,,METAR,48
CXKI 272200Z AUTO 32016G24KT M10/M13 RMK AO1 PRESRR SOG 19 3057 PK WND 32024/2136 SLP875 T10971133 50020,CXKI,2025-01-27T22:00:00Z,48.15,-80,-9.7,-13.3,320,16,24,,0.00,987.5,,TRUE,TRUE,,,,,,,,,,,,,,,,0.2,,,,,,,,,,,METAR,328
CXKE 272200Z AUTO 22017G31KT 00/M09 RMK AO1 SOG 02 6028 PK WND 24037/2105 SLP932 T00001087,CXKE,2025-01-27T22:00:00Z,45.005,-75.637,0,-8.7,220,17,31,,0.00,993.2,,TRUE,TRUE,,,,,,,,,,,,,,,,,,,,,,,,,,,METAR,99
CXKA 272200Z AUTO 32016G26KT M15/M20 RMK AO1 SOG 33 3058 PK WND 33026/2154 SLP930 T11491201,CXKA,2025-01-27T22:00:00Z,49.405,-82.443,-14.9,-20.1,320,16,26,,0.00,993,,TRUE,TRUE,,,,,,,,,,,,,,,,,,,,,,,,,,,METAR,221
CXIB 272200Z AUTO 23002KT M07/M12 RMK AO1 SOG 09 6005 SLP050 T10671121,CXIB,2025-01-27T22:00:00Z,46.663,-60.406,-6.7,-12.1,230,2,,,0.00,1005,,TRUE,TRUE,,,,,,,,,,,,,,,,,,,,,,,,,,,METAR,6
CXHM 272200Z AUTO 24012G30KT M01/M09 RMK AO1 PK WND 26030/2159 SLP002 T10081094 56039,CXHM,2025-01-27T22:00:00Z,43.286,-79.905,-0.8,-9.4,240,12,30,,0.00,1000.2,,TRUE,TRUE,,,,,,,,,,,,,,,,-0.39,,,,,,,,,,,METAR,105
CXHA 272200Z AUTO 22019G28KT M00/M07 RMK AO1 SOG 16 6039 PK WND 22028/2157 SLP049 T10041074,CXHA,2025-01-27T22:00:00Z,42.033,-82.896,-0.4,-7.4,220,19,28,,0.00,1004.9,,TRUE,TRUE,,,,,,,,,,,,,,,,,,,,,,,,,,,METAR,193
CXGH 272200Z AUTO 36007KT M08/M20 RMK AO1 SLP110 T10841195 51024,CXGH,2025-01-27T22:00:00Z,50.631,-96.984,-8.4,-19.5,360,7,,,0.00,1011,,TRUE,TRUE,,,,,,,,,,,,,,,,0.24,,,,,,,,,,,METAR,217
CXET 272200Z AUTO 22019G30KT M02/M10 RMK AO1 SOG 13 6025 PK WND 23033/2119 SLP965 T10241097,CXET,2025-01-27T22:00:00Z,44.234,-79.779,-2.4,-9.7,220,19,30,,0.00,996.5,,TRUE,TRUE,,,,,,,,,,,,,,,,,,,,,,,,,,,METAR,250
CXEG 272200Z AUTO 26008KT 03/M04 RMK AO1 SOG 12 6028 SLP137 T00321044,CXEG,2025-01-27T22:00:00Z,53.307,-113.606,3.2,-4.4,260,8,,,0.00,1013.7,,TRUE,TRUE,,,,,,,,,,,,,,,,,,,,,,,,,,,METAR,706
CXEC 272200Z AUTO 27005KT 07/M07 RMK AO1 SLP123 T00681067 56029,CXEC,2025-01-27T22:00:00Z,53.573,-113.517,6.8,-6.7,270,5,,,0.00,1012.3,,TRUE,TRUE,,,,,,,,,,,,,,,,-0.29,,,,,,,,,,,METAR,666
CXEA 272200Z AUTO 33012G19KT M11/M21 RMK AO1 SOG 43 3025 PK WND 32022/2112 SLP061 T11051206,CXEA,2025-01-27T22:00:00Z,50.631,-93.221,-10.5,-20.6,330,12,19,,0.00,1006.1,,TRUE,TRUE,,,,,,,,,,,,,,,,,,,,,,,,,,,METAR,351
CXDW 272200Z AUTO 36008KT M02/M04 RMK AO1 SOG 26 3016 PK WND 28017/2103 SLP100 T10161042,CXDW,2025-01-27T22:00:00Z,49.4,-98.319,-1.6,-4.2,360,8,,,0.00,1010,,TRUE,TRUE,,,,,,,,,,,,,,,,,,,,,,,,,,,METAR,341
CXDK 272200Z AUTO 08/M05 RMK AO1 22 SOG 12 3018 SLP039 T00831053,CXDK,2025-01-27T22:00:00Z,61.257,-124.468,8.3,-5.3,,,,,0.00,1003.9,,TRUE,TRUE,,,,,,,,,,,,,,,,,,,,,,,,,,,METAR,269
CXDI 272200Z AUTO 24014G25KT M02/M09 RMK AO1 SOG 01 6035 PK WND 24030/2124 SLP026 T10201086,CXDI,2025-01-27T22:00:00Z,42.864,-80.545,-2,-8.6,240,14,25,,0.00,1002.6,,TRUE,TRUE,,,,,,,,,,,,,,,,,,,,,,,,,,,METAR,234
CXDE 272200Z AUTO 28004KT M12/M14 RMK AO1 SOG 36 3015 SLP020 T11201144 50012,CXDE,2025-01-27T22:00:00Z,65.209,-123.434,-12,-14.4,280,4,,,0.00,1002,,TRUE,TRUE,,,,,,,,,,,,,,,,0.12,,,,,,,,,,,METAR,208
CXCK 272200Z AUTO 25007G15KT 04/M09 RMK AO1 SOG 34 1015 PK WND 20017/2124 SLP095 T00371089,CXCK,2025-01-27T22:00:00Z,62.115,-136.192,3.7,-8.9,250,7,15,,0.00,1009.5,,TRUE,TRUE,,,,,,,,,,,,,,,,,,,,,,,,,,,METAR,526
CXCA 272200Z AUTO 36013G22KT M12/M19 RMK AO1 PK WND 01025/2112 SLP015 T11191188 51057,CXCA,2025-01-27T22:00:00Z,49.154,-88.344,-11.9,-18.8,360,13,22,,0.00,1001.5,,TRUE,TRUE,,,,,,,,,,,,,,,,0.57,,,,,,,,,,,METAR,228
CXBO 272200Z AUTO 22016G27KT M00/M05 RMK AO1 PK WND 21030/2103 T10021047 50013,CXBO,2025-01-27T22:00:00Z,46.837,-71.197,-0.2,-4.7,220,16,27,,0.00,,,TRUE,TRUE,,,,,,,,,,,,,,,,0.13,,,,,,,,,,,METAR,8
CXBK 272200Z AUTO 27016KT M02/M05 RMK AO1 SOG 22 6014 PK WND 27020/2129 SLP143 T10231052,CXBK,2025-01-27T22:00:00Z,50.201,-104.71,-2.3,-5.2,270,16,,,0.00,1014.3,,TRUE,TRUE,,,,,,,,,,,,,,,,,,,,,,,,,,,METAR,585
CXBI 272200Z AUTO 24017G28KT M02/M10 RMK AO1 SOG 38 7026 PK WND 24029/2137 SLP954 T10221098,CXBI,2025-01-27T22:00:00Z,44.484,-79.546,-2.2,-9.8,240,17,28,,0.00,995.4,,TRUE,TRUE,,,,,,,,,,,,,,,,,,,,,,,,,,,METAR,287
CXAT 272200Z AUTO 09001KT M31/M35 RMK AO1 SOG 04 1002 SLP018 T13061346,CXAT,2025-01-27T22:00:00Z,73.006,-85.033,-30.6,-34.6,90,1,,,0.00,1001.8,,TRUE,TRUE,,,,,,,,,,,,,,,,,,,,,,,,,,,METAR,10
CWZW 272200Z AUTO 17003KT 03/M08 RMK AO1 SOG 51 8003 SLP171 T00261075,CWZW,2025-01-27T22:00:00Z,60.167,-132.733,2.6,-7.5,170,3,,,0.00,1017.1,,TRUE,TRUE,,,,,,,,,,,,,,,,,,,,,,,,,,,METAR,683
CWZV 272200Z AUTO 34009KT 06/04 RMK AO1 SLP302 T00550039 58013,CWZV,2025-01-27T22:00:00Z,51.936,-131.016,5.5,3.9,340,9,,,0.00,1030.2,,TRUE,TRUE,,,,,,,,,,,,,,,,-0.13,,,,,,,,,,,METAR,83
CWZQ 272200Z AUTO 14016G23KT M04/M13 RMK AO1 PK WND 14023/2154 SLP023 T10381131 56036,CWZQ,2025-01-27T22:00:00Z,46.547,-61.049,-3.8,-13.1,140,16,23,,0.00,1002.3,,TRUE,TRUE,,,,,,,,,,,,,,,,-0.36,,,,,,,,,,,METAR,13
CWZN 272200Z AUTO 23022G30KT M02/M10 RMK AO1 PK WND 23031/2104 SLP041 T10241100 53013,CWZN,2025-01-27T22:00:00Z,47.368,-55.795,-2.4,-10,230,22,30,,0.00,1004.1,,TRUE,TRUE,,,,,,,,,,,,,,,,0.13,,,,,,,,,,,METAR,63
CWZL 272200Z AUTO 20006G22KT 03/M05 RMK AO1 8012 PK WND 16076/2123 SLP317 T00341054 50002,CWZL,2025-01-27T22:00:00Z,53.03,-131.602,3.4,-5.4,200,6,22,,0.00,1031.7,,TRUE,TRUE,,,,,,,,,,,,,,,,0.02,,,,,,,,,,,METAR,17
CWZG 272200Z AUTO 23008KT M01/M11 RMK AO1 SOG 14 6024 PK WND 23017/2147 SLP264 T10051113,CWZG,2025-01-27T22:00:00Z,51.194,-115.552,-0.5,-11.3,230,8,,,0.00,1026.4,,TRUE,TRUE,,,,,,,,,,,,,,,,,,,,,,,,,,,METAR,1402
CWZA 272200Z AUTO 30005KT 08/M05 RMK AO1 PK WND 35018/2127 SLP272 T00801047 56028,CWZA,2025-01-27T22:00:00Z,49.244,-121.759,8,-4.7,300,5,,,0.00,1027.2,,TRUE,TRUE,,,,,,,,,,,,,,,,-0.28,,,,,,,,,,,METAR,18
CWYY 272200Z AUTO 31001KT M01/M06 RMK AO1 SLP337 T10101059 56022,CWYY,2025-01-27T22:00:00Z,49.028,-119.441,-1,-5.9,310,1,,,0.00,1033.7,,TRUE,TRUE,,,,,,,,,,,,,,,,-0.22,,,,,,,,,,,METAR,284
CWYL 272200Z AUTO 24018G25KT M08/M12 RMK AO1 SOG 59 6021 PK WND 25025/2155 SLP307 T10801115,CWYL,2025-01-27T22:00:00Z,51.443,-116.345,-8,-11.5,240,18,25,,0.00,1030.7,,TRUE,TRUE,,,,,,,,,,,,,,,,,,,,,,,,,,,METAR,1602
CWYJ 272200Z AUTO 36005KT 06/02 RMK AO1 SLP277 T00590017 58022,CWYJ,2025-01-27T22:00:00Z,48.457,-123.305,5.9,1.7,360,5,,,0.00,1027.7,,TRUE,TRUE,,,,,,,,,,,,,,,,-0.22,,,,,,,,,,,METAR,59
CWXL 272200Z AUTO 26011KT 04/M02 RMK AO1 SLP195 T00431015 56027,CWXL,2025-01-27T22:00:00Z,49.734,-111.45,4.3,-1.5,260,11,,,0.00,1019.5,,TRUE,TRUE,,,,,,,,,,,,,,,,-0.27,,,,,,,,,,,METAR,815
CWXI 272200Z AUTO 23024G29KT M05/M10 RMK AO1 PK WND 23030/2116 SLP979 T10461102 58004,CWXI,2025-01-27T22:00:00Z,51.022,-57.096,-4.6,-10.2,230,24,29,,0.00,997.9,,TRUE,TRUE,,,,,,,,,,,,,,,,-0.04,,,,,,,,,,,METAR,15
CWXC 272200Z AUTO 19010G16KT M04/M07 RMK AO1 2PAST HR 6022 PK WND 19019/2132 SLP796 P0001 T10391071 50002,CWXC,2025-01-27T22:00:00Z,48.894,-71.032,-3.9,-7.1,190,10,16,,0.00,979.6,,TRUE,TRUE,,,,,,,,,,,,,,,,0.02,,,,,0.01,,,,,,METAR,306
CWXA 272200Z AUTO 26018G28KT 02/M11 RMK AO1 PK WND 25029/2138 SLP235 T00201114 56024,CWXA,2025-01-27T22:00:00Z,51.083,-115.066,2,-11.4,260,18,28,,0.00,1023.5,,TRUE,TRUE,,,,,,,,,,,,,,,,-0.24,,,,,,,,,,,METAR,1303
CWWZ 272200Z AUTO 23020G32KT M00/M09 RMK AO1 SOG 03 6041 PK WND 20037/2120 SLP003 T10031090,CWWZ,2025-01-27T22:00:00Z,43.244,-79.218,-0.3,-9,230,20,32,,0.00,1000.3,,TRUE,TRUE,,,,,,,,,,,,,,,,,,,,,,,,,,,METAR,75
CWWS 272200Z AUTO 32013KT M13/M16 RMK AO1 SOG 62 3008 PK WND 32017/2101 SLP111 T11251160,CWWS,2025-01-27T22:00:00Z,52.819,-97.616,-12.5,-16,320,13,,,0.00,1011.1,,TRUE,TRUE,,,,,,,,,,,,,,,,,,,,,,,,,,,METAR,220
CWWL 272200Z AUTO 04003KT 02/02 RMK AO1 SLP315 T00230017 55008,CWWL,2025-01-27T22:00:00Z,53.493,-130.638,2.3,1.7,40,3,,,0.00,1031.5,,TRUE,TRUE,,,,,,,,,,,,,,,,-0.08,,,,,,,,,,,METAR,8
CWWK 272200Z AUTO 23002KT 07/M00 RMK AO1 SLP284 T00671001 56023,CWWK,2025-01-27T22:00:00Z,49.018,-122.784,6.7,-0.1,230,2,,,0.00,1028.4,,TRUE,TRUE,,,,,,,,,,,,,,,,-0.23,,,,,,,,,,,METAR,10
CWWF 272200Z AUTO 31009KT M01/M05 RMK AO1 SOG 26 6009 SLP146 T10131046,CWWF,2025-01-27T22:00:00Z,49.695,-103.801,-1.3,-4.6,310,9,,,0.00,1014.6,,TRUE,TRUE,,,,,,,,,,,,,,,,,,,,,,,,,,,METAR,583
CWWE 272200Z AUTO 22017KT 01/M03 RMK AO1 SOG 01 6018 PK WND 22026/2105 SLP051 T00051031,CWWE,2025-01-27T22:00:00Z,43.989,-64.662,0.5,-3.1,220,17,,,0.00,1005.1,,TRUE,TRUE,,,,,,,,,,,,,,,,,,,,,,,,,,,METAR,4
CWWB 272200Z AUTO 21019G25KT M00/M04 RMK AO1 PK WND 22030/2114 SLP998 T10041035 56038,CWWB,2025-01-27T22:00:00Z,43.302,-79.791,-0.4,-3.5,210,19,25,,0.00,999.8,,TRUE,TRUE,,,,,,,,,,,,,,,,-0.38,,,,,,,,,,,METAR,77
CWWA 272200Z AUTO 20001KT 06/M02 RMK AO1 SLP277 T00641015 57022,CWWA,2025-01-27T22:00:00Z,49.347,-123.193,6.4,-1.5,200,1,,,0.00,1027.7,,TRUE,TRUE,,,,,,,,,,,,,,,,-0.22,,,,,,,,,,,METAR,172
CWVU 272200Z AUTO 20012G19KT 01/M05 RMK AO1 PK WND 21026/2100 SLP028 T00131051 58019,CWVU,2025-01-27T22:00:00Z,44.287,-66.342,1.3,-5.1,200,12,19,,0.00,1002.8,,TRUE,TRUE,,,,,,,,,,,,,,,,-0.19,,,,,,,,,,,METAR,4
CWVT 272200Z AUTO 20003KT 01/M05 RMK AO1 SOG 28 6051 SLP053 T00131054,CWVT,2025-01-27T22:00:00Z,55.841,-108.421,1.3,-5.4,200,3,,,0.00,1005.3,,TRUE,TRUE,,,,,,,,,,,,,,,,,,,,,,,,,,,METAR,431
CWVQ 272200Z AUTO 23022G31KT 02/M09 RMK AO1 SOG 05 6030 PK WND 24037/2148 SLP917 T00151094,CWVQ,2025-01-27T22:00:00Z,45.427,-73.929,1.5,-9.4,230,22,31,,0.00,991.7,,TRUE,TRUE,,,,,,,,,,,,,,,,,,,,,,,,,,,METAR,38
CWVP 272200Z AUTO 28011G17KT 03/M10 RMK AO1 SOG 26 6017 PK WND 27022/2111 SLP164 T00291103,CWVP,2025-01-27T22:00:00Z,49.64,-109.514,2.9,-10.3,280,11,17,,0.00,1016.4,,TRUE,TRUE,,,,,,,,,,,,,,,,,,,,,,,,,,,METAR,1269
CWVN 272200Z AUTO 27010KT 01/M05 RMK AO1 SOG 17 6017 SLP176 T00131051,CWVN,2025-01-27T22:00:00Z,49.058,-107.586,1.3,-5.1,270,10,,,0.00,1017.6,,TRUE,TRUE,,,,,,,,,,,,,,,,,,,,,,,,,,,METAR,792
CWVI 272200Z AUTO 24010KT 02/M06 RMK AO1 SOG 17 8030 SLP124 T00231057,CWVI,2025-01-27T22:00:00Z,53.505,-112.098,2.3,-5.7,240,10,,,0.00,1012.4,,TRUE,TRUE,,,,,,,,,,,,,,,,,,,,,,,,,,,METAR,640
CWVF 272200Z AUTO 32008KT 05/03 RMK AO1 T00490034,CWVF,2025-01-27T22:00:00Z,49.106,-123.303,4.9,3.4,320,8,,,0.00,,,TRUE,TRUE,,,,,,,,,,,,,,,,,,,,,,,,,,,METAR,13
CWUX 272200Z AUTO 22021G32KT M02/M08 RMK AO1 PK WND 22034/2115 SLP823 T10191075 56022,CWUX,2025-01-27T22:00:00Z,48.298,-70.92,-1.9,-7.5,220,21,32,,0.00,982.3,,TRUE,TRUE,,,,,,,,,,,,,,,,-0.22,,,,,,,,,,,METAR,150
CWUS 272200Z AUTO 35004KT M03/M06 RMK AO1 SOG 01 6020 SLP338 T10261055,CWUS,2025-01-27T22:00:00Z,49.563,-119.649,-2.6,-5.5,350,4,,,0.00,1033.8,,TRUE,TRUE,,,,,,,,,,,,,,,,,,,,,,,,,,,METAR,455
CWTY 272200Z AUTO 22032G40KT 01/M06 RMK AO1 PK WND 22040/2145 SLP888 T00101057 56026,CWTY,2025-01-27T22:00:00Z,46.354,-72.516,1,-5.7,220,32,40,,0.00,988.8,,TRUE,TRUE,,,,,,,,,,,,,,,,-0.26,,,,,,,,,,,METAR,8
CWTT 272200Z AUTO 22019G25KT 01/M08 RMK AO1 PK WND 21036/2109 T00071083,CWTT,2025-01-27T22:00:00Z,45.27,-72.17,0.7,-8.3,220,19,25,,0.00,,,TRUE,TRUE,,,,,,,,,,,,,,,,,,,,,,,,,,,METAR,210
CWTN 272200Z AUTO 25008G17KT M02/M02 RMK AO1 3PAST HR SOG 25 6031 PK WND 27017/2144 SLP883 P0009 T10191023 50078,CWTN,2025-01-27T22:00:00Z,47.079,-70.781,-1.9,-2.3,250,8,17,,0.00,988.3,,TRUE,TRUE,,,,,,,,,,,,,,,,0.78,,,,,0.09,,,,,,METAR,5
CWTG 272200Z AUTO 20024G29KT M03/M04 RMK AO1 PK WND 19031/2127 SLP846 T10261040 58040,CWTG,2025-01-27T22:00:00Z,49.317,-67.381,-2.6,-4,200,24,29,,0.00,984.6,,TRUE,TRUE,,,,,,,,,,,,,,,,-0.4,,,,,,,,,,,METAR,6
CWTA 272200Z AUTO 19009G17KT 02/M10 RMK AO1 SOG 21 6030 PK WND 19018/2148 SLP917 T00161096,CWTA,2025-01-27T22:00:00Z,45.506,-73.579,1.6,-9.6,190,9,17,,0.00,991.7,,TRUE,TRUE,,,,,,,,,,,,,,,,,,,,,,,,,,,METAR,71
CWSW 272200Z VRB02KT 20SM FEW200 M05/M12 A3029 RMK CI1 SLP336,CWSW,2025-01-27T22:00:00Z,49.834,-114.881,-5,-12,VRB,2,,20,30.29,1033.6,,,,,,,,,,FEW,20000,,,,,,,VFR,,,,,,,,,,,,METAR,1173
CWST 272200Z AUTO 20015G20KT M02/M04 RMK AO1 SOG 14 8029 PK WND 20023/2131 SLP869 T10191039,CWST,2025-01-27T22:00:00Z,47.354,-70.03,-1.9,-3.9,200,15,20,,0.00,986.9,,TRUE,TRUE,,,,,,,,,,,,,,,,,,,,,,,,,,,METAR,31
CWSS 272200Z AUTO 20007KT M01/M09 RMK AO1 SOG 13 6022 SLP998 T10101090,CWSS,2025-01-27T22:00:00Z,45.21,-67.253,-1,-9,200,7,,,0.00,999.8,,TRUE,TRUE,,,,,,,,,,,,,,,,,,,,,,,,,,,METAR,27
CWSR 272200Z AUTO 25013KT 01/M07 RMK AO1 SOG 13 8033 PK WND 25017/2143 SLP089 T00101066,CWSR,2025-01-27T22:00:00Z,53.368,-107.553,1,-6.6,250,13,,,0.00,1008.9,,TRUE,TRUE,,,,,,,,,,,,,,,,,,,,,,,,,,,METAR,589
CWSP 272200Z AUTO 12012KT 06/03 RMK AO1 SLP283 T00600026 56022,CWSP,2025-01-27T22:00:00Z,48.377,-123.921,6,2.6,120,12,,,0.00,1028.3,,TRUE,TRUE,,,,,,,,,,,,,,,,-0.22,,,,,,,,,,,METAR,2
CWSL 272200Z AUTO 29001KT M02/M06 RMK AO1 SOG 01 6021 SLP339 T10231064,CWSL,2025-01-27T22:00:00Z,50.703,-119.291,-2.3,-6.4,290,1,,,0.00,1033.9,,TRUE,TRUE,,,,,,,,,,,,,,,,,,,,,,,,,,,METAR,353
CWSK 272200Z AUTO 27001KT 08/M04 RMK AO1 SLP276 T00821036 56029,CWSK,2025-01-27T22:00:00Z,49.783,-123.161,8.2,-3.6,270,1,,,0.00,1027.6,,TRUE,TRUE,,,,,,,,,,,,,,,,-0.29,,,,,,,,,,,METAR,59
CWSG 272200Z AUTO 19019G29KT M03/M08 RMK AO1 PK WND 18033/2102 SLP855 T10291080 56045,CWSG,2025-01-27T22:00:00Z,49.109,-66.655,-2.9,-8,190,19,29,,0.00,985.5,,TRUE,TRUE,,,,,,,,,,,,,,,,-0.45,,,,,,,,,,,METAR,5
CWSF 272200Z AUTO 18021G30KT M04/M09 RMK AO1 SOG 33 6049 PK WND 19039/2113 SLP878 T10391090,CWSF,2025-01-27T22:00:00Z,49.251,-65.325,-3.9,-9,180,21,30,,0.00,987.8,,TRUE,TRUE,,,,,,,,,,,,,,,,,,,,,,,,,,,METAR,15
CWSD 272200Z AUTO 19019KT M02/M06 RMK AO1 SOG 03 6043 PK WND 18026/2107 SLP983 T10241055,CWSD,2025-01-27T22:00:00Z,46.441,-63.837,-2.4,-5.5,190,19,,,0.00,998.3,,TRUE,TRUE,,,,,,,,,,,,,,,,,,,,,,,,,,,METAR,12
CWRZ 272200Z AUTO 19034G40KT M02/M07 RMK AO1 PK WND 19040/2159 SLP923 T10201074 56047,CWRZ,2025-01-27T22:00:00Z,48.419,-64.317,-2,-7.4,190,34,40,,0.00,992.3,,TRUE,TRUE,,,,,,,,,,,,,,,,-0.47,,,,,,,,,,,METAR,16
CWRY 272200Z AUTO 27008KT 03/M04 RMK AO1 SOG 19 8027 SLP207 T00331043,CWRY,2025-01-27T22:00:00Z,49.133,-112.051,3.3,-4.3,270,8,,,0.00,1020.7,,TRUE,TRUE,,,,,,,,,,,,,,,,,,,,,,,,,,,METAR,1048
CWRU 272200Z AUTO 27005KT 06/01 RMK AO1 SLP287 T00620011 56016,CWRU,2025-01-27T22:00:00Z,50.112,-127.941,6.2,1.1,270,5,,,0.00,1028.7,,TRUE,TRUE,,,,,,,,,,,,,,,,-0.16,,,,,,,,,,,METAR,76
CWRT 272200Z AUTO 29012G20KT M00/M11 RMK AO1 PK WND 30022/2126 SLP263 T10041106 56027,CWRT,2025-01-27T22:00:00Z,49.628,-114.482,-0.4,-10.6,290,12,20,,0.00,1026.3,,TRUE,TRUE,,,,,,,,,,,,,,,,-0.27,,,,,,,,,,,METAR,1311
CWRO 272200Z AUTO 17007KT 05/03 RMK AO1 SLP310 T00530034 56006,CWRO,2025-01-27T22:00:00Z,54.161,-131.66,5.3,3.4,170,7,,,0.00,1031,,TRUE,TRUE,,,,,,,,,,,,,,,,-0.06,,,,,,,,,,,METAR,7
CWRN 272200Z AUTO 18014G21KT M00/M05 RMK AO1 PK WND 18021/2154 SLP061 T10041050 58023,CWRN,2025-01-27T22:00:00Z,45.347,-60.98,-0.4,-5,180,14,21,,0.00,1006.1,,TRUE,TRUE,,,,,,,,,,,,,,,,-0.23,,,,,,,,,,,METAR,8
CWRM 272200Z AUTO 00000KT 10/M09 RMK AO1 SOG 12 6024 SLP140 T01041094,CWRM,2025-01-27T22:00:00Z,52.431,-114.907,10.4,-9.4,0,0,,,0.00,1014,,TRUE,TRUE,,,,,,,,,,,,,,,,,,,,,,,,,,,METAR,986
CWRK 272200Z AUTO 23006KT M01/M10 RMK AO1 SOG 17 6019 PK WND 21023/2134 SLP920 T10131097,CWRK,2025-01-27T22:00:00Z,45.072,-77.879,-1.3,-9.7,230,6,,,0.00,992,,TRUE,TRUE,,,,,,,,,,,,,,,,,,,,,,,,,,,METAR,328
CWRJ 272200Z AUTO 28008KT M00/M05 RMK AO1 SOG 16 6014 SLP139 T10031050,CWRJ,2025-01-27T22:00:00Z,51.565,-107.924,-0.3,-5,280,8,,,0.00,1013.9,,TRUE,TRUE,,,,,,,,,,,,,,,,,,,,,,,,,,,METAR,586
CWRA 272200Z AUTO 21020G25KT M02/M04 RMK AO1 3PAST HR 1016 PK WND 23027/2112 SLP081 P0001 T10191044 50003,CWRA,2025-01-27T22:00:00Z,46.659,-53.073,-1.9,-4.4,210,20,25,,0.00,1008.1,,TRUE,TRUE,,,,,,,,,,,,,,,,0.03,,,,,0.01,,,,,,METAR,4
CWQV 272200Z AUTO 25013G19KT M00/M08 RMK AO1 PK WND 25030/2138 T10041080,CWQV,2025-01-27T22:00:00Z,48.26,-70.116,-0.4,-8,250,13,19,,0.00,,,TRUE,TRUE,,,,,,,,,,,,,,,,,,,,,,,,,,,METAR,4
CWQS 272200Z AUTO 20005KT 06/04 RMK AO1 SLP314 T00550043 58004,CWQS,2025-01-27T22:00:00Z,53.316,-132.772,5.5,4.3,200,5,,,0.00,1031.4,,TRUE,TRUE,,,,,,,,,,,,,,,,-0.04,,,,,,,,,,,METAR,10
CWQR 272200Z AUTO 18030G37KT M03/M07 RMK AO1 PK WND 18038/2147 T10311073,CWQR,2025-01-27T22:00:00Z,50.221,-64.207,-3.1,-7.3,180,30,37,,0.00,,,TRUE,TRUE,,,,,,,,,,,,,,,,,,,,,,,,,,,METAR,9
CWQP 272200Z AUTO 23040G51KT 01/M07 RMK AO1 SOG 15 6036 PK WND 23051/2156 SLP986 T00051066,CWQP,2025-01-27T22:00:00Z,43.84,-77.153,0.5,-6.6,230,40,51,,0.00,998.6,,TRUE,TRUE,,,,,,,,,,,,,,,,,,,,,,,,,,,METAR,77
CWQO 272200Z AUTO 20022G32KT M01/M05 RMK AO1 PK WND 21036/2112 T10141051,CWQO,2025-01-27T22:00:00Z,48.416,-68.893,-1.4,-5.1,200,22,32,,0.00,,,TRUE,TRUE,,,,,,,,,,,,,,,,,,,,,,,,,,,METAR,7
CWQK 272200Z AUTO 09011KT 07/ RMK AO1 SLP278 T0068 56022,CWQK,2025-01-27T22:00:00Z,48.298,-123.531,6.8,,90,11,,,0.00,1027.8,,TRUE,TRUE,,,,,,,,,,,,,,,,-0.22,,,,,,,,,,,METAR,5
CWQH 272200Z AUTO 20021G28KT 01/M10 RMK AO1 SOG 08 6032 PK WND 22030/2119 SLP937 T00141100,CWQH,2025-01-27T22:00:00Z,45.369,-71.824,1.4,-10,200,21,28,,0.00,993.7,,TRUE,TRUE,,,,,,,,,,,,,,,,,,,,,,,,,,,METAR,181
CWPZ 272200Z AUTO 00000KT M03/ RMK AO1 SOG 24 6021 SLP293 T1034,CWPZ,2025-01-27T22:00:00Z,54.383,-125.959,-3.4,,0,0,,,0.00,1029.3,,TRUE,TRUE,,,,,,,,,,,,,,,,,,,,,,,,,,,METAR,715
CWPR 272200Z AUTO 35001KT M03/M11 RMK AO1 SOG 17 6036 SLP323 T10301109,CWPR,2025-01-27T22:00:00Z,49.468,-120.514,-3,-10.9,350,1,,,0.00,1032.3,,TRUE,TRUE,,,,,,,,,,,,,,,,,,,,,,,,,,,METAR,703
CWPO 272200Z AUTO 30013KT M01/M04 RMK AO1 SOG 36 3013 SLP118 T10071040,CWPO,2025-01-27T22:00:00Z,49.191,-98.905,-0.7,-4,300,13,,,0.00,1011.8,,TRUE,TRUE,,,,,,,,,,,,,,,,,,,,,,,,,,,METAR,471
CWPK 272200Z AUTO 21008G15KT M04/M06 RMK AO1 7PAST HR SOG 36 6017 PK WND 22022/2108 SLP805 P0003 T10391055 50024,CWPK,2025-01-27T22:00:00Z,47.922,-74.624,-3.9,-5.5,210,8,15,,0.00,980.5,,TRUE,TRUE,,,,,,,,,,,,,,,,0.24,,,,,0.03,,,,,,METAR,443
CWPE 272200Z AUTO 22016G26KT 01/M04 RMK AO1 SOG 14 7025 PK WND 20035/2115 SLP005 T00101035,CWPE,2025-01-27T22:00:00Z,45.058,-66.459,1,-3.5,220,16,26,,0.00,1000.5,,TRUE,TRUE,,,,,,,,,,,,,,,,,,,,,,,,,,,METAR,9
CWPD 272200Z AUTO 19009G21KT M07/M09 RMK AO1 0PAST HR 6020 PK WND 20022/2123 SLP849 P0004 T10741088 50045,CWPD,2025-01-27T22:00:00Z,47.562,-71.229,-7.4,-8.8,190,9,21,,0.00,984.9,,TRUE,TRUE,,,,,,,,,,,,,,,,0.45,,,,,0.04,,,,,,METAR,795
CWOY 272200Z AUTO 25009KT M02/M05 RMK AO1 SOG 22 6012 SLP117 T10201048,CWOY,2025-01-27T22:00:00Z,51.767,-104.2,-2,-4.8,250,9,,,0.00,1011.7,,TRUE,TRUE,,,,,,,,,,,,,,,,,,,,,,,,,,,METAR,557
CWOE 272200Z AUTO 28014KT M01/M07 RMK AO1 PK WND 32024/2112 SLP200 T10051066 56016,CWOE,2025-01-27T22:00:00Z,49.123,-110.469,-0.5,-6.6,280,14,,,0.00,1020,,TRUE,TRUE,,,,,,,,,,,,,,,,-0.16,,,,,,,,,,,METAR,931
CWOD 272200Z AUTO 19014KT M03/M04 RMK AO1 SOG 20 6015 PK WND 20022/2106 SLP785 T10261044,CWOD,2025-01-27T22:00:00Z,48.842,-72.546,-2.6,-4.4,190,14,,,0.00,978.5,,TRUE,TRUE,,,,,,,,,,,,,,,,,,,,,,,,,,,METAR,150
CWOC 272200Z AUTO 18011G19KT M02/M10 RMK AO1 SOG 02 6042 PK WND 19019/2156 SLP926 T10191100,CWOC,2025-01-27T22:00:00Z,48.012,-65.332,-1.9,-10,180,11,19,,0.00,992.6,,TRUE,TRUE,,,,,,,,,,,,,,,,,,,,,,,,,,,METAR,42
CWNZ 272200Z AUTO 32010G19KT M16/M20 RMK AO1 SOG 41 3050 PK WND 33021/2101 SLP958 T11561199,CWNZ,2025-01-27T22:00:00Z,49.747,-84.164,-15.6,-19.9,320,10,19,,0.00,995.8,,TRUE,TRUE,,,,,,,,,,,,,,,,,,,,,,,,,,,METAR,261
CWNQ 272200Z AUTO 22023G34KT 01/M06 RMK AO1 PK WND 23036/2113 SLP897 T00081063 56022,CWNQ,2025-01-27T22:00:00Z,46.226,-72.657,0.8,-6.3,220,23,34,,0.00,989.7,,TRUE,TRUE,,,,,,,,,,,,,,,,-0.22,,,,,,,,,,,METAR,9
CWNP 272200Z AUTO 00000KT M04/M08 RMK AO1 SOG 09 6019 SLP349 T10401075,CWNP,2025-01-27T22:00:00Z,50.269,-117.817,-4,-7.5,0,0,,,0.00,1034.9,,TRUE,TRUE,,,,,,,,,,,,,,,,,,,,,,,,,,,METAR,517
CWNM 272200Z AUTO 35001KT M00/M08 RMK AO1 SLP336 T10021079 58024,CWNM,2025-01-27T22:00:00Z,49.491,-117.305,-0.2,-7.9,350,1,,,0.00,1033.6,,TRUE,TRUE,,,,,,,,,,,,,,,,-0.24,,,,,,,,,,,METAR,533
CWNK 272200Z AUTO 34007KT M02/M05 RMK AO1 SLP105 T10201053 53020,CWNK,2025-01-27T22:00:00Z,49.498,-98.03,-2,-5.3,340,7,,,0.00,1010.5,,TRUE,TRUE,,,,,,,,,,,,,,,,0.2,,,,,,,,,,,METAR,271
CWNH 272200Z AUTO 18011G21KT M03/M05 RMK AO1 SOG 23 8023 PK WND 19025/2108 SLP866 T10301050,CWNH,2025-01-27T22:00:00Z,47.806,-69.548,-3,-5,180,11,21,,0.00,986.6,,TRUE,TRUE,,,,,,,,,,,,,,,,,,,,,,,,,,,METAR,147
CWNE 272200Z AUTO 18011G19KT M03/M06 RMK AO1 PK WND 19022/2144 SLP968 T10281055 58047,CWNE,2025-01-27T22:00:00Z,47.058,-63.997,-2.8,-5.5,180,11,19,,0.00,996.8,,TRUE,TRUE,,,,,,,,,,,,,,,,-0.47,,,,,,,,,,,METAR,5
CWND 272200Z AUTO 10018KT M18/M20 RMK AO1 PK WND 10023/2116 SLP002 T11791202 53013,CWND,2025-01-27T22:00:00Z,69.632,-135.445,-17.9,-20.2,100,18,,,0.00,1000.2,,TRUE,TRUE,,,,,,,,,,,,,,,,0.13,,,,,,,,,,,METAR,14
CWNC 272200Z AUTO 25037G49KT M00/M05 RMK AO1 PK WND 25049/2106 SLP966 T10041052 56034,CWNC,2025-01-27T22:00:00Z,43.951,-78.165,-0.4,-5.2,250,37,49,,0.00,996.6,,TRUE,TRUE,,,,,,,,,,,,,,,,-0.34,,,,,,,,,,,METAR,71
CWMT 272200Z AUTO 03005KT M09/M11 RMK AO1 6PAST HR SOG 30 5012 SLP978 P0002 T10901106 50006,CWMT,2025-01-27T22:00:00Z,63.134,-117.245,-9,-10.6,30,5,,,0.00,997.8,,TRUE,TRUE,,,,,,,,,,,,,,,,0.06,,,,,0.02,,,,,,METAR,274
CWMQ 272200Z AUTO 26009KT 04/M05 RMK AO1 SOG 05 6017 SLP176 T00411052,CWMQ,2025-01-27T22:00:00Z,49.903,-109.466,4.1,-5.2,260,9,,,0.00,1017.6,,TRUE,TRUE,,,,,,,,,,,,,,,,,,,,,,,,,,,METAR,767
CWMM 272200Z AUTO 23001KT 08/M02 RMK AO1 SLP280 T00781022 58027,CWMM,2025-01-27T22:00:00Z,49.208,-122.69,7.8,-2.2,230,1,,,0.00,1028,,TRUE,TRUE,,,,,,,,,,,,,,,,-0.27,,,,,,,,,,,METAR,2
CWMJ 272200Z AUTO 22016G24KT M01/M04 RMK AO1 SOG 14 6011 PK WND 23031/2115 SLP877 T10141044,CWMJ,2025-01-27T22:00:00Z,46.275,-75.992,-1.4,-4.4,220,16,24,,0.00,987.7,,TRUE,TRUE,,,,,,,,,,,,,,,,,,,,,,,,,,,METAR,198
CWME 272200Z AUTO 00007KT 02/M00 RMK AO1 SLP303 T00221002 58017,CWME,2025-01-27T22:00:00Z,52.187,-127.471,2.2,-0.2,VRB,7,,,0.00,1030.3,,TRUE,TRUE,,,,,,,,,,,,,,,,-0.17,,,,,,,,,,,METAR,23
CWLY 272200Z AUTO 02004KT 340V060 9SM CLR M01/M08 A3044 RMK SLP324,CWLY,2025-01-27T22:00:00Z,50.224,-121.582,-1,-8,20,4,,9,30.44,1032.4,,TRUE,,,,,,,,CLR,,,,,,,,VFR,,,,,,,,,,,,METAR,228
CWLS 272200Z AUTO 23016G24KT M04/M09 RMK AO1 SOG 26 6027 PK WND 24027/2110 SLP973 T10431088,CWLS,2025-01-27T22:00:00Z,43.983,-80.74,-4.3,-8.8,230,16,24,,0.00,997.3,,TRUE,TRUE,,,,,,,,,,,,,,,,,,,,,,,,,,,METAR,413
CWLP 272200Z AUTO 26003KT 05/ RMK AO1 SLP300 T0052 58014,CWLP,2025-01-27T22:00:00Z,50.94,-127.632,5.2,,260,3,,,0.00,1030,,TRUE,TRUE,,,,,,,,,,,,,,,,-0.14,,,,,,,,,,,METAR,15
CWLM 272200Z AUTO 03005KT 07/01 RMK AO1 SLP271 T00670011 58023,CWLM,2025-01-27T22:00:00Z,48.413,-123.325,6.7,1.1,30,5,,,0.00,1027.1,,TRUE,TRUE,,,,,,,,,,,,,,,,-0.23,,,,,,,,,,,METAR,62
CWLE 272200Z AUTO 30020KT M02/M06 RMK AO1 SOG 28 5011 PK WND 30024/2100 SLP146 T10181059,CWLE,2025-01-27T22:00:00Z,50.951,-107.143,-1.8,-5.9,300,20,,,0.00,1014.6,,TRUE,TRUE,,,,,,,,,,,,,,,,,,,,,,,,,,,METAR,666
CWLC 272200Z AUTO 16007KT 02/01 RMK AO1 T00220014,CWLC,2025-01-27T22:00:00Z,54.296,-130.609,2.2,1.4,160,7,,,0.00,,,TRUE,TRUE,,,,,,,,,,,,,,,,,,,,,,,,,,,METAR,27
CWLB 272200Z AUTO 26011KT 05/M08 RMK AO1 SOG 15 8036 SLP088 T00471080,CWLB,2025-01-27T22:00:00Z,54.769,-112.024,4.7,-8,260,11,,,0.00,1008.8,,TRUE,TRUE,,,,,,,,,,,,,,,,,,,,,,,,,,,METAR,561
CWKX 272200Z AUTO 18005KT 01/M02 RMK AO1 SOG 37 8009 SLP245 T00051024,CWKX,2025-01-27T22:00:00Z,58.429,-130.011,0.5,-2.4,180,5,,,0.00,1024.5,,TRUE,TRUE,,,,,,,,,,,,,,,,,,,,,,,,,,,METAR,807
CWKO 272200Z AUTO 28011KT 01/M05 RMK AO1 SOG 06 6011 SLP168 T00071054,CWKO,2025-01-27T22:00:00Z,49.168,-105.979,0.7,-5.4,280,11,,,0.00,1016.8,,TRUE,TRUE,,,,,,,,,,,,,,,,,,,,,,,,,,,METAR,914
CWKM 272200Z AUTO 23005KT ////SM ////// ///// A////,CWKM,2025-01-27T22:00:00Z,69.595,-140.174,,,230,5,,,0.00,,,TRUE,,,,,,,,,,,,,,,,,,,,,,,,,,,,METAR,8
CWKK 272200Z AUTO 33023KT M14/M20 RMK AO1 SOG 11 1048 PK WND 33027/2154 SLP019 T11371196,CWKK,2025-01-27T22:00:00Z,49.713,-88.332,-13.7,-19.6,330,23,,,0.00,1001.9,,TRUE,TRUE,,,,,,,,,,,,,,,,,,,,,,,,,,,METAR,259
CWKH 272200Z AUTO 04/M01 RMK AO1 SLP266 T00441014 56020,CWKH,2025-01-27T22:00:00Z,48.568,-123.542,4.4,-1.4,,,,,0.00,1026.6,,TRUE,TRUE,,,,,,,,,,,,,,,,-0.2,,,,,,,,,,,METAR,327
CWKG 272200Z AUTO 24005KT M01/M06 RMK AO1 SOG 10 6017 SLP041 T10141062 50003,CWKG,2025-01-27T22:00:00Z,44.432,-65.203,-1.4,-6.2,240,5,,,0.00,1004.1,,TRUE,TRUE,,,,,,,,,,,,,,,,0.03,,,,,,,,,,,METAR,154
CWJX 272200Z AUTO 24013KT M00/M05 RMK AO1 SOG 29 8012 PK WND 24017/2118 SLP164 T10031052,CWJX,2025-01-27T22:00:00Z,50.876,-109.501,-0.3,-5.2,240,13,,,0.00,1016.4,,TRUE,TRUE,,,,,,,,,,,,,,,,,,,,,,,,,,,METAR,671
CWJW 272200Z AUTO 23006KT M02/M10 RMK AO1 SOG 06 6026 SLP287 T10191098,CWJW,2025-01-27T22:00:00Z,52.926,-118.03,-1.9,-9.8,230,6,,,0.00,1028.7,,TRUE,TRUE,,,,,,,,,,,,,,,,,,,,,,,,,,,METAR,1022
CWJV 272200Z AUTO 24002KT M04/M07 RMK AO1 SLP345 T10391073 56022,CWJV,2025-01-27T22:00:00Z,50.223,-119.194,-3.9,-7.3,240,2,,,0.00,1034.5,,TRUE,TRUE,,,,,,,,,,,,,,,,-0.22,,,,,,,,,,,METAR,487
CWJU 272200Z AUTO 21008KT 06/ RMK AO1 8006 PK WND 19018/2144 SLP300 T0055 50001,CWJU,2025-01-27T22:00:00Z,54.255,-133.058,5.5,,210,8,,,0.00,1030,,TRUE,TRUE,,,,,,,,,,,,,,,,0.01,,,,,,,,,,,METAR,47
CWJR 272200Z AUTO 24003KT M01/M07 RMK AO1 SLP327 T10061071 58032,CWJR,2025-01-27T22:00:00Z,49.04,-116.483,-0.6,-7.1,240,3,,,0.00,1032.7,,TRUE,TRUE,,,,,,,,,,,,,,,,-0.32,,,,,,,,,,,METAR,642
CWJO 272200Z AUTO 21026G35KT M02/M07 RMK AO1 PK WND 21038/2144 SLP805 T10181073 57024,CWJO,2025-01-27T22:00:00Z,48.425,-71.143,-1.8,-7.3,210,26,35,,0.00,980.5,,TRUE,TRUE,,,,,,,,,,,,,,,,-0.24,,,,,,,,,,,METAR,113
CWJI 272200Z AUTO 27013KT M01/M05 RMK AO1 SOG 26 6011 PK WND 28017/2102 SLP160 T10091053,CWJI,2025-01-27T22:00:00Z,49.729,-105.946,-0.9,-5.3,270,13,,,0.00,1016,,TRUE,TRUE,,,,,,,,,,,,,,,,,,,,,,,,,,,METAR,724
CWJH 272200Z AUTO 18002KT M11/M16 RMK AO1 SOG 56 8033 SLP086 T11071157,CWJH,2025-01-27T22:00:00Z,56.333,-103.283,-10.7,-15.7,180,2,,,0.00,1008.6,,TRUE,TRUE,,,,,,,,,,,,,,,,,,,,,,,,,,,METAR,345
CWJD 272200Z AUTO 31002KT M08/M16 RMK AO1 SOG 48 8001 SLP107 T10821155,CWJD,2025-01-27T22:00:00Z,53.187,-99.268,-8.2,-15.5,310,2,,,0.00,1010.7,,TRUE,TRUE,,,,,,,,,,,,,,,,,,,,,,,,,,,METAR,222
CWJC 272200Z AUTO 27006KT M26/M29 RMK AO1 SLP081 T12601287 58015,CWJC,2025-01-27T22:00:00Z,61.132,-100.884,-26,-28.7,270,6,,,0.00,1008.1,,TRUE,TRUE,,,,,,,,,,,,,,,,-0.15,,,,,,,,,,,METAR,340
CWJB 272200Z AUTO 22015G28KT M00/M05 RMK AO1 SOG 15 PK WND 22028/2200 T10031053 50009,CWJB,2025-01-27T22:00:00Z,46.781,-71.288,-0.3,-5.3,220,15,28,,0.00,,,TRUE,TRUE,,,,,,,,,,,,,,,,0.09,,,,,,,,,,,METAR,90
CWIZ 272200Z AUTO 21017G25KT 02/M10 RMK AO1 SOG 08 PK WND 21032/2111 T00241098 50003,CWIZ,2025-01-27T22:00:00Z,45.294,-73.35,2.4,-9.8,210,17,25,,0.00,,,TRUE,TRUE,,,,,,,,,,,,,,,,0.03,,,,,,,,,,,METAR,45
CWIW 272200Z AUTO 27013KT M02/M06 RMK AO1 SOG 25 6022 PK WND 25017/2154 SLP119 T10221056,CWIW,2025-01-27T22:00:00Z,51.667,-105.4,-2.2,-5.6,270,13,,,0.00,1011.9,,TRUE,TRUE,,,,,,,,,,,,,,,,,,,,,,,,,,,METAR,524
CWIT 272200Z AUTO 22011G23KT 03/M12 RMK AO1 SOG 11 6036 PK WND 22023/2150 SLP926 T00311120,CWIT,2025-01-27T22:00:00Z,45.167,-73.678,3.1,-12,220,11,23,,0.00,992.6,,TRUE,TRUE,,,,,,,,,,,,,,,,,,,,,,,,,,,METAR,53
CWIS 272200Z AUTO 23011G22KT M07/M08 RMK AO1 2PAST HR SOG 66 7019 PK WND 23025/2142 SLP850 P0009 T10691079 50080,CWIS,2025-01-27T22:00:00Z,47.284,-70.637,-6.9,-7.9,230,11,22,,0.00,985,,TRUE,TRUE,,,,,,,,,,,,,,,,0.8,,,,,0.09,,,,,,METAR,720
CWIP 272200Z AUTO 18016G26KT M04/M06 RMK AO1 PK WND 18032/2143 T10351058,CWIP,2025-01-27T22:00:00Z,50.162,-66.434,-3.5,-5.8,180,16,26,,0.00,,,TRUE,TRUE,,,,,,,,,,,,,,,,,,,,,,,,,,,METAR,27
CWIK 272200Z AUTO 29007KT M02/M05 RMK AO1 SOG 15 6005 PK WND 28019/2126 SLP123 T10171046,CWIK,2025-01-27T22:00:00Z,50.366,-102.567,-1.7,-4.6,290,7,,,0.00,1012.3,,TRUE,TRUE,,,,,,,,,,,,,,,,,,,,,,,,,,,METAR,597
CWIJ 272200Z AUTO 04007KT M26/M29 RMK AO1 T12611288,CWIJ,2025-01-27T22:00:00Z,65.756,-111.246,-26.1,-28.8,40,7,,,0.00,,,TRUE,TRUE,,,,,,,,,,,,,,,,,,,,,,,,,,,METAR,490
CWII 272200Z AUTO 31004KT M10/M14 RMK AO1 SLP111 T10981144 51024,CWII,2025-01-27T22:00:00Z,50.695,-96.562,-9.8,-14.4,310,4,,,0.00,1011.1,,TRUE,TRUE,,,,,,,,,,,,,,,,0.24,,,,,,,,,,,METAR,216
CWIG 272200Z AUTO 22021G28KT RMK AO1 PK WND 21032/2100,CWIG,2025-01-27T22:00:00Z,47.074,-70.533,,,220,21,28,,0.00,,,TRUE,TRUE,,,,,,,,,,,,,,,,,,,,,,,,,,,METAR,12
CWID 272200Z AUTO 30007KT M04/M05 RMK AO1 SLP974 T10441053 55007,CWID,2025-01-27T22:00:00Z,61.317,-117.605,-4.4,-5.3,300,7,,,0.00,997.4,,TRUE,TRUE,,,,,,,,,,,,,,,,-0.07,,,,,,,,,,,METAR,160
CWHV 272200Z AUTO 20007G19KT M01/M06 RMK AO1 PK WND 21019/2151 SLP910 T10121060 56033,CWHV,2025-01-27T22:00:00Z,46.205,-70.785,-1.2,-6,200,7,19,,0.00,991,,TRUE,TRUE,,,,,,,,,,,,,,,,-0.33,,,,,,,,,,,METAR,227
CWHT 272200Z AUTO 02007KT 01/M07 RMK AO1 SOG 28 1001 PK WND 11019/2127 SLP142 T00111072,CWHT,2025-01-27T22:00:00Z,60.773,-137.581,1.1,-7.2,20,7,,,0.00,1014.2,,TRUE,TRUE,,,,,,,,,,,,,,,,,,,,,,,,,,,METAR,601
CWHQ 272200Z AUTO 24007G16KT M00/M06 RMK AO1 PK WND 28018/2115 T10021056 50021,CWHQ,2025-01-27T22:00:00Z,46.691,-71.972,-0.2,-5.6,240,7,16,,0.00,,,TRUE,TRUE,,,,,,,,,,,,,,,,0.21,,,,,,,,,,,METAR,56
CWHL 272200Z AUTO 14007KT 02/01 RMK AO1 SLP312 T00220010 58009,CWHL,2025-01-27T22:00:00Z,54.172,-130.361,2.2,1,140,7,,,0.00,1031.2,,TRUE,TRUE,,,,,,,,,,,,,,,,-0.09,,,,,,,,,,,METAR,5
CWGY 272200Z AUTO 26019KT 01/M06 RMK AO1 SOG 29 8016 PK WND 26022/2122 SLP150 T00141057,CWGY,2025-01-27T22:00:00Z,51.67,-110.206,1.4,-5.7,260,19,,,0.00,1015,,TRUE,TRUE,,,,,,,,,,,,,,,,,,,,,,,,,,,METAR,709
CWGW 272200Z AUTO 08002KT M04/M12 RMK AO1 SOG 13 6027 SLP333 T10411121,CWGW,2025-01-27T22:00:00Z,49.745,-114.884,-4.1,-12.1,80,2,,,0.00,1033.3,,TRUE,TRUE,,,,,,,,,,,,,,,,,,,,,,,,,,,METAR,1137
CWGT 272200Z AUTO 31009KT 05/01 RMK AO1 SLP286 T00540014 58019,CWGT,2025-01-27T22:00:00Z,49.487,-124.435,5.4,1.4,310,9,,,0.00,1028.6,,TRUE,TRUE,,,,,,,,,,,,,,,,-0.19,,,,,,,,,,,METAR,5
CWGR 272200Z AUTO 17015G22KT M03/M09 RMK AO1 PK WND 17025/2141 SLP001 T10301092 58033,CWGR,2025-01-27T22:00:00Z,47.425,-61.775,-3,-9.2,170,15,22,,0.00,1000.1,,TRUE,TRUE,,,,,,,,,,,,,,,,-0.33,,,,,,,,,,,METAR,4
CWGM 272200Z AUTO 22027G37KT 02/M12 RMK AO1 PK WND 21037/2102 SLP214 T00171115 58024,CWGM,2025-01-27T22:00:00Z,49.133,-113.806,1.7,-11.5,220,27,37,,0.00,1021.4,,TRUE,TRUE,,,,,,,,,,,,,,,,-0.24,,,,,,,,,,,METAR,1292
CWGL 272200Z AUTO 23029G34KT M03/M06 RMK AO1 PK WND 23036/2127 SLP931 T10291055 56025,CWGL,2025-01-27T22:00:00Z,44.55,-79.218,-2.9,-5.5,230,29,34,,0.00,993.1,,TRUE,TRUE,,,,,,,,,,,,,,,,-0.25,,,,,,,,,,,METAR,220
CWGH 272200Z AUTO 23009G20KT 02/M09 RMK AO1 PK WND 25025/2122 SLP958 T00151090 56035,CWGH,2025-01-27T22:00:00Z,44.417,-75.847,1.5,-9,230,9,20,,0.00,995.8,,TRUE,TRUE,,,,,,,,,,,,,,,,-0.35,,,,,,,,,,,METAR,76
CWGD 272200Z AUTO 22022G32KT 01/M06 RMK AO1 SOG 09 6030 PK WND 23035/2109 SLP989 T00101063,CWGD,2025-01-27T22:00:00Z,43.765,-81.712,1,-6.3,220,22,32,,0.00,998.9,,TRUE,TRUE,,,,,,,,,,,,,,,,,,,,,,,,,,,METAR,214
CWFQ 272200Z AUTO 18009G18KT 02/M11 RMK AO1 SOG 16 8032 PK WND 21028/2139 SLP934 T00161110,CWFQ,2025-01-27T22:00:00Z,45.05,-72.861,1.6,-11,180,9,18,,0.00,993.4,,TRUE,TRUE,,,,,,,,,,,,,,,,,,,,,,,,,,,METAR,190
CWFJ 272200Z AUTO 21003KT 08/M07 RMK AO1 SLP193 T00811069 58027,CWFJ,2025-01-27T22:00:00Z,49.2,-113.278,8.1,-6.9,210,3,,,0.00,1019.3,,TRUE,TRUE,,,,,,,,,,,,,,,,-0.27,,,,,,,,,,,METAR,1142
CWFF 272200Z AUTO 26009KT M00/M03 RMK AO1 SOG 21 8020 SLP093 T10041033,CWFF,2025-01-27T22:00:00Z,52.817,-104.601,-0.4,-3.3,260,9,,,0.00,1009.3,,TRUE,TRUE,,,,,,,,,,,,,,,,,,,,,,,,,,,METAR,482
CWEZ 272200Z AUTO 26002KT 06/02 RMK AO1 SLP280 T00590022 58022,CWEZ,2025-01-27T22:00:00Z,48.783,-123.046,5.9,2.2,260,2,,,0.00,1028,,TRUE,TRUE,,,,,,,,,,,,,,,,-0.22,,,,,,,,,,,METAR,23
CWEW 272200Z AUTO 22020G31KT 01/M08 RMK AO1 SOG 14 6029 PK WND 20039/2124 SLP910 T00121075,CWEW,2025-01-27T22:00:00Z,45.809,-73.435,1.2,-7.5,220,20,31,,0.00,991,,TRUE,TRUE,,,,,,,,,,,,,,,,,,,,,,,,,,,METAR,17
CWEU 272200Z 10009KT 15SM IC SKC M35/M39 A2966 RMK SLP065,CWEU,2025-01-27T22:00:00Z,79.989,-85.934,-35,-39,100,9,,15,29.66,1006.5,,,,,,,,,IC,SKC,,,,,,,,VFR,,,,,,,,,,,,METAR,2
CWER 272200Z AUTO 23020G25KT RMK AO1 PK WND 25029/2132,CWER,2025-01-27T22:00:00Z,46.997,-70.808,,,230,20,25,,0.00,,,TRUE,TRUE,,,,,,,,,,,,,,,,,,,,,,,,,,,METAR,4
CWEQ 272200Z AUTO 03006KT M06/M07 RMK AO1 SOG 36 0001 SLP105 T10581070,CWEQ,2025-01-27T22:00:00Z,52.115,-101.233,-5.8,-7,30,6,,,0.00,1010.5,,TRUE,TRUE,,,,,,,,,,,,,,,,,,,,,,,,,,,METAR,331
CWEP 272200Z AUTO 17019G27KT M02/M07 RMK AO1 SOG 38 8037 PK WND 19029/2145 SLP020 T10191073,CWEP,2025-01-27T22:00:00Z,46.46,-61.988,-1.9,-7.3,170,19,27,,0.00,1002,,TRUE,TRUE,,,,,,,,,,,,,,,,,,,,,,,,,,,METAR,9
CWEL 272200Z AUTO 31013KT 05/02 RMK AO1 SLP280 T00530021 58023,CWEL,2025-01-27T22:00:00Z,49.209,-123.808,5.3,2.1,310,13,,,0.00,1028,,TRUE,TRUE,,,,,,,,,,,,,,,,-0.23,,,,,,,,,,,METAR,
CWEK 272200Z AUTO 18005KT 03/02 RMK AO1 SLP312 T00310024 55004,CWEK,2025-01-27T22:00:00Z,54.58,-130.698,3.1,2.4,180,5,,,0.00,1031.2,,TRUE,TRUE,,,,,,,,,,,,,,,,-0.04,,,,,,,,,,,METAR,8
CWEH 272200Z AUTO 27014KT 02/M06 RMK AO1 SOG 03 6024 PK WND 29024/2106 SLP165 T00161055,CWEH,2025-01-27T22:00:00Z,49.438,-108.989,1.6,-5.5,270,14,,,0.00,1016.5,,TRUE,TRUE,,,,,,,,,,,,,,,,,,,,,,,,,,,METAR,1077
CWEF 272200Z AUTO 19015G21KT M04/M12 RMK AO1 PK WND 19025/2146 SLP035 T10441115 58011,CWEF,2025-01-27T22:00:00Z,47.226,-60.141,-4.4,-11.5,190,15,21,,0.00,1003.5,,TRUE,TRUE,,,,,,,,,,,,,,,,-0.11,,,,,,,,,,,METAR,27
CWEB 272200Z AUTO 32012KT 07/03 RMK AO1 SLP277 T00720034 58017,CWEB,2025-01-27T22:00:00Z,49.383,-126.543,7.2,3.4,320,12,,,0.00,1027.7,,TRUE,TRUE,,,,,,,,,,,,,,,,-0.17,,,,,,,,,,,METAR,1
CWDZ 272200Z AUTO 13005KT 04/M04 RMK AO1 SOG 22 6025 SLP178 T00411044,CWDZ,2025-01-27T22:00:00Z,51.445,-112.677,4.1,-4.4,130,5,,,0.00,1017.8,,TRUE,TRUE,,,,,,,,,,,,,,,,,,,,,,,,,,,METAR,689
CWDV 272200Z AUTO 34008G17KT M10/M21 RMK AO1 SOG 32 3037 PK WND 30020/2147 SLP015 T10951209,CWDV,2025-01-27T22:00:00Z,49.033,-90.467,-9.5,-20.9,340,8,17,,0.00,1001.5,,TRUE,TRUE,,,,,,,,,,,,,,,,,,,,,,,,,,,METAR,487
CWDQ 272200Z AUTO 18014G19KT M02/M06 RMK AO1 SOG 17 6022 PK WND 17023/2113 SLP847 T10201064,CWDQ,2025-01-27T22:00:00Z,47.415,-72.788,-2,-6.4,180,14,19,,0.00,984.7,,TRUE,TRUE,,,,,,,,,,,,,,,,,,,,,,,,,,,METAR,174
CWDO 272200Z AUTO 25016G24KT M04/M10 RMK AO1 SOG 01 1019 PK WND 25029/2125 SLP020 T10361104,CWDO,2025-01-27T22:00:00Z,49.688,-54.8,-3.6,-10.4,250,16,24,,0.00,1002,,TRUE,TRUE,,,,,,,,,,,,,,,,,,,,,,,,,,,METAR,89
CWDM 272200Z AUTO 20019G28KT M04/M09 RMK AO1 SOG 04 8022 PK WND 21029/2144 SLP973 T10351091,CWDM,2025-01-27T22:00:00Z,50.465,-59.64,-3.5,-9.1,200,19,28,,0.00,997.3,,TRUE,TRUE,,,,,,,,,,,,,,,,,,,,,,,,,,,METAR,2
CWDK 272200Z AUTO 18010KT 11/M07 RMK AO1 SOG 01 8038 SLP171 T01131068,CWDK,2025-01-27T22:00:00Z,50.006,-113.631,11.3,-6.8,180,10,,,0.00,1017.1,,TRUE,TRUE,,,,,,,,,,,,,,,,,,,,,,,,,,,METAR,1014
CWDJ 272200Z AUTO 27008KT M03/M06 RMK AO1 SOG 08 6010 SLP145 T10291055,CWDJ,2025-01-27T22:00:00Z,50.408,-104.58,-2.9,-5.5,270,8,,,0.00,1014.5,,TRUE,TRUE,,,,,,,,,,,,,,,,,,,,,,,,,,,METAR,576
CWDC 272200Z AUTO 09005KT M11/M13 RMK AO1 2PAST HR PRESFR SOG 67 8070 SLP004 P0005 T11101130 50024,CWDC,2025-01-27T22:00:00Z,59.56,-108.487,-11,-13,90,5,,,0.00,1000.4,,TRUE,TRUE,,,,,,,,,,,,,,,,0.24,,,,,0.05,,,,,,METAR,311
CWDA 272200Z AUTO 19005KT M06/M10 RMK AO1 SOG 11 2022 SLP005 T10611103,CWDA,2025-01-27T22:00:00Z,50.721,-56.113,-6.1,-10.3,190,5,,,0.00,1000.5,,TRUE,TRUE,,,,,,,,,,,,,,,,,,,,,,,,,,,METAR,30
CWCT 272200Z AUTO 26012KT M00/M05 RMK AO1 SOG 22 8019 SLP160 T10021050,CWCT,2025-01-27T22:00:00Z,52.074,-111.448,-0.2,-5,260,12,,,0.00,1016,,TRUE,TRUE,,,,,,,,,,,,,,,,,,,,,,,,,,,METAR,793
CWCJ 272200Z AUTO 35006KT M11/M21 RMK AO1 PRESRR SOG 29 3059 PK WND 01020/2102 SLP980 T11061207,CWCJ,2025-01-27T22:00:00Z,48.588,-86.295,-10.6,-20.7,350,6,,,0.00,998,,TRUE,TRUE,,,,,,,,,,,,,,,,,,,,,,,,,,,METAR,207
CWCF 272200Z AUTO 31009KT M12/M16 RMK AO1 SOG 20 3013 PK WND 31017/2122 SLP105 T11181161,CWCF,2025-01-27T22:00:00Z,52.36,-97.022,-11.8,-16.1,310,9,,,0.00,1010.5,,TRUE,TRUE,,,,,,,,,,,,,,,,,,,,,,,,,,,METAR,219
CWBZ 272200Z AUTO 22025G37KT 02/M11 RMK AO1 PK WND 21039/2122 SLP916 T00201114 57035,CWBZ,2025-01-27T22:00:00Z,45.121,-74.289,2,-11.4,220,25,37,,0.00,991.6,,TRUE,TRUE,,,,,,,,,,,,,,,,-0.35,,,,,,,,,,,METAR,49
CWBY 272200Z AUTO 18016G24KT M04/M10 RMK AO1 SOG 21 6040 PK WND 16030/2142 SLP900 T10441096,CWBY,2025-01-27T22:00:00Z,49.839,-64.293,-4.4,-9.6,180,16,24,,0.00,990,,TRUE,TRUE,,,,,,,,,,,,,,,,,,,,,,,,,,,METAR,56
CWBV 272200Z AUTO 21026KT 01/M03 RMK AO1 PK WND 20031/2124 SLP031 T00121030 57033,CWBV,2025-01-27T22:00:00Z,44.825,-62.338,1.2,-3,210,26,,,0.00,1003.1,,TRUE,TRUE,,,,,,,,,,,,,,,,-0.33,,,,,,,,,,,METAR,16
CWBU 272200Z AUTO 13006KT M02/M03 RMK AO1 SOG 17 8017 SLP081 T10201031,CWBU,2025-01-27T22:00:00Z,53.333,-104.005,-2,-3.1,130,6,,,0.00,1008.1,,TRUE,TRUE,,,,,,,,,,,,,,,,,,,,,,,,,,,METAR,369
CWBT 272200Z AUTO 18013G21KT M04/M08 RMK AO1 PK WND 19021/2155 SLP896 T10371076 56050,CWBT,2025-01-27T22:00:00Z,50.271,-64.226,-3.7,-7.6,180,13,21,,0.00,989.6,,TRUE,TRUE,,,,,,,,,,,,,,,,-0.5,,,,,,,,,,,METAR,12
CWBS 272200Z AUTO 22040G52KT 01/M06 RMK AO1 PK WND 22052/2156 T00051064,CWBS,2025-01-27T22:00:00Z,46.189,-72.916,0.5,-6.4,220,40,52,,0.00,,,TRUE,TRUE,,,,,,,,,,,,,,,,,,,,,,,,,,,METAR,3
CWBO 272200Z AUTO 26005KT 08/M05 RMK AO1 SOG 11 6023 SLP169 T00781046,CWBO,2025-01-27T22:00:00Z,50.55,-111.849,7.8,-4.6,260,5,,,0.00,1016.9,,TRUE,TRUE,,,,,,,,,,,,,,,,,,,,,,,,,,,METAR,752
CWBK 272200Z AUTO 17017G22KT M02/M06 RMK AO1 PK WND 17022/2153 SLP023 T10211059 58036,CWBK,2025-01-27T22:00:00Z,45.764,-62.681,-2.1,-5.9,170,17,22,,0.00,1002.3,,TRUE,TRUE,,,,,,,,,,,,,,,,-0.36,,,,,,,,,,,METAR,2
CWBA 272200Z AUTO 19006G20KT M01/M02 RMK AO1 4PAST HR SOG 33 M PK WND 19021/2146 P0002 T10101021 50013,CWBA,2025-01-27T22:00:00Z,46.71,-79.101,-1,-2.1,190,6,20,,0.00,,,TRUE,TRUE,,,,,,,,,,,,,,,,0.13,,,,,0.02,,,,,,METAR,181
CWAV 272200Z AUTO 20004KT 11/M09 RMK AO1 SOG 13 6034 SLP170 T01131091,CWAV,2025-01-27T22:00:00Z,51.777,-114.681,11.3,-9.1,200,4,,,0.00,1017,,TRUE,TRUE,,,,,,,,,,,,,,,,,,,,,,,,,,,METAR,1115
CWAR 272200Z AUTO 27023KT M01/M05 RMK AO1 SOG 04 1013 PK WND 25029/2134 SLP066 T10131049,CWAR,2025-01-27T22:00:00Z,47.294,-53.993,-1.3,-4.9,270,23,,,0.00,1006.6,,TRUE,TRUE,,,,,,,,,,,,,,,,,,,,,,,,,,,METAR,6
CWAQ 272200Z AUTO 27006KT 02/M04 RMK AO1 SLP161 T00171035 56010,CWAQ,2025-01-27T22:00:00Z,49.05,-105.483,1.7,-3.5,270,6,,,0.00,1016.1,,TRUE,TRUE,,,,,,,,,,,,,,,,-0.1,,,,,,,,,,,METAR,761
CWAF 272200Z AUTO 19038KT M02/M03 RMK AO1 PK WND 19046/2102 T10171028,CWAF,2025-01-27T22:00:00Z,48.069,-69.556,-1.7,-2.8,190,38,,,0.00,,,TRUE,TRUE,,,,,,,,,,,,,,,,,,,,,,,,,,,METAR,6
CWAE 272200Z VRB02KT 15SM SKC 02/M06 A3030 RMK SLP289,CWAE,2025-01-27T22:00:00Z,50.129,-122.955,2,-6,VRB,2,,15,30.30,1028.9,,,,,,,,,,SKC,,,,,,,,VFR,,,,,,,,,,,,METAR,658
CTRA 272200Z AUTO 33007KT M08/M18 RMK AO1 SOG 29 1028 PK WND 00020/2106 SLP061 T10821184,CTRA,2025-01-27T22:00:00Z,49.664,-93.733,-8.2,-18.4,330,7,,,0.00,1006.1,,TRUE,TRUE,,,,,,,,,,,,,,,,,,,,,,,,,,,METAR,432
CTNK 272200Z AUTO 25007KT M03/M05 RMK AO1 2PAST HR SOG 27 6014 PK WND 25021/2103 SLP901 P0001 T10291054 50002,CTNK,2025-01-27T22:00:00Z,45.533,-78.266,-2.9,-5.4,250,7,,,0.00,990.1,,TRUE,TRUE,,,,,,,,,,,,,,,,0.02,,,,,0.01,,,,,,METAR,405
CTCK 272200Z AUTO 22014G28KT 01/M10 RMK AO1 SOG 08 6033 PK WND 20035/2100 SLP919 T00051095,CTCK,2025-01-27T22:00:00Z,45.251,-74.963,0.5,-9.5,220,14,28,,0.00,991.9,,TRUE,TRUE,,,,,,,,,,,,,,,,,,,,,,,,,,,METAR,84
CMGB 272200Z AUTO 21009G17KT 03/M11 RMK AO1 SOG 16 8035 PK WND 23021/2127 SLP928 T00261106,CMGB,2025-01-27T22:00:00Z,45.373,-72.774,2.6,-10.6,210,9,17,,0.00,992.8,,TRUE,TRUE,,,,,,,,,,,,,,,,,,,,,,,,,,,METAR,87
CMFM 272200Z AUTO 21008G15KT M06/M08 RMK AO1 1PAST HR SOG 73 6020 PK WND 18020/2100 SLP865 P0008 T10551077 50076,CMFM,2025-01-27T22:00:00Z,47.323,-71.148,-5.5,-7.7,210,8,15,,0.00,986.5,,TRUE,TRUE,,,,,,,,,,,,,,,,0.76,,,,,0.08,,,,,,METAR,663
CERM 272200Z AUTO 15006KT M03/M06 RMK AO1 SOG 20 6029 PK WND 16018/2105 SLP912 T10341055,CERM,2025-01-27T22:00:00Z,47.417,-68.325,-3.4,-5.5,150,6,,,0.00,991.2,,TRUE,TRUE,,,,,,,,,,,,,,,,,,,,,,,,,,,METAR,151
CBBC 272200Z AUTO 33003KT 230V040 3/8SM FG 00/00 A3041 RMK VIS VRB 1/8-2 CLD MISG ICE MISG SLP302,CBBC,2025-01-27T22:00:00Z,52.181,-128.154,0,0,330,3,,0.38,30.41,1030.2,,TRUE,,,,,,,FG,,,,,,,,,LIFR,,,,,,,,,,,,METAR,36
CAHR 272200Z AUTO 17020G26KT M03/M06 RMK AO1 SOG 17 8045 PK WND 18029/2136 SLP995 T10281063,CAHR,2025-01-27T22:00:00Z,46.344,-63.17,-2.8,-6.3,170,20,26,,0.00,999.5,,TRUE,TRUE,,,,,,,,,,,,,,,,,,,,,,,,,,,METAR,52
BIRK 272200Z 12010KT 1500 SN VV007 M01/M02 Q0986,BIRK,2025-01-27T22:00:00Z,64.129,-21.941,-1,-2,120,10,,0.93,29.11,,,,,,,,,,SN,OVX,0,,,,,,,LIFR,,,,,,,,,,,700,METAR,12
BIKF 272200Z 11010KT 5000 -SN SCT002 BKN013 OVC028 M01/M01 Q0985,BIKF,2025-01-27T22:00:00Z,63.987,-22.614,-1,-1,110,10,,3.11,29.08,,,,,,,,,,-SN,SCT,200,BKN,1300,OVC,2800,,,MVFR,,,,,,,,,,,,METAR,49
BIEG 272200Z 20003KT CAVOK M12/M14 Q0990,BIEG,2025-01-27T22:00:00Z,65.275,-14.409,-12,-14,200,3,,6+,29.23,,,,,,,,,,,CAVOK,,,,,,,,VFR,,,,,,,,,,,,METAR,20
BIAR 272200Z 21004KT CAVOK M15/M17 Q0991,BIAR,2025-01-27T22:00:00Z,65.655,-18.069,-15,-17,210,4,,6+,29.26,,,,,,,,,,,CAVOK,,,,,,,,VFR,,,,,,,,,,,,METAR,1
AYPY 272200Z 33002KT 9999 FEW050 29/24 Q1007,AYPY,2025-01-27T22:00:00Z,-9.443,147.216,29,24,330,2,,6+,29.73,,,,,,,,,,,FEW,5000,,,,,,,VFR,,,,,,,,,,,,METAR,44
AYNZ 272200Z 30003KT 9999 HZ FEW015 SCT050 27/24 Q1009,AYNZ,2025-01-27T22:00:00Z,-6.568,146.727,27,24,300,3,,6+,29.79,,,,,,,,,,HZ,FEW,1500,SCT,5000,,,,,VFR,,,,,,,,,,,,METAR,74
AYMH 272200Z 11005KT 9999 FUHZ FEW030 18/16 Q1021,AYMH,2025-01-27T22:00:00Z,-5.831,144.3,18,16,110,5,,6+,30.15,,,,,,,,,,FU HZ,FEW,3000,,,,,,,VFR,,,,,,,,,,,,METAR,1634
AGGH 272200Z 20003KT 9999 FEW015 FEW016CB SCT026 BKN100 26/24 Q1010,AGGH,2025-01-27T22:00:00Z,-9.43,160.047,26,24,200,3,,6+,29.82,,,,,,,,,,,FEW,1500,FEW,1600,SCT,2600,BKN,10000,VFR,,,,,,,,,,,,METAR,6
PTPN 272159Z 07014KT 15SM BKN017TCU BKN130 OVC300 29/25 A2982 RMK TCU NE-SE FIRST,PTPN,2025-01-27T21:59:00Z,6.986,158.21,29,25,70,14,,15,29.82,,,,,,,,,,,BKN,1700,BKN,13000,OVC,30000,,,MVFR,,,,,,,,,,,,METAR,3
KNGU 272159Z 22007KT 10SM FEW100 13/M01 A2992 RMK AO2 SLP130 T01281006,KNGU,2025-01-27T21:59:00Z,36.937,-76.281,12.8,-0.6,220,7,,10+,29.92,1013,,,TRUE,,,,,,,FEW,10000,,,,,,,VFR,,,,,,,,,,,,METAR,3
EHGR 272159Z AUTO 20010KT 150V230 9999 SCT029 07/04 Q0991 BLU,EHGR,2025-01-27T21:59:00Z,51.565,4.935,7,4,200,10,,6+,29.26,,,TRUE,,,,,,,,SCT,2900,,,,,,,VFR,,,,,,,,,,,,SPECI,12
PKMR 272158Z 09006KT 15SM FEW014 SCT050 BKN110 OVC300 29/25 A2982 RMK SLP100 T02930248,PKMR,2025-01-27T21:58:00Z,7.09,171.383,29.3,24.8,90,6,,15,29.82,1010,,,,,,,,,,FEW,1400,SCT,5000,BKN,11000,OVC,30000,VFR,,,,,,,,,,,,METAR,7
PALP 272158Z 06010KT 8SM SCT018 BKN080 M18/M29 A2965,PALP,2025-01-27T21:58:00Z,70.348,-150.928,-18,-29,60,10,,8,29.65,,,,,,,,,,,SCT,1800,BKN,8000,,,,,VFR,,,,,,,,,,,,METAR,4
KROG 272158Z 25007KT 10SM CLR 08/M09 A3015 RMK AO2 SLP217 T00831089,KROG,2025-01-27T21:58:00Z,36.3749,-94.1078,8.3,-8.9,250,7,,10+,30.15,1021.7,,,TRUE,,,,,,,CLR,,,,,,,,VFR,,,,,,,,,,,,METAR,407
KMEI 272158Z 35007KT 10SM OVC015 11/08 A3015 RMK AO2 SLP209 I1000 T01110083,KMEI,2025-01-27T21:58:00Z,32.3348,-88.7507,11.1,8.3,350,7,,10+,30.15,1020.9,,,TRUE,,,,,,,OVC,1500,,,,,,,MVFR,,,,,,,,,,,,METAR,90
KBKF 272158Z 09004KT 10SM CLR 11/M15 A3001 RMK AO2A SLP159 T01071149,KBKF,2025-01-27T21:58:00Z,39.713,-104.758,10.7,-14.9,90,4,,10+,30.01,1015.9,,,TRUE,,,,,,,CLR,,,,,,,,VFR,,,,,,,,,,,,METAR,1703
KBIX 272158Z 34007KT 280V010 10SM OVC020 18/14 A3007 RMK CIG 016 RWY22 SLP186 T01800139,KBIX,2025-01-27T21:58:00Z,30.415,-88.922,18,13.9,340,7,,10+,30.07,1018.6,,,,,,,,,,OVC,2000,,,,,,,MVFR,,,,,,,,,,,,METAR,4
KSUE 272157Z AUTO 28020G27KT 10SM FEW085 BKN110 02/M06 A2944 RMK AO2 PK WND 27030/2142 SLP977 T00171061 FZRANO,KSUE,2025-01-27T21:57:00Z,44.847,-87.425,1.7,-6.1,280,20,27,10+,29.44,997.7,,TRUE,TRUE,,,,TRUE,,,FEW,8500,BKN,11000,,,,,VFR,,,,,,,,,,,,METAR,215
KNYL 272157Z 29007KT 10SM SCT100 BKN150 17/02 A3004 RMK AO2 SLP171 T01720017 $,KNYL,2025-01-27T21:57:00Z,32.66,-114.608,17.2,1.7,290,7,,10+,30.04,1017.1,,,TRUE,TRUE,,,,,,SCT,10000,BKN,15000,,,,,VFR,,,,,,,,,,,,METAR,58
KNJW 272157Z AUTO 30008KT 10SM OVC008 08/06 A3019 RMK AO2 SLP138 T00830061 $,KNJW,2025-01-27T21:57:00Z,32.792,-88.832,8.3,6.1,300,8,,10+,30.19,1013.8,,TRUE,TRUE,TRUE,,,,,,OVC,800,,,,,,,IFR,,,,,,,,,,,,METAR,165
KNFL 272157Z 21006KT 10SM CLR 03/M08 A3023 RMK AO2 SLP199 T00281078,KNFL,2025-01-27T21:57:00Z,39.417,-118.705,2.8,-7.8,210,6,,10+,30.23,1019.9,,,TRUE,,,,,,,CLR,,,,,,,,VFR,,,,,,,,,,,,METAR,1199
KMNM 272157Z AUTO 29009G20KT 240V310 10SM BKN060 01/M07 A2946 RMK AO2 SLP983 T00111072 FZRANO $,KMNM,2025-01-27T21:57:00Z,45.126,-87.639,1.1,-7.2,290,9,20,10+,29.46,998.3,,TRUE,TRUE,TRUE,,,TRUE,,,BKN,6000,,,,,,,VFR,,,,,,,,,,,,METAR,188
EQYR 272157Z AUTO 28012KT CLR 15/11 A3025 RMK AO2 SLP242 T01500111 $,EQYR,2025-01-27T21:57:00Z,36.647,-6.347,15,11.1,280,12,,,30.25,1024.2,,TRUE,TRUE,TRUE,,,,,,CLR,,,,,,,,,,,,,,,,,,,,METAR,26
EQYG 272157Z AUTO 00000KT 10SM CLR 12/ A3021 RMK AO2 SLP224 T0122 401890083 PWINO $ ,EQYG,2025-01-27T21:57:00Z,35.53,24.15,12.2,,0,0,,10+,30.21,1022.4,,TRUE,TRUE,TRUE,,,,TRUE,,CLR,,,,,,,,VFR,,,,,,,,,,,,METAR,142
TJSJ 272156Z 10010KT 10SM FEW025 SCT060 SCT095 28/21 A3000 RMK AO2 SLP159 T02780211 $,TJSJ,2025-01-27T21:56:00Z,18.4326,-66.0107,27.8,21.1,100,10,,10+,30.00,1015.9,,,TRUE,TRUE,,,,,,FEW,2500,SCT,6000,SCT,9500,,,VFR,,,,,,,,,,,,METAR,3
ROTM 272156Z 33015G23KT 9999 BKN034 BKN045 13/06 A3021 RMK PK WND 33028/10 SLP218 FIRST T01250056,ROTM,2025-01-27T21:56:00Z,26.271,127.754,12.5,5.6,330,15,23,6+,30.21,1021.8,,,,,,,,,,BKN,3400,BKN,4500,,,,,VFR,,,,,,,,,,,,METAR,80
RJOI 272156Z 24007G17KT 9999 VCSH FEW025 SCT055 BKN070 04/M03 A3000 RMK AO2 SLP158 VIS LWR S VCSH S T00441028,RJOI,2025-01-27T21:56:00Z,34.144,132.236,4.4,-2.8,240,7,17,6+,30.00,1015.8,,,TRUE,,,,,,VCSH,FEW,2500,SCT,5500,BKN,7000,,,VFR,,,,,,,,,,,,METAR,2
PPIT 272156Z AUTO 25012KT 10SM M19/M22 A3003 RMK AO2 SLP172 T11941217 FZRANO $,PPIT,2025-01-27T21:56:00Z,60.905,-162.443,-19.4,-21.7,250,12,,10+,30.03,1017.2,,TRUE,TRUE,TRUE,,,TRUE,,,,,,,,,,,VFR,,,,,,,,,,,,METAR,4
PMDY 272156Z AUTO 11020G25KT 10SM OVC110 19/14 A3017 RMK AO2 PK WND 11026/2136 SLP218 T01940144,PMDY,2025-01-27T21:56:00Z,28.206,-177.382,19.4,14.4,110,20,25,10+,30.17,1021.8,,TRUE,TRUE,,,,,,,OVC,11000,,,,,,,VFR,,,,,,,,,,,,METAR,6
PHNY 272156Z AUTO 29006KT 10SM SCT055 23/16 A3008 RMK AO2 SLP165 T02330161 $,PHNY,2025-01-27T21:56:00Z,20.783,-156.955,23.3,16.1,290,6,,10+,30.08,1016.5,,TRUE,TRUE,TRUE,,,,,,SCT,5500,,,,,,,VFR,,,,,,,,,,,,METAR,395
PFYU 272156Z 00000KT 10SM -SN FEW050 BKN070 BKN090 M11/M12 A2950 RMK AO2 SNB54 SLP006 P0000 T11061122,PFYU,2025-01-27T21:56:00Z,66.572,-145.243,-10.6,-12.2,0,0,,10+,29.50,1000.6,,,TRUE,,,,,,-SN,FEW,5000,BKN,7000,BKN,9000,,,VFR,,,,,,0.005,,,,,,METAR,130
PFWS 272156Z AUTO 28016G21KT 10SM OVC016 M09/M13 A3004 RMK AO2 SNE30 SLP177 P0000 T10941128 FZRANO,PFWS,2025-01-27T21:56:00Z,58.704,-157.005,-9.4,-12.8,280,16,21,10+,30.04,1017.7,,TRUE,TRUE,,,,TRUE,,,OVC,1600,,,,,,,MVFR,,,,,,0.005,,,,,,METAR,40
PFTO 272156Z AUTO 23008G21KT 200V290 10SM CLR 03/M16 A2959 RMK AO2 PK WND 20035/2133 SLP671 T00281161 $,PFTO,2025-01-27T21:56:00Z,63.329,-142.954,2.8,-16.1,230,8,21,10+,29.59,967.1,,TRUE,TRUE,TRUE,,,,,,CLR,,,,,,,,VFR,,,,,,,,,,,,METAR,500
PFSH 272156Z AUTO 21017KT 6SM -SN BR BKN015 M17/M19 A2965 RMK AO2 SLP041 P0000 T11721194 FZRANO TSNO,PFSH,2025-01-27T21:56:00Z,64.367,-161.217,-17.2,-19.4,210,17,,6,29.65,1004.1,,TRUE,TRUE,,,TRUE,TRUE,,-SN BR,BKN,1500,,,,,,,MVFR,,,,,,0.005,,,,,,METAR,6
PFKW 272156Z AUTO 22010KT 10SM CLR A3005 RMK AO2 SLPNO FZRANO $,PFKW,2025-01-27T21:56:00Z,60.793,-161.44,,,220,10,,10+,30.05,,,TRUE,TRUE,TRUE,,,TRUE,,,CLR,,,,,,,,VFR,,,,,,,,,,,,METAR,4
PFKT 272156Z AUTO 32020KT 1SM -SN BR OVC013 M20/M22 A2977 RMK AO2 PK WND 32027/2131 SLP081 P0000 T12001222 FZRANO,PFKT,2025-01-27T21:56:00Z,65.33,-166.479,-20,-22.2,320,20,,1,29.77,1008.1,,TRUE,TRUE,,,,TRUE,,-SN BR,OVC,1300,,,,,,,IFR,,,,,,0.005,,,,,,METAR,8
PFKO 272156Z AUTO 26016KT 5SM HZ FEW021 SCT030 OVC037 M18/M21 A2957 RMK AO2 SNE47 SLP013 P0000 T11781211 FZRANO,PFKO,2025-01-27T21:56:00Z,63.0334,-163.532,-17.8,-21.1,260,16,,5,29.57,1001.3,,TRUE,TRUE,,,,TRUE,,HZ,FEW,2100,SCT,3000,OVC,3700,,,MVFR,,,,,,0.005,,,,,,METAR,13
PFCL 272156Z AUTO 27014G18KT 10SM CLR M12/M17 A3006 RMK AO2 SLP174 T11221172 FZRANO,PFCL,2025-01-27T21:56:00Z,58.837,-158.526,-12.2,-17.2,270,14,18,10+,30.06,1017.4,,TRUE,TRUE,,,,TRUE,,,CLR,,,,,,,,VFR,,,,,,,,,,,,METAR,23
PAWS 272156Z AUTO 21010G20KT 180V250 10SM SCT036 BKN046 BKN100 M03/M07 A2985 RMK AO2 SLP114 T10281072 FZRANO,PAWS,2025-01-27T21:56:00Z,61.571,-149.538,-2.8,-7.2,210,10,20,10+,29.85,1011.4,,TRUE,TRUE,,,,TRUE,,,SCT,3600,BKN,4600,BKN,10000,,,VFR,,,,,,,,,,,,METAR,102
PAWN 272156Z AUTO 9SM -SN BKN080 OVC100 M18/M21 A2952 RMK AO2 SNE35B51 SLP009 P0000 T11831211 FZRANO $,PAWN,2025-01-27T21:56:00Z,67.567,-162.977,-18.3,-21.1,,,,9,29.52,1000.9,,TRUE,TRUE,TRUE,,,TRUE,,-SN,BKN,8000,OVC,10000,,,,,VFR,,,,,,0.005,,,,,,METAR,26
PAWG 272156Z 33005KT 10SM -RA SCT003 BKN010 OVC030 02/02 A3041 RMK AO2 SLP297 P0003 T00220017 $,PAWG,2025-01-27T21:56:00Z,56.486,-132.377,2.2,1.7,330,5,,10+,30.41,1029.7,,,TRUE,TRUE,,,,,-RA,SCT,300,BKN,1000,OVC,3000,,,MVFR,,,,,,0.03,,,,,,METAR,6
PAVD 272156Z VRB04KT 3/4SM -SN BR FEW001 BKN012 OVC025 02/M02 A2999 RMK AO2 SLP153 VIS NE 1 1/2 P0000 T00171017 $,PAVD,2025-01-27T21:56:00Z,61.133,-146.251,1.7,-1.7,VRB,4,,0.75,29.99,1015.3,,,TRUE,TRUE,,,,,-SN BR,FEW,100,BKN,1200,OVC,2500,,,LIFR,,,,,,0.005,,,,,,METAR,21
PAVA 272156Z AUTO 10SM M19/M22 A3001 RMK AO2 SLP163 T11941217 FZRANO $,PAVA,2025-01-27T21:56:00Z,61.537,-165.604,-19.4,-21.7,,,,10+,30.01,1016.3,,TRUE,TRUE,TRUE,,,TRUE,,,,,,,,,,,VFR,,,,,,,,,,,,METAR,14
PATQ 272156Z AUTO 04011KT 4SM -SN BR CLR M19/M22 A2967 RMK AO2 SLP053 P0000 T11941217 FZRANO TSNO,PATQ,2025-01-27T21:56:00Z,70.469,-157.428,-19.4,-21.7,40,11,,4,29.67,1005.3,,TRUE,TRUE,,,TRUE,TRUE,,-SN BR,CLR,,,,,,,,MVFR,,,,,,0.005,,,,,,METAR,28
PATG 272156Z AUTO 10SM OVC027 M14/M18 A3009 RMK AO2 SLP189 T11391183 FZRANO,PATG,2025-01-27T21:56:00Z,59.051,-160.398,-13.9,-18.3,,,,10+,30.09,1018.9,,TRUE,TRUE,,,,TRUE,,,OVC,2700,,,,,,,MVFR,,,,,,,,,,,,METAR,1
PATE 272156Z AUTO 32023KT 1/2SM -SN FZFG OVC013 M21/M23 A2973 RMK AO2 PK WND 33026/2155 SLP078 P0000 T12061228 FZRANO TSNO,PATE,2025-01-27T21:56:00Z,65.242,-166.328,-20.6,-22.8,320,23,,0.5,29.73,1007.8,,TRUE,TRUE,,,TRUE,TRUE,,-SN FZFG,OVC,1300,,,,,,,LIFR,,,,,,0.005,,,,,,METAR,93
PASY 272156Z VRB05KT 20SM BKN035 00/M08 A3041 RMK AO2A SLP299 ALSTG/SLP ESTMD WND DATA ESTMD T00011084 RVRNO PNO FZRANO $,PASY,2025-01-27T21:56:00Z,52.711,174.107,0.1,-8.4,VRB,5,,20,30.41,1029.9,,,TRUE,TRUE,,,TRUE,,,BKN,3500,,,,,,,VFR,,,,,,,,,,,,METAR,6
PASX 272156Z AUTO 18011G16KT 10SM FEW046 OVC060 M04/M08 A2990 RMK AO2 SNB01E16 SLP133 P0000 T10391083 FZRANO TSNO,PASX,2025-01-27T21:56:00Z,60.476,-151.053,-3.9,-8.3,180,11,16,10+,29.90,1013.3,,TRUE,TRUE,,,TRUE,TRUE,,,FEW,4600,OVC,6000,,,,,VFR,,,,,,0.005,,,,,,METAR,28
PASM 272156Z AUTO 26012KT 10SM OVC018 M21/M23 A2991 RMK AO2 SLP143 T12061228 FZRANO,PASM,2025-01-27T21:56:00Z,62.057,-163.298,-20.6,-22.8,260,12,,10+,29.91,1014.3,,TRUE,TRUE,,,,TRUE,,,OVC,1800,,,,,,,MVFR,,,,,,,,,,,,METAR,108
PASL 272156Z AUTO 25010G17KT 7SM -SN OVC080 M16/M21 A2996 RMK AO2 SNB45 SLP140 P0000 T11561206 FZRANO,PASL,2025-01-27T21:56:00Z,61.697,-157.167,-15.6,-20.6,250,10,17,7,29.96,1014,,TRUE,TRUE,,,,TRUE,,-SN,OVC,8000,,,,,,,VFR,,,,,,0.005,,,,,,METAR,64
PASK 272156Z AUTO 24013KT 5SM -SN BR FEW024 M18/M20 A2956 RMK AO2 SLP006 P0000 T11781200 FZRANO,PASK,2025-01-27T21:56:00Z,66.599,-159.991,-17.8,-20,240,13,,5,29.56,1000.6,,TRUE,TRUE,,,,TRUE,,-SN BR,FEW,2400,,,,,,,MVFR,,,,,,0.005,,,,,,METAR,3
PARC 272156Z AUTO 00000KT 10SM CLR M19/M21 A2934 RMK AO2 SLP008 T11941211 FZRANO TSNO,PARC,2025-01-27T21:56:00Z,68.113,-145.576,-19.4,-21.1,0,0,,10+,29.34,1000.8,,TRUE,TRUE,,,TRUE,TRUE,,,CLR,,,,,,,,VFR,,,,,,,,,,,,METAR,626
PAQH 272156Z AUTO 27013KT 9SM -SN M17/M20 A3010 RMK AO2 SLP192 P0000 T11671200 FZRANO $,PAQH,2025-01-27T21:56:00Z,59.751,-161.842,-16.7,-20,270,13,,9,30.10,1019.2,,TRUE,TRUE,TRUE,,,TRUE,,-SN,,,,,,,,,VFR,,,,,,0.005,,,,,,METAR,8
PAPN 272156Z AUTO 29014G19KT 6SM -SN SCT027 OVC033 M04/M08 A3005 RMK AO2 SLP177 P0000 T10391083 FZRANO,PAPN,2025-01-27T21:56:00Z,57.578,-157.569,-3.9,-8.3,290,14,19,6,30.05,1017.7,,TRUE,TRUE,,,,TRUE,,-SN,SCT,2700,OVC,3300,,,,,VFR,,,,,,0.005,,,,,,METAR,19
PAPM 272156Z AUTO 28011KT 8SM -SN OVC022 M13/M16 A3009 RMK AO2 SLP191 P0000 T11281161 FZRANO TSNO,PAPM,2025-01-27T21:56:00Z,59.011,-161.82,-12.8,-16.1,280,11,,8,30.09,1019.1,,TRUE,TRUE,,,TRUE,TRUE,,-SN,OVC,2200,,,,,,,MVFR,,,,,,0.005,,,,,,METAR,4
PAPE 272156Z AUTO 35004KT 10SM OVC075 M02/M08 A3009 RMK AO2 SLP186 T10171078 FZRANO,PAPE,2025-01-27T21:56:00Z,55.9096,-159.16,-1.7,-7.8,350,4,,10+,30.09,1018.6,,TRUE,TRUE,,,,TRUE,,,OVC,7500,,,,,,,VFR,,,,,,,,,,,,METAR,15
PAOU 272156Z AUTO 32015G19KT 7SM -SN FEW012 BKN022 OVC034 M04/M07 A3010 RMK AO2 SLP193 P0000 T10391072 FZRANO,PAOU,2025-01-27T21:56:00Z,56.006,-161.162,-3.9,-7.2,320,15,19,7,30.10,1019.3,,TRUE,TRUE,,,,TRUE,,-SN,FEW,1200,BKN,2200,OVC,3400,,,MVFR,,,,,,0.005,,,,,,METAR,3
PANW 272156Z AUTO 23008G14KT 10SM CLR M12/M18 A2999 RMK AO2 SLP166 T11171178 FZRANO,PANW,2025-01-27T21:56:00Z,59.451,-157.325,-11.7,-17.8,230,8,14,10+,29.99,1016.6,,TRUE,TRUE,,,,TRUE,,,CLR,,,,,,,,VFR,,,,,,,,,,,,METAR,100
PANV 272156Z AUTO 23012G18KT 5SM -SN SCT018 SCT028 M18/M21 A2977 RMK AO2 SLP218 P0000 T11831211 FZRANO TSNO,PANV,2025-01-27T21:56:00Z,62.647,-160.191,-18.3,-21.1,230,12,18,5,29.77,1021.8,,TRUE,TRUE,,,TRUE,TRUE,,-SN,SCT,1800,SCT,2800,,,,,MVFR,,,,,,0.005,,,,,,METAR,91
PANA 272156Z AUTO 22007KT 9SM BKN026 M20/M23 A3005 RMK AO2 SLP176 T12001228 FZRANO TSNO,PANA,2025-01-27T21:56:00Z,60.694,-161.978,-20,-22.8,220,7,,9,30.05,1017.6,,TRUE,TRUE,,,TRUE,TRUE,,,BKN,2600,,,,,,,MVFR,,,,,,,,,,,,METAR,7
PAMY 272156Z AUTO 26012KT 9SM -SN OVC019 M17/M19 A3006 RMK AO2 SNE00B46 SLP177 P0000 T11721189 FZRANO,PAMY,2025-01-27T21:56:00Z,60.376,-166.262,-17.2,-18.9,260,12,,9,30.06,1017.7,,TRUE,TRUE,,,,TRUE,,-SN,OVC,1900,,,,,,,MVFR,,,,,,0.005,,,,,,METAR,14
PAMD 272156Z AUTO 21019G29KT 9SM SCT030 03/M01 A3002 RMK AO2 PK WND 22036/2108 RAB03E24 SLP164 P0000 T00331011,PAMD,2025-01-27T21:56:00Z,59.442,-146.317,3.3,-1.1,210,19,29,9,30.02,1016.4,,TRUE,TRUE,,,,,,,SCT,3000,,,,,,,VFR,,,,,,0.005,,,,,,METAR,20
PAMB 272156Z AUTO 23009G16KT 10SM CLR M13/M18 A3005 RMK AO2 SLP183 T11281178 FZRANO,PAMB,2025-01-27T21:56:00Z,58.986,-159.05,-12.8,-17.8,230,9,16,10+,30.05,1018.3,,TRUE,TRUE,,,,TRUE,,,CLR,,,,,,,,VFR,,,,,,,,,,,,METAR,28
PAKP 272156Z AUTO 20005KT 9SM -SN FEW017 SCT034 OVC045 M25/M28 A2930 RMK AO2 SLP013 P0000 T12501278 FZRANO,PAKP,2025-01-27T21:56:00Z,68.136,-151.74,-25,-27.8,200,5,,9,29.30,1001.3,,TRUE,TRUE,,,,TRUE,,-SN,FEW,1700,SCT,3400,OVC,4500,,,VFR,,,,,,0.005,,,,,,METAR,649
PAKF 272156Z AUTO 00000KT 10SM UP SCT026 BKN035 OVC110 M03/M06 A3015 RMK AO2 UPB51SNE51 SLP209 P0000 T10281056 FZRANO,PAKF,2025-01-27T21:56:00Z,54.85,-163.409,-2.8,-5.6,0,0,,10+,30.15,1020.9,,TRUE,TRUE,,,,TRUE,,UP,SCT,2600,BKN,3500,OVC,11000,,,VFR,,,,,,0.005,,,,,,METAR,2
PAJZ 272156Z AUTO 25010KT 5SM HZ CLR M12/M17 A3003 RMK AO2 SLP171 T11171167 FZRANO,PAJZ,2025-01-27T21:56:00Z,59.727,-157.267,-11.7,-16.7,250,10,,5,30.03,1017.1,,TRUE,TRUE,,,,TRUE,,HZ,CLR,,,,,,,,MVFR,,,,,,,,,,,,METAR,80
PAIW 272156Z AUTO 34026G33KT 1/4SM -SN FZFG OVC009 M21/M23 A2984 RMK AO2 PK WND 33036/2112 PRESRR SLP104 T12061228 FZRANO PNO $,PAIW,2025-01-27T21:56:00Z,65.621,-168.093,-20.6,-22.8,340,26,33,0.25,29.84,1010.4,,TRUE,TRUE,TRUE,,,TRUE,,-SN FZFG,OVC,900,,,,,,,LIFR,,,,,,,,,,,,METAR,6
PAIN 272156Z AUTO 16009G17KT 9SM -SN BKN048 OVC055 M03/M07 A2957 RMK AO2 SLP040 P0000 T10331072 FZRANO,PAIN,2025-01-27T21:56:00Z,63.733,-148.912,-3.3,-7.2,160,9,17,9,29.57,1004,,TRUE,TRUE,,,,TRUE,,-SN,BKN,4800,OVC,5500,,,,,VFR,,,,,,0.005,,,,,,METAR,525
PAII 272156Z AUTO 31010G15KT 9SM -SN OVC019 M07/M10 A3007 RMK AO2 SLP180 P0000 T10671100 FZRANO,PAII,2025-01-27T21:56:00Z,58.186,-157.375,-6.7,-10,310,10,15,9,30.07,1018,,TRUE,TRUE,,,,TRUE,,-SN,OVC,1900,,,,,,,MVFR,,,,,,0.005,,,,,,METAR,31
PAIG 272156Z AUTO 20013G20KT 10SM CLR M11/M16 A3002 RMK AO2 SLP175 T11061156 FZRANO,PAIG,2025-01-27T21:56:00Z,59.325,-155.897,-10.6,-15.6,200,13,20,10+,30.02,1017.5,,TRUE,TRUE,,,,TRUE,,,CLR,,,,,,,,VFR,,,,,,,,,,,,METAR,24
PAHY 272156Z AUTO 12008KT 10SM OVC014 06/04 A3041 RMK AO2 RAE28 SLP295 P0000 T00560044 $,PAHY,2025-01-27T21:56:00Z,55.202,-132.825,5.6,4.4,120,8,,10+,30.41,1029.5,,TRUE,TRUE,TRUE,,,,,,OVC,1400,,,,,,,MVFR,,,,,,0.005,,,,,,METAR,
PAHC 272156Z AUTO 10SM FEW021 BKN034 OVC043 M18/M22 A2988 RMK AO2 SNB28E46 SLP122 P0000 T11781217 FZRANO,PAHC,2025-01-27T21:56:00Z,62.191,-159.773,-17.8,-21.7,,,,10+,29.88,1012.2,,TRUE,TRUE,,,,TRUE,,,FEW,2100,BKN,3400,OVC,4300,,,VFR,,,,,,0.005,,,,,,METAR,21
PAGS 272156Z AUTO 14007KT 090V170 10SM BKN026 OVC033 06/03 A3027 RMK AO2 SLP249 T00560028,PAGS,2025-01-27T21:56:00Z,58.425,-135.707,5.6,2.8,140,7,,10+,30.27,1024.9,,TRUE,TRUE,,,,,,,BKN,2600,OVC,3300,,,,,MVFR,,,,,,,,,,,,METAR,9
PAGN 272156Z AUTO 08003KT 10SM -RA BKN044 OVC055 04/04 A3034 RMK AO2 RAB42 SLP263 P0000 T00390039,PAGN,2025-01-27T21:56:00Z,57.502,-134.589,3.9,3.9,80,3,,10+,30.34,1026.3,,TRUE,TRUE,,,,,,-RA,BKN,4400,OVC,5500,,,,,VFR,,,,,,0.005,,,,,,METAR,2
PAGA 272156Z AUTO 23013KT 9SM FEW024 BKN031 OVC060 M14/M18 A2964 RMK AO2 SLP044 T11441178 FZRANO TSNO $,PAGA,2025-01-27T21:56:00Z,64.738,-156.92,-14.4,-17.8,230,13,,9,29.64,1004.4,,TRUE,TRUE,TRUE,,TRUE,TRUE,,,FEW,2400,BKN,3100,OVC,6000,,,VFR,,,,,,,,,,,,METAR,39
PAFE 272156Z AUTO 10007KT 10SM OVC009 04/03 A3037 RMK AO2 SLP293 T00390028,PAFE,2025-01-27T21:56:00Z,56.961,-133.91,3.9,2.8,100,7,,10+,30.37,1029.3,,TRUE,TRUE,,,,,,,OVC,900,,,,,,,IFR,,,,,,,,,,,,METAR,1
PADM 272156Z AUTO 25012G21KT 10SM OVC018 M19/M22 A2998 RMK AO2 SNE05 SLP159 P0000 T11941222 FZRANO,PADM,2025-01-27T21:56:00Z,61.865,-162.033,-19.4,-22.2,250,12,21,10+,29.98,1015.9,,TRUE,TRUE,,,,TRUE,,,OVC,1800,,,,,,,MVFR,,,,,,0.005,,,,,,METAR,17
PADL 272156Z 22009G12KT 10SM CLR M11/M17 A3005 RMK AO2 SLP179 T11111172,PADL,2025-01-27T21:56:00Z,59.04,-158.507,-11.1,-17.2,220,9,12,10+,30.05,1017.9,,,TRUE,,,,,,,CLR,,,,,,,,VFR,,,,,,,,,,,,METAR,20
PADK 272156Z AUTO 23005KT 10SM SCT048 BKN060 M02/M03 A3039 RMK AO2 SNE06 SLP292 P0000 T10221033 FZRANO,PADK,2025-01-27T21:56:00Z,51.881,-176.644,-2.2,-3.3,230,5,,10+,30.39,1029.2,,TRUE,TRUE,,,,TRUE,,,SCT,4800,BKN,6000,,,,,VFR,,,,,,0.005,,,,,,METAR,3
PACM 272156Z AUTO 27022KT 1SM -SN OVC022 M19/M22 A2998 RMK AO2 PK WND 26027/2148 SLP150 P0000 T11891217 FZRANO,PACM,2025-01-27T21:56:00Z,61.846,-165.579,-18.9,-21.7,270,22,,1,29.98,1015,,TRUE,TRUE,,,,TRUE,,-SN,OVC,2200,,,,,,,IFR,,,,,,0.005,,,,,,METAR,3
PABV 272156Z AUTO 20017G28KT 3SM -SN OVC085 M02/M07 A2987 RMK AO2 PK WND 21028/2153 SLP117 P0000 T10221067 FZRANO,PABV,2025-01-27T21:56:00Z,61.416,-149.511,-2.2,-6.7,200,17,28,3,29.87,1011.7,,TRUE,TRUE,,,,TRUE,,-SN,OVC,8500,,,,,,,MVFR,,,,,,0.005,,,,,,METAR,21
KYKN 272156Z AUTO 31022G28KT 10SM CLR 09/M09 A2985 RMK AO2 PK WND 30032/2117 SLP132 T00891094,KYKN,2025-01-27T21:56:00Z,42.9142,-97.3807,8.9,-9.4,310,22,28,10+,29.85,1013.2,,TRUE,TRUE,,,,,,,CLR,,,,,,,,VFR,,,,,,,,,,,,METAR,388
KWWD 272156Z AUTO 17007KT 10SM CLR 03/M06 A2992 RMK AO2 SLP133 T00331061,KWWD,2025-01-27T21:56:00Z,39.0108,-74.9079,3.3,-6.1,170,7,,10+,29.92,1013.3,,TRUE,TRUE,,,,,,,CLR,,,,,,,,VFR,,,,,,,,,,,,METAR,4
KWVL 272156Z AUTO 21011G22KT 10SM CLR 01/M11 A2946 RMK AO2 SLP006 T00111111 FZRANO,KWVL,2025-01-27T21:56:00Z,44.5301,-69.6753,1.1,-11.1,210,11,22,10+,29.46,1000.6,,TRUE,TRUE,,,,TRUE,,,CLR,,,,,,,,VFR,,,,,,,,,,,,METAR,87
KWMC 272156Z AUTO 00000KT 10SM CLR 06/M14 A3020 RMK AO2 SLP245 T00561144,KWMC,2025-01-27T21:56:00Z,40.9018,-117.808,5.6,-14.4,0,0,,10+,30.20,1024.5,,TRUE,TRUE,,,,,,,CLR,,,,,,,,VFR,,,,,,,,,,,,METAR,1311
KWJF 272156Z 22003KT 10SM CLR 08/02 A3009 RMK AO2 SLP200 T00780022,KWJF,2025-01-27T21:56:00Z,34.7412,-118.213,7.8,2.2,220,3,,10+,30.09,1020,,,TRUE,,,,,,,CLR,,,,,,,,VFR,,,,,,,,,,,,METAR,712
KVPZ 272156Z AUTO 24020G29KT 10SM CLR 04/M08 A2977 RMK AO2 PK WND 26033/2128 SLP091 T00441078,KVPZ,2025-01-27T21:56:00Z,41.4535,-86.998,4.4,-7.8,240,20,29,10+,29.77,1009.1,,TRUE,TRUE,,,,,,,CLR,,,,,,,,VFR,,,,,,,,,,,,METAR,235
KVBT 272156Z AUTO 24007KT 10SM CLR 08/M09 A3016 RMK AO2 SLP226 T00831089 $,KVBT,2025-01-27T21:56:00Z,36.3444,-94.2211,8.3,-8.9,240,7,,10+,30.16,1022.6,,TRUE,TRUE,TRUE,,,,,,CLR,,,,,,,,VFR,,,,,,,,,,,,METAR,390
KVAD 272156Z VRB03KT 10SM OVC080 14/11 A3005 RMK SLP091 WND DATA ESTMD ALSTG ESTMD/ ESTMD,KVAD,2025-01-27T21:56:00Z,30.979,-83.192,14,11,VRB,3,,10+,30.05,1009.1,,,,,,,,,,OVC,8000,,,,,,,VFR,,,,,,,,,,,,METAR,70
KUKI 272156Z AUTO 00000KT 10SM CLR 18/M04 A3011 RMK AO2 SLP194 T01781039,KUKI,2025-01-27T21:56:00Z,39.1278,-123.2,17.8,-3.9,0,0,,10+,30.11,1019.4,,TRUE,TRUE,,,,,,,CLR,,,,,,,,VFR,,,,,,,,,,,,METAR,183
KUDG 272156Z AUTO 22008KT 10SM OVC007 09/09 A3002 RMK AO2 SLP166 T00940089,KUDG,2025-01-27T21:56:00Z,34.4474,-79.8902,9.4,8.9,220,8,,10+,30.02,1016.6,,TRUE,TRUE,,,,,,,OVC,700,,,,,,,IFR,,,,,,,,,,,,METAR,57
KUCP 272156Z AUTO 23012G21KT 10SM CLR 00/M14 A2980 RMK AO2 SLP119 T00001144 PNO $,KUCP,2025-01-27T21:56:00Z,41.0228,-80.4153,0,-14.4,230,12,21,10+,29.80,1011.9,,TRUE,TRUE,TRUE,,,,,,CLR,,,,,,,,VFR,,,,,,,,,,,,METAR,313
KTVF 272156Z AUTO 32016KT 10SM BKN036 BKN043 00/M03 A2976 RMK AO2 SLP095 T00001033 FZRANO,KTVF,2025-01-27T21:56:00Z,48.0597,-96.1787,0,-3.3,320,16,,10+,29.76,1009.5,,TRUE,TRUE,,,,TRUE,,,BKN,3600,BKN,4300,,,,,VFR,,,,,,,,,,,,METAR,339
KTPH 272156Z AUTO 29020G28KT 10SM FEW075 03/M06 A3006 RMK AO2 PK WND 28033/2106 SLP186 T00281061 $,KTPH,2025-01-27T21:56:00Z,38.0505,-117.091,2.8,-6.1,290,20,28,10+,30.06,1018.6,,TRUE,TRUE,TRUE,,,,,,FEW,7500,,,,,,,VFR,,,,,,,,,,,,METAR,1647
KSXT 272156Z AUTO 13006KT 10SM CLR 09/M14 A3019 RMK AO2 SLP232 T00891139,KSXT,2025-01-27T21:56:00Z,42.6,-123.366,8.9,-13.9,130,6,,10+,30.19,1023.2,,TRUE,TRUE,,,,,,,CLR,,,,,,,,VFR,,,,,,,,,,,,METAR,1151
KSRC 272156Z AUTO 22006KT 10SM CLR 11/M08 A3017 RMK AO2 SLP216 T01111078,KSRC,2025-01-27T21:56:00Z,35.2134,-91.7393,11.1,-7.8,220,6,,10+,30.17,1021.6,,TRUE,TRUE,,,,,,,CLR,,,,,,,,VFR,,,,,,,,,,,,METAR,80
KSOP 272156Z AUTO 20006KT 9SM OVC005 08/08 A2999 RMK AO2 RAB2057E07 SLP161 P0000 T00830083,KSOP,2025-01-27T21:56:00Z,35.2371,-79.3921,8.3,8.3,200,6,,9,29.99,1016.1,,TRUE,TRUE,,,,,,,OVC,500,,,,,,,IFR,,,,,,0.005,,,,,,METAR,135
KSMP 272156Z AUTO VRB03KT 10SM CLR M02/M07 A3027 RMK AO2 SLP882 T10171072 N REQ SEAMTRSMP,KSMP,2025-01-27T21:56:00Z,47.2764,-121.338,-1.7,-7.2,VRB,3,,10+,30.27,988.2,,TRUE,TRUE,,,,,,,CLR,,,,,,,,VFR,,,,,,,,,,,,METAR,1206
KSMN 272156Z AUTO 00000KT 10SM CLR M08/M16 A3035 RMK AO2 SLP356 T10831161 FZRANO,KSMN,2025-01-27T21:56:00Z,45.1283,-113.883,-8.3,-16.1,0,0,,10+,30.35,1035.6,,TRUE,TRUE,,,,TRUE,,,CLR,,,,,,,,VFR,,,,,,,,,,,,METAR,1228
KSLG 272156Z AUTO 25008KT 10SM CLR 09/M09 A3016 RMK AO2 SLP220 T00891094,KSLG,2025-01-27T21:56:00Z,36.1941,-94.488,8.9,-9.4,250,8,,10+,30.16,1022,,TRUE,TRUE,,,,,,,CLR,,,,,,,,VFR,,,,,,,,,,,,METAR,361
KSLE 272156Z 00000KT 10SM CLR 10/M05 A3028 RMK AO2 SLP253 T01001050,KSLE,2025-01-27T21:56:00Z,44.9049,-123.001,10,-5,0,0,,10+,30.28,1025.3,,,TRUE,,,,,,,CLR,,,,,,,,VFR,,,,,,,,,,,,METAR,63
KSKX 272156Z AUTO 25015G19KT 10SM CLR 09/M14 A3003 RMK AO2 SLP189 T00941139,KSKX,2025-01-27T21:56:00Z,36.4584,-105.675,9.4,-13.9,250,15,19,10+,30.03,1018.9,,TRUE,TRUE,,,,,,,CLR,,,,,,,,VFR,,,,,,,,,,,,METAR,2163
KSHV 272156Z 26003KT 10SM FEW170 BKN270 14/04 A3018 RMK SLPNO,KSHV,2025-01-27T21:56:00Z,32.4473,-93.8244,14,4,260,3,,10+,30.18,,,,,,,,,,,FEW,17000,BKN,27000,,,,,VFR,,,,,,,,,,,,METAR,70
KSGU 272156Z AUTO 00000KT 10SM CLR 09/M09 A3002 RMK AO2 SLP171 T00891089,KSGU,2025-01-27T21:56:00Z,37.0444,-113.503,8.9,-8.9,0,0,,10+,30.02,1017.1,,TRUE,TRUE,,,,,,,CLR,,,,,,,,VFR,,,,,,,,,,,,METAR,877
KSGT 272156Z AUTO 22007KT 10SM CLR 09/M01 A3020 RMK AO2 SLP229 T00891006,KSGT,2025-01-27T21:56:00Z,34.5998,-91.5763,8.9,-0.6,220,7,,10+,30.20,1022.9,,TRUE,TRUE,,,,,,,CLR,,,,,,,,VFR,,,,,,,,,,,,METAR,67
KSGJ 272156Z 23005KT 10SM SCT050 22/10 A3010 RMK AO2 SLP192 T02170100 PNO $,KSGJ,2025-01-27T21:56:00Z,29.9592,-81.341,21.7,10,230,5,,10+,30.10,1019.2,,,TRUE,TRUE,,,,,,SCT,5000,,,,,,,VFR,,,,,,,,,,,,METAR,2
KSGH 272156Z AUTO 24015KT 10SM CLR 00/M11 A2990 RMK AO2 SLP140 T00001106,KSGH,2025-01-27T21:56:00Z,39.8358,-83.8443,0,-10.6,240,15,,10+,29.90,1014,,TRUE,TRUE,,,,,,,CLR,,,,,,,,VFR,,,,,,,,,,,,METAR,318
KSFZ 272156Z AUTO 23006G15KT 10SM CLR 01/M11 A2971 RMK AO2 SLP066 T00061106 FZRANO $,KSFZ,2025-01-27T21:56:00Z,41.9168,-71.4924,0.6,-10.6,230,6,15,10+,29.71,1006.6,,TRUE,TRUE,TRUE,,,TRUE,,,CLR,,,,,,,,VFR,,,,,,,,,,,,METAR,129
KSFO 272156Z 09003KT 10SM CLR 14/02 A3014 RMK AO2 SLP207 T01390022,KSFO,2025-01-27T21:56:00Z,37.6196,-122.366,13.9,2.2,90,3,,10+,30.14,1020.7,,,TRUE,,,,,,,CLR,,,,,,,,VFR,,,,,,,,,,,,METAR,2
KSFM 272156Z AUTO 22010G17KT 10SM CLR 02/M11 A2957 RMK AO2 SLP018 T00171106 FZRANO,KSFM,2025-01-27T21:56:00Z,43.3876,-70.7154,1.7,-10.6,220,10,17,10+,29.57,1001.8,,TRUE,TRUE,,,,TRUE,,,CLR,,,,,,,,VFR,,,,,,,,,,,,METAR,70
KSDY 272156Z AUTO 27006KT 10SM CLR 03/M03 A2998 RMK AO2 SLP176 T00281033,KSDY,2025-01-27T21:56:00Z,47.7029,-104.195,2.8,-3.3,270,6,,10+,29.98,1017.6,,TRUE,TRUE,,,,,,,CLR,,,,,,,,VFR,,,,,,,,,,,,METAR,600
KSDF 272156Z AUTO 24010KT 10SM CLR 05/M12 A3003 RMK AO2 SLP172 T00501122,KSDF,2025-01-27T21:56:00Z,38.1774,-85.7308,5,-12.2,240,10,,10+,30.03,1017.2,,TRUE,TRUE,,,,,,,CLR,,,,,,,,VFR,,,,,,,,,,,,METAR,146
KSBP 272156Z 31010KT 10SM CLR 16/06 A3011 RMK AO2 SLP198 T01610061,KSBP,2025-01-27T21:56:00Z,35.2382,-120.644,16.1,6.1,310,10,,10+,30.11,1019.8,,,TRUE,,,,,,,CLR,,,,,,,,VFR,,,,,,,,,,,,METAR,52
KRUT 272156Z AUTO 19010G18KT 10SM CLR 01/M11 A2954 RMK AO2 SLP004 T00111111 FZRANO $,KRUT,2025-01-27T21:56:00Z,43.53,-72.9517,1.1,-11.1,190,10,18,10+,29.54,1000.4,,TRUE,TRUE,TRUE,,,TRUE,,,CLR,,,,,,,,VFR,,,,,,,,,,,,METAR,238
KRKD 272156Z AUTO 22012G19KT 10SM CLR 02/M07 A2956 RMK AO2 SLP011 T00171067 FZRANO,KRKD,2025-01-27T21:56:00Z,44.0611,-69.1014,1.7,-6.7,220,12,19,10+,29.56,1001.1,,TRUE,TRUE,,,,TRUE,,,CLR,,,,,,,,VFR,,,,,,,,,,,,METAR,15
KRDM 272156Z 00000KT 10SM CLR 07/M14 A3027 RMK AO2 SLP273 T00721144,KRDM,2025-01-27T21:56:00Z,44.2558,-121.141,7.2,-14.4,0,0,,10+,30.27,1027.3,,,TRUE,,,,,,,CLR,,,,,,,,VFR,,,,,,,,,,,,METAR,930
KPWT 272156Z AUTO 06006KT 10SM CLR 08/01 A3033 RMK AO2 SLP277 T00830011,KPWT,2025-01-27T21:56:00Z,47.4942,-122.759,8.3,1.1,60,6,,10+,30.33,1027.7,,TRUE,TRUE,,,,,,,CLR,,,,,,,,VFR,,,,,,,,,,,,METAR,143
KPWG 272156Z AUTO 04005KT 10SM BKN085 11/03 A3020 RMK AO2 SLP227 T01060033,KPWG,2025-01-27T21:56:00Z,31.4891,-97.3202,10.6,3.3,40,5,,10+,30.20,1022.7,,TRUE,TRUE,,,,,,,BKN,8500,,,,,,,VFR,,,,,,,,,,,,METAR,178
KPVU 272156Z 23003KT 10SM CLR 00/M08 A3015 RMK AO2 SLP252 P0001 T00001083,KPVU,2025-01-27T21:56:00Z,40.224,-111.725,0,-8.3,230,3,,10+,30.15,1025.2,,,TRUE,,,,,,,CLR,,,,,,,,VFR,,,,,,0.01,,,,,,METAR,1370
KPVG 272156Z AUTO 22010KT 10SM FEW070 12/00 A2993 RMK AO2 SLP136 T01220000,KPVG,2025-01-27T21:56:00Z,36.7824,-76.452,12.2,0,220,10,,10+,29.93,1013.6,,TRUE,TRUE,,,,,,,FEW,7000,,,,,,,VFR,,,,,,,,,,,,METAR,7
KPVC 272156Z AUTO 22021G28KT 10SM CLR 02/M04 A2974 RMK AO2 PK WND 22032/2111 SLP071 T00171044 FZRANO PNO $,KPVC,2025-01-27T21:56:00Z,42.0743,-70.2183,1.7,-4.4,220,21,28,10+,29.74,1007.1,,TRUE,TRUE,TRUE,,,TRUE,,,CLR,,,,,,,,VFR,,,,,,,,,,,,METAR,1
KPTN 272156Z AUTO 02006KT 10SM CLR 17/13 A3014 RMK AO2 SLP206 T01670133 $,KPTN,2025-01-27T21:56:00Z,29.71,-91.3381,16.7,13.3,20,6,,10+,30.14,1020.6,,TRUE,TRUE,TRUE,,,,,,CLR,,,,,,,,VFR,,,,,,,,,,,,METAR,2
KPRX 272156Z AUTO CLR 12/02 A3020 RMK AO2 SLP228 T01170017 PWINO $,KPRX,2025-01-27T21:56:00Z,33.6359,-95.4514,11.7,1.7,,,,,30.20,1022.8,,TRUE,TRUE,TRUE,,,,TRUE,,CLR,,,,,,,,,,,,,,,,,,,,METAR,165
KPQI 272156Z AUTO 19020G24KT 9SM -SN BKN060 M02/M09 A2927 RMK AO2 PK WND 19030/2136 SLP949 P0000 T10221094,KPQI,2025-01-27T21:56:00Z,46.697,-68.054,-2.2,-9.4,190,20,24,9,29.27,994.9,,TRUE,TRUE,,,,,,-SN,BKN,6000,,,,,,,VFR,,,,,,0.005,,,,,,METAR,154
KPIB 272156Z AUTO 35009KT 10SM OVC010 11/ A3016 RMK AO2 SLPNO T0111,KPIB,2025-01-27T21:56:00Z,31.4727,-89.3383,11.1,,350,9,,10+,30.16,,,TRUE,TRUE,,,,,,,OVC,1000,,,,,,,MVFR,,,,,,,,,,,,METAR,91
KP60 272156Z AUTO 00000KT M08/M15 A3015 RMK AO1 SLP325 T10781150,KP60,2025-01-27T21:56:00Z,44.5448,-110.422,-7.8,-15,0,0,,,30.15,1032.5,,TRUE,TRUE,,,,,,,,,,,,,,,,,,,,,,,,,,,METAR,2377
KP53 272156Z AUTO 31014G26KT 01/M06 A2937 RMK AO1 PK WND 31030/2059 SLP951 T00061061 $,KP53,2025-01-27T21:56:00Z,46.412,-86.6504,0.6,-6.1,310,14,26,,29.37,995.1,,TRUE,TRUE,TRUE,,,,,,,,,,,,,,,,,,,,,,,,,,METAR,185
KP28 272156Z AUTO 20009G18KT 11/M06 A3009 RMK AO1 SLP200 T01111061 $,KP28,2025-01-27T21:56:00Z,37.2664,-98.5463,11.1,-6.1,200,9,18,,30.09,1020,,TRUE,TRUE,TRUE,,,,,,,,,,,,,,,,,,,,,,,,,,METAR,469
KOXC 272156Z 23010G16KT 10SM CLR 01/M12 A2974 RMK AO2 SLP092 T00111117,KOXC,2025-01-27T21:56:00Z,41.4741,-73.1353,1.1,-11.7,230,10,16,10+,29.74,1009.2,,,TRUE,,,,,,,CLR,,,,,,,,VFR,,,,,,,,,,,,METAR,211
KOWB 272156Z 25007KT 10SM CLR 05/M11 A3008 RMK AO2 SLP191 T00501106,KOWB,2025-01-27T21:56:00Z,37.7297,-87.1683,5,-10.6,250,7,,10+,30.08,1019.1,,,TRUE,,,,,,,CLR,,,,,,,,VFR,,,,,,,,,,,,METAR,121
KOTH 272156Z 27005KT 10SM CLR 13/M02 A3023 RMK AO2 SLP234 T01331022,KOTH,2025-01-27T21:56:00Z,43.4194,-124.244,13.3,-2.2,270,5,,10+,30.23,1023.4,,,TRUE,,,,,,,CLR,,,,,,,,VFR,,,,,,,,,,,,METAR,3
KOTG 272156Z AUTO 10SM BKN120 07/M08 A2977 RMK AO2 SLP102 T00671083 $,KOTG,2025-01-27T21:56:00Z,43.6525,-95.5759,6.7,-8.3,,,,10+,29.77,1010.2,,TRUE,TRUE,TRUE,,,,,,BKN,12000,,,,,,,VFR,,,,,,,,,,,,METAR,478
KOLU 272156Z AUTO 26014G18KT 10SM CLR 12/M12 A2990 RMK AO2 SLP139 T01171117,KOLU,2025-01-27T21:56:00Z,41.4472,-97.3391,11.7,-11.7,260,14,18,10+,29.90,1013.9,,TRUE,TRUE,,,,,,,CLR,,,,,,,,VFR,,,,,,,,,,,,METAR,438
KOKK 272156Z AUTO 24022G31KT 10SM CLR 03/M07 A2985 RMK AO2 PK WND 25031/2154 SLP117 T00281072,KOKK,2025-01-27T21:56:00Z,40.5304,-86.055,2.8,-7.2,240,22,31,10+,29.85,1011.7,,TRUE,TRUE,,,,,,,CLR,,,,,,,,VFR,,,,,,,,,,,,METAR,251
KOFK 272156Z AUTO 30014G25KT 10SM CLR 12/M09 A2983 RMK AO2 SLP116 T01221094,KOFK,2025-01-27T21:56:00Z,41.9799,-97.4335,12.2,-9.4,300,14,25,10+,29.83,1011.6,,TRUE,TRUE,,,,,,,CLR,,,,,,,,VFR,,,,,,,,,,,,METAR,476
KNYG 272156Z AUTO 23006KT 10SM CLR 11/M06 A2989 RMK AO2 SLP123 T01111061,KNYG,2025-01-27T21:56:00Z,38.503,-77.301,11.1,-6.1,230,6,,10+,29.89,1012.3,,TRUE,TRUE,,,,,,,CLR,,,,,,,,VFR,,,,,,,,,,,,METAR,2
KNXP 272156Z AUTO 28010KT 10SM -RA BKN032 OVC040 07/03 A3014 RMK AO2 RAB46 SLP193 P0000 T00670033 $,KNXP,2025-01-27T21:56:00Z,34.294,-116.147,6.7,3.3,280,10,,10+,30.14,1019.3,,TRUE,TRUE,TRUE,,,,,-RA,BKN,3200,OVC,4000,,,,,VFR,,,,,,0.005,,,,,,METAR,610
KNUC 272156Z 35006KT 10SM FEW024 FEW060 FEW180 13/07 A3011 RMK SLP195 T01330072,KNUC,2025-01-27T21:56:00Z,33.022,-118.583,13.3,7.2,350,6,,10+,30.11,1019.5,,,,,,,,,,FEW,2400,FEW,6000,FEW,18000,,,VFR,,,,,,,,,,,,METAR,52
KNTU 272156Z VRB06KT 10SM FEW250 12/M01 A2992 RMK AO2 SLP132 T01221011,KNTU,2025-01-27T21:56:00Z,36.8209,-76.0277,12.2,-1.1,VRB,6,,10+,29.92,1013.2,,,TRUE,,,,,,,FEW,25000,,,,,,,VFR,,,,,,,,,,,,METAR,6
KNSE 272156Z 30005KT 10SM SCT007 BKN020 BKN038 17/16 A3008 RMK AO2 SLP171 T01720161 $,KNSE,2025-01-27T21:56:00Z,30.728,-87.022,17.2,16.1,300,5,,10+,30.08,1017.1,,,TRUE,TRUE,,,,,,SCT,700,BKN,2000,BKN,3800,,,MVFR,,,,,,,,,,,,METAR,56
KNQI 272156Z 03008KT 1SM BR OVC003 14/13 A3013 RMK AO2 DZE52 SLP200 P0000 T01390128 $,KNQI,2025-01-27T21:56:00Z,27.507,-97.81,13.9,12.8,30,8,,1,30.13,1020,,,TRUE,TRUE,,,,,BR,OVC,300,,,,,,,LIFR,,,,,,0.005,,,,,,METAR,15
KNPA 272156Z 24007KT 10SM SCT023 BKN090 BKN250 19/17 A3007 RMK AO2 RAE27 SLP184 P0000 T01890172 $,KNPA,2025-01-27T21:56:00Z,30.356,-87.323,18.9,17.2,240,7,,10+,30.07,1018.4,,,TRUE,TRUE,,,,,,SCT,2300,BKN,9000,BKN,25000,,,VFR,,,,,,0.005,,,,,,METAR,6
KNMM 272156Z 32009KT 10SM OVC011 10/07 A3016 RMK AO2 SLP223 T01000067 $,KNMM,2025-01-27T21:56:00Z,32.546,-88.543,10,6.7,320,9,,10+,30.16,1022.3,,,TRUE,TRUE,,,,,,OVC,1100,,,,,,,MVFR,,,,,,,,,,,,METAR,94
KNLC 272156Z VRB03KT 10SM FEW040 FEW080 13/00 A3015 RMK AO2 SLP212 RH/40 T01330000,KNLC,2025-01-27T21:56:00Z,36.3024,-119.94,13.3,0,VRB,3,,10+,30.15,1021.2,,,TRUE,,,,,,,FEW,4000,FEW,8000,,,,,VFR,,,,,,,,,,,,METAR,69
KNKT 272156Z 21007KT 4SM -RA BR OVC005 08/07 A3003 RMK AO2 SLP167 P0001 T00780072,KNKT,2025-01-27T21:56:00Z,34.897,-76.881,7.8,7.2,210,7,,4,30.03,1016.7,,,TRUE,,,,,,-RA BR,OVC,500,,,,,,,IFR,,,,,,0.01,,,,,,METAR,8
KNJK 272156Z COR 27005KT 10SM FEW075 SCT100 17/01 A3005 RMK AO2 SLP190 VCSH S T01720011 $,KNJK,2025-01-27T21:56:00Z,32.823,-115.668,17.2,1.1,270,5,,10+,30.05,1019,TRUE,,TRUE,TRUE,,,,,,FEW,7500,SCT,10000,,,,,VFR,,,,,,,,,,,,METAR,-15
KNID 272156Z COR 36013G21KT 10SM FEW070 SCT120 SCT220 14/M05 A3005 RMK AO2 SLP176 T01441050,KNID,2025-01-27T21:56:00Z,35.688,-117.69,14.4,-5,360,13,21,10+,30.05,1017.6,TRUE,,TRUE,,,,,,,FEW,7000,SCT,12000,SCT,22000,,,VFR,,,,,,,,,,,,METAR,682
KNGP 272156Z 04013KT 6SM HZ OVC006 13/11 A3013 RMK AO2 SLP201 T01330106,KNGP,2025-01-27T21:56:00Z,27.688,-97.292,13.3,10.6,40,13,,6,30.13,1020.1,,,TRUE,,,,,,HZ,OVC,600,,,,,,,IFR,,,,,,,,,,,,METAR,5
KNFG 272156Z 21007KT 7SM BKN030 16/04 A3009 RMK AO2 SLPNO T01560039,KNFG,2025-01-27T21:56:00Z,33.304,-117.355,15.6,3.9,210,7,,7,30.09,,,,TRUE,,,,,,,BKN,3000,,,,,,,MVFR,,,,,,,,,,,,METAR,21
KNFE 272156Z AUTO VRB05KT 10SM BKN070 12/M02 A2994 RMK AO2 SLP139 T01221022,KNFE,2025-01-27T21:56:00Z,36.701,-76.129,12.2,-2.2,VRB,5,,10+,29.94,1013.9,,TRUE,TRUE,,,,,,,BKN,7000,,,,,,,VFR,,,,,,,,,,,,METAR,4
KNDZ 272156Z 33005KT 10SM SCT007 BKN018 BKN038 17/15 A3008 RMK AO2 RAB31E40 SLP171 P0000 T01720150 $,KNDZ,2025-01-27T21:56:00Z,30.6973,-87.0207,17.2,15,330,5,,10+,30.08,1017.1,,,TRUE,TRUE,,,,,,SCT,700,BKN,1800,BKN,3800,,,MVFR,,,,,,0.005,,,,,,METAR,51
KNBC 272156Z 23003KT 10SM OVC042 11/05 A3008 RMK AO2 SLP185 T01060050,KNBC,2025-01-27T21:56:00Z,32.477,-80.722,10.6,5,230,3,,10+,30.08,1018.5,,,TRUE,,,,,,,OVC,4200,,,,,,,VFR,,,,,,,,,,,,METAR,9
KMVN 272156Z AUTO 23013KT 10SM CLR 04/M07 A3005 RMK AO2 SLP185 T00441067,KMVN,2025-01-27T21:56:00Z,38.3284,-88.853,4.4,-6.7,230,13,,10+,30.05,1018.5,,TRUE,TRUE,,,,,,,CLR,,,,,,,,VFR,,,,,,,,,,,,METAR,145
KMTW 272156Z AUTO 25015G20KT 10SM BKN042 OVC055 03/M06 RMK AO2 PK WND 26027/2120 RAE30 SLPNO P0000 T00331061 $,KMTW,2025-01-27T21:56:00Z,44.1322,-87.6819,3.3,-6.1,250,15,20,10+,0.00,,,TRUE,TRUE,TRUE,,,,,,BKN,4200,OVC,5500,,,,,VFR,,,,,,0.005,,,,,,METAR,197
KMTC 272156Z 21018G21KT 10SM SCT180 BKN230 03/M11 A2956 RMK AO2A PK WND 21030/00 SLP021 T00301106 $,KMTC,2025-01-27T21:56:00Z,42.6045,-82.8353,3,-10.6,210,18,21,10+,29.56,1002.1,,,TRUE,TRUE,,,,,,SCT,18000,BKN,23000,,,,,VFR,,,,,,,,,,,,METAR,177
KMQY 272156Z 32004KT 10SM CLR 09/M10 A3010 RMK AO2 SLP202 T00891100,KMQY,2025-01-27T21:56:00Z,36.0029,-86.5144,8.9,-10,320,4,,10+,30.10,1020.2,,,TRUE,,,,,,,CLR,,,,,,,,VFR,,,,,,,,,,,,METAR,156
KMOB 272156Z 31006KT 10SM OVC011 16/14 A3011 RMK AO2 SLP193 T01610139,KMOB,2025-01-27T21:56:00Z,30.6882,-88.2459,16.1,13.9,310,6,,10+,30.11,1019.3,,,TRUE,,,,,,,OVC,1100,,,,,,,MVFR,,,,,,,,,,,,METAR,67
KMML 272156Z AUTO 31018KT 10SM BKN085 04/M07 A2977 RMK AO2 SLP097 T00391067,KMML,2025-01-27T21:56:00Z,44.4504,-95.8215,3.9,-6.7,310,18,,10+,29.77,1009.7,,TRUE,TRUE,,,,,,,BKN,8500,,,,,,,VFR,,,,,,,,,,,,METAR,358
KMKT 272156Z AUTO 30014G20KT 10SM FEW080 03/M07 A2974 RMK AO2 PK WND 28026/2109 SLP084 T00331072,KMKT,2025-01-27T21:56:00Z,44.2184,-93.9179,3.3,-7.2,300,14,20,10+,29.74,1008.4,,TRUE,TRUE,,,,,,,FEW,8000,,,,,,,VFR,,,,,,,,,,,,METAR,309
KMJX 272156Z AUTO 23007KT 10SM CLR 05/M14 A2986 RMK AO2 SLP116 T00501139,KMJX,2025-01-27T21:56:00Z,39.9235,-74.297,5,-13.9,230,7,,10+,29.86,1011.6,,TRUE,TRUE,,,,,,,CLR,,,,,,,,VFR,,,,,,,,,,,,METAR,22
KMEH 272156Z AUTO 00000KT 10SM CLR 02/M10 A3028 RMK AO2 SLP294 T00171100,KMEH,2025-01-27T21:56:00Z,45.512,-118.425,1.7,-10,0,0,,10+,30.28,1029.4,,TRUE,TRUE,,,,,,,CLR,,,,,,,,VFR,,,,,,,,,,,,METAR,1138
KMDT 272156Z 25005KT 10SM CLR 04/M11 A2981 RMK AO2 SLP100 T00391106,KMDT,2025-01-27T21:56:00Z,40.1962,-76.7725,3.9,-10.6,250,5,,10+,29.81,1010,,,TRUE,,,,,,,CLR,,,,,,,,VFR,,,,,,,,,,,,METAR,91
KM19 272156Z AUTO 20009KT 10SM CLR 09/M07 A3016 RMK AO2 SLP228 T00891072 PNO $,KM19,2025-01-27T21:56:00Z,35.643,-91.1735,8.9,-7.2,200,9,,10+,30.16,1022.8,,TRUE,TRUE,TRUE,,,,,,CLR,,,,,,,,VFR,,,,,,,,,,,,METAR,72
KLWS 272156Z 00000KT 10SM CLR 02/M08 A3040 RMK AO2 SLP312 T00221083,KLWS,2025-01-27T21:56:00Z,46.3746,-117.015,2.2,-8.3,0,0,,10+,30.40,1031.2,,,TRUE,,,,,,,CLR,,,,,,,,VFR,,,,,,,,,,,,METAR,435
KLRD 272156Z 03006KT 6SM BR OVC007 11/09 A3016 RMK AO2 RAB2059E11 CIG 005V009 SLP213 P0000 T01060094,KLRD,2025-01-27T21:56:00Z,27.551,-99.4614,10.6,9.4,30,6,,6,30.16,1021.3,,,TRUE,,,,,,BR,OVC,700,,,,,,,IFR,,,,,,0.005,,,,,,METAR,150
KLNR 272156Z AUTO 28023G33KT 10SM -RA BKN041 BKN050 OVC060 04/M06 A2968 RMK AO2 PK WND 29039/2119 RAB35 SLP054 P0000 T00391061,KLNR,2025-01-27T21:56:00Z,43.2111,-90.1874,3.9,-6.1,280,23,33,10+,29.68,1005.4,,TRUE,TRUE,,,,,,-RA,BKN,4100,BKN,5000,OVC,6000,,,VFR,,,,,,0.005,,,,,,METAR,218
KLGD 272156Z AUTO 21003KT 10SM CLR 02/M11 A3033 RMK AO2 SLPNO T00171111 FZRANO,KLGD,2025-01-27T21:56:00Z,45.2906,-118.009,1.7,-11.1,210,3,,10+,30.33,,,TRUE,TRUE,,,,TRUE,,,CLR,,,,,,,,VFR,,,,,,,,,,,,METAR,827
KLEW 272156Z AUTO 19010KT 10SM CLR 01/M11 A2952 RMK AO2 SLP005 T00111111 FZRANO,KLEW,2025-01-27T21:56:00Z,44.0444,-70.2853,1.1,-11.1,190,10,,10+,29.52,1000.5,,TRUE,TRUE,,,,TRUE,,,CLR,,,,,,,,VFR,,,,,,,,,,,,METAR,81
KLCI 272156Z AUTO 22016G20KT 10SM CLR 02/M12 A2955 RMK AO2 PK WND 23026/2126 SLP012 T00171117 FZRANO,KLCI,2025-01-27T21:56:00Z,43.5718,-71.4254,1.7,-11.7,220,16,20,10+,29.55,1001.2,,TRUE,TRUE,,,,TRUE,,,CLR,,,,,,,,VFR,,,,,,,,,,,,METAR,166
KLBL 272156Z AUTO 21016KT 10SM CLR 13/M05 A3005 RMK AO2 SLP191 T01331050,KLBL,2025-01-27T21:56:00Z,37.0375,-100.957,13.3,-5,210,16,,10+,30.05,1019.1,,TRUE,TRUE,,,,,,,CLR,,,,,,,,VFR,,,,,,,,,,,,METAR,877
KLAS 272156Z 00000KT 10SM FEW065 SCT080 BKN150 11/M09 A3003 RMK AO2 SLP168 VIRGA DSNT NE AND SW-NW T01111094,KLAS,2025-01-27T21:56:00Z,36.0719,-115.163,11.1,-9.4,0,0,,10+,30.03,1016.8,,,TRUE,,,,,,,FEW,6500,SCT,8000,BKN,15000,,,VFR,,,,,,,,,,,,METAR,662
KKLS 272156Z AUTO 31006KT 10SM CLR 09/M02 A3031 RMK AO2 SLP268 T00891022,KKLS,2025-01-27T21:56:00Z,46.118,-122.898,8.9,-2.2,310,6,,10+,30.31,1026.8,,TRUE,TRUE,,,,,,,CLR,,,,,,,,VFR,,,,,,,,,,,,METAR,4
KJXN 272156Z 22023G33KT 10SM CLR 02/M11 A2962 RMK AO2 PK WND 21039/2114 SLP041 T00221106,KJXN,2025-01-27T21:56:00Z,42.259,-84.4589,2.2,-10.6,220,23,33,10+,29.62,1004.1,,,TRUE,,,,,,,CLR,,,,,,,,VFR,,,,,,,,,,,,METAR,303
KJRB 272156Z AUTO 26010KT 10SM CLR 05/M11 A2983 RMK AO2 SLP100 T00501106 PNO $,KJRB,2025-01-27T21:56:00Z,40.701,-74.009,5,-10.6,260,10,,10+,29.83,1010,,TRUE,TRUE,TRUE,,,,,,CLR,,,,,,,,VFR,,,,,,,,,,,,METAR,2
KJMS 272156Z AUTO 32012KT 10SM CLR 02/M03 A2983 RMK AO2 SLP120 T00171028,KJMS,2025-01-27T21:56:00Z,46.9259,-98.6704,1.7,-2.8,320,12,,10+,29.83,1012,,TRUE,TRUE,,,,,,,CLR,,,,,,,,VFR,,,,,,,,,,,,METAR,455
KJKA 272156Z 28009G15KT 10SM BKN008 18/15 A3007,KJKA,2025-01-27T21:56:00Z,30.291,-87.661,18,15,280,9,15,10+,30.07,,,,,,,,,,,BKN,800,,,,,,,IFR,,,,,,,,,,,,METAR,5
KJHW 272156Z AUTO 22020G27KT 10SM CLR M03/M13 A2962 RMK AO2 PK WND 23031/2118 SLP061 T10281133 FZRANO,KJHW,2025-01-27T21:56:00Z,42.1534,-79.2542,-2.8,-13.3,220,20,27,10+,29.62,1006.1,,TRUE,TRUE,,,,TRUE,,,CLR,,,,,,,,VFR,,,,,,,,,,,,METAR,520
KJAX 272156Z 01005KT 10SM FEW050 BKN100 BKN250 20/12 A3008 RMK AO2 SLP185 T02000117,KJAX,2025-01-27T21:56:00Z,30.4953,-81.6937,20,11.7,10,5,,10+,30.08,1018.5,,,TRUE,,,,,,,FEW,5000,BKN,10000,BKN,25000,,,VFR,,,,,,,,,,,,METAR,8
KJAC 272156Z 16003KT 10SM CLR M07/M18 A3019 RMK AO2 SLP354 T10721178,KJAC,2025-01-27T21:56:00Z,43.6129,-110.737,-7.2,-17.8,160,3,,10+,30.19,1035.4,,,TRUE,,,,,,,CLR,,,,,,,,VFR,,,,,,,,,,,,METAR,1967
KIWD 272156Z AUTO 29011KT 10SM SCT031 OVC047 M01/M07 A2951 RMK AO2 SNB21E47 SLP011 P0000 T10111067 FZRANO,KIWD,2025-01-27T21:56:00Z,46.5321,-90.126,-1.1,-6.7,290,11,,10+,29.51,1001.1,,TRUE,TRUE,,,,TRUE,,,SCT,3100,OVC,4700,,,,,VFR,,,,,,0.005,,,,,,METAR,373
KITH 272156Z 20015KT 10SM CLR 01/M14 A2961 RMK AO2 PK WND 22026/2106 SLP040 T00111144,KITH,2025-01-27T21:56:00Z,42.4931,-76.4569,1.1,-14.4,200,15,,10+,29.61,1004,,,TRUE,,,,,,,CLR,,,,,,,,VFR,,,,,,,,,,,,METAR,338
KISP 272156Z 22009KT 10SM FEW250 03/M09 A2980 RMK AO2 SLP091 T00281094,KISP,2025-01-27T21:56:00Z,40.7939,-73.1018,2.8,-9.4,220,9,,10+,29.80,1009.1,,,TRUE,,,,,,,FEW,25000,,,,,,,VFR,,,,,,,,,,,,METAR,25
KISO 272156Z 20005KT 5SM RA OVC005 08/08 A3001,KISO,2025-01-27T21:56:00Z,35.324,-77.6187,8,8,200,5,,5,30.01,,,,,,,,,,RA,OVC,500,,,,,,,IFR,,,,,,,,,,,,METAR,27
KISM 272156Z 24005KT 10SM CLR 22/10 A3012 RMK AO2 SLP200 T02220100 PNO $,KISM,2025-01-27T21:56:00Z,28.2924,-81.4371,22.2,10,240,5,,10+,30.12,1020,,,TRUE,TRUE,,,,,,CLR,,,,,,,,VFR,,,,,,,,,,,,METAR,25
KINW 272156Z AUTO 25011G21KT 10SM OVC090 11/M09 A2995 RMK AO2 SLP143 T01061089,KINW,2025-01-27T21:56:00Z,35.028,-110.722,10.6,-8.9,250,11,21,10+,29.95,1014.3,,TRUE,TRUE,,,,,,,OVC,9000,,,,,,,VFR,,,,,,,,,,,,METAR,1492
KILE 272156Z AUTO 04005KT 10SM BKN039 OVC075 11/02 A3019 RMK AO2 SLP221 T01110022,KILE,2025-01-27T21:56:00Z,31.084,-97.6885,11.1,2.2,40,5,,10+,30.19,1022.1,,TRUE,TRUE,,,,,,,BKN,3900,OVC,7500,,,,,VFR,,,,,,,,,,,,METAR,256
KHYS 272156Z AUTO 23013KT 10SM CLR 12/M04 A3001 RMK AO2 SLP175 T01171044,KHYS,2025-01-27T21:56:00Z,38.8392,-99.2742,11.7,-4.4,230,13,,10+,30.01,1017.5,,TRUE,TRUE,,,,,,,CLR,,,,,,,,VFR,,,,,,,,,,,,METAR,607
KHYI 272156Z 02010KT 11/06 A3018 RMK AO2 SLP221 T01110061 PWINO $,KHYI,2025-01-27T21:56:00Z,29.8958,-97.8664,11.1,6.1,20,10,,,30.18,1022.1,,,TRUE,TRUE,,,,TRUE,,,,,,,,,,,,,,,,,,,,,,METAR,180
KHYA 272156Z AUTO 22013KT 10SM CLR 01/M06 A2976 RMK AO2 SLP080 T00061056,KHYA,2025-01-27T21:56:00Z,41.6719,-70.2697,0.6,-5.6,220,13,,10+,29.76,1008,,TRUE,TRUE,,,,,,,CLR,,,,,,,,VFR,,,,,,,,,,,,METAR,11
KHRT 272156Z 20007KT 10SM BKN025 OVC030 20/16 A3006 RMK AO2A SLP178 T01950161 $,KHRT,2025-01-27T21:56:00Z,30.428,-86.69,19.5,16.1,200,7,,10+,30.06,1017.8,,,TRUE,TRUE,,,,,,BKN,2500,OVC,3000,,,,,MVFR,,,,,,,,,,,,METAR,10
KHPN 272156Z VRB06G20KT 10SM CLR 03/M14 A2977 RMK AO2 SLP088 T00281144,KHPN,2025-01-27T21:56:00Z,41.0624,-73.7046,2.8,-14.4,VRB,6,20,10+,29.77,1008.8,,,TRUE,,,,,,,CLR,,,,,,,,VFR,,,,,,,,,,,,METAR,113
KHND 272156Z 01010KT 10SM FEW047 SCT055 OVC075 11/M09 A3004 RMK AO2 SLP192 T01111089 $,KHND,2025-01-27T21:56:00Z,35.9658,-115.134,11.1,-8.9,10,10,,10+,30.04,1019.2,,,TRUE,TRUE,,,,,,FEW,4700,SCT,5500,OVC,7500,,,VFR,,,,,,,,,,,,METAR,740
KHNB 272156Z AUTO 24007KT 10SM CLR 03/M07 A3006 RMK AO2 SLP185 T00331072,KHNB,2025-01-27T21:56:00Z,38.2505,-86.9473,3.3,-7.2,240,7,,10+,30.06,1018.5,,TRUE,TRUE,,,,,,,CLR,,,,,,,,VFR,,,,,,,,,,,,METAR,159
KHEZ 272156Z AUTO 36006KT 10SM OVC008 09/07 A3019 RMK AO2 SLP225 T00890072,KHEZ,2025-01-27T21:56:00Z,31.6159,-91.2973,8.9,7.2,360,6,,10+,30.19,1022.5,,TRUE,TRUE,,,,,,,OVC,800,,,,,,,IFR,,,,,,,,,,,,METAR,82
KHEF 272156Z 20006KT 10SM CLR 09/M06 A2988 RMK AO2 SLP125 T00891056,KHEF,2025-01-27T21:56:00Z,38.724,-77.5175,8.9,-5.6,200,6,,10+,29.88,1012.5,,,TRUE,,,,,,,CLR,,,,,,,,VFR,,,,,,,,,,,,METAR,53
KHDN 272156Z AUTO 20004KT 10SM M11/M17 A3015 RMK AO2 SLP317 T11111167 FZRANO,KHDN,2025-01-27T21:56:00Z,40.4842,-107.23,-11.1,-16.7,200,4,,10+,30.15,1031.7,,TRUE,TRUE,,,,TRUE,,,,,,,,,,,VFR,,,,,,,,,,,,METAR,2012
KGXY 272156Z AUTO 00000KT 10SM CLR 02/M05 A3007 RMK AO2 SLP243 T00221050 FZRANO,KGXY,2025-01-27T21:56:00Z,40.4345,-104.63,2.2,-5,0,0,,10+,30.07,1024.3,,TRUE,TRUE,,,,TRUE,,,CLR,,,,,,,,VFR,,,,,,,,,,,,METAR,1420
KGVQ 272156Z AUTO 22016G32KT 10SM CLR 00/M14 A2951 RMK AO2 PK WND 22041/2123 SLP002 T00001139 FZRANO,KGVQ,2025-01-27T21:56:00Z,43.0298,-78.1665,0,-13.9,220,16,32,10+,29.51,1000.2,,TRUE,TRUE,,,,TRUE,,,CLR,,,,,,,,VFR,,,,,,,,,,,,METAR,279
KGUC 272156Z AUTO 10005KT 10SM CLR M11/M17 A3010 RMK AO2 SLP307 T11061167 FZRANO,KGUC,2025-01-27T21:56:00Z,38.5322,-106.942,-10.6,-16.7,100,5,,10+,30.10,1030.7,,TRUE,TRUE,,,,TRUE,,,CLR,,,,,,,,VFR,,,,,,,,,,,,METAR,2337
KGTU 272156Z 01007KT 10SM OVC032 12/04 A3018 RMK AO2 SLP225 T01220039,KGTU,2025-01-27T21:56:00Z,30.6809,-97.6767,12.2,3.9,10,7,,10+,30.18,1022.5,,,TRUE,,,,,,,OVC,3200,,,,,,,VFR,,,,,,,,,,,,METAR,232
KGTR 272156Z 27003KT 10SM FEW018 10/07 A3016 RMK AO2 SLP214 T01000067 PNO $,KGTR,2025-01-27T21:56:00Z,33.456,-88.593,10,6.7,270,3,,10+,30.16,1021.4,,,TRUE,TRUE,,,,,,FEW,1800,,,,,,,VFR,,,,,,,,,,,,METAR,80
KGRD 272156Z AUTO 22008KT 3SM BR OVC008 09/09 A3001 RMK AO2 CIG 005V010 SLP164 T00890089,KGRD,2025-01-27T21:56:00Z,34.2539,-82.1526,8.9,8.9,220,8,,3,30.01,1016.4,,TRUE,TRUE,,,,,,BR,OVC,800,,,,,,,IFR,,,,,,,,,,,,METAR,188
KGPZ 272156Z AUTO 33014G19KT 10SM OVC034 00/M06 A2964 RMK AO2 SLP058 T00001056 FZRANO,KGPZ,2025-01-27T21:56:00Z,47.2029,-93.5071,0,-5.6,330,14,19,10+,29.64,1005.8,,TRUE,TRUE,,,,TRUE,,,OVC,3400,,,,,,,VFR,,,,,,,,,,,,METAR,410
KGON 272156Z 22012G20KT 10SM CLR 02/M06 A2978 RMK AO2 SLP083 T00171061,KGON,2025-01-27T21:56:00Z,41.3279,-72.0489,1.7,-6.1,220,12,20,10+,29.78,1008.3,,,TRUE,,,,,,,CLR,,,,,,,,VFR,,,,,,,,,,,,METAR,2
KGNR 272156Z AUTO 19009G19KT M03/M11 A2931 RMK AO1 SLP949 T10331111,KGNR,2025-01-27T21:56:00Z,45.4649,-69.5543,-3.3,-11.1,190,9,19,,29.31,994.9,,TRUE,TRUE,,,,,,,,,,,,,,,,,,,,,,,,,,,METAR,426
KGNA 272156Z AUTO 33006G15KT M02/M10 A2952 RMK AO1 SLP006 T10171100,KGNA,2025-01-27T21:56:00Z,47.745,-90.346,-1.7,-10,330,6,15,,29.52,1000.6,,TRUE,TRUE,,,,,,,,,,,,,,,,,,,,,,,,,,,METAR,186
KGDV 272156Z AUTO 30015KT 10SM CLR 03/M03 A2998 RMK AO2 SLP178 T00281028 TSNO,KGDV,2025-01-27T21:56:00Z,47.14,-104.813,2.8,-2.8,300,15,,10+,29.98,1017.8,,TRUE,TRUE,,,TRUE,,,,CLR,,,,,,,,VFR,,,,,,,,,,,,METAR,749
KGBD 272156Z AUTO 24018KT 10SM CLR 10/M03 A3004 RMK AO2 SLP187 T01001028,KGBD,2025-01-27T21:56:00Z,38.3405,-98.8592,10,-2.8,240,18,,10+,30.04,1018.7,,TRUE,TRUE,,,,,,,CLR,,,,,,,,VFR,,,,,,,,,,,,METAR,573
KGAI 272156Z AUTO 23006KT 10SM CLR 07/M07 A2986 RMK AO2 SLP131 T00721067 PNO $,KGAI,2025-01-27T21:56:00Z,39.1696,-77.1653,7.2,-6.7,230,6,,10+,29.86,1013.1,,TRUE,TRUE,TRUE,,,,,,CLR,,,,,,,,VFR,,,,,,,,,,,,METAR,151
KGAD 272156Z AUTO 29009KT 10SM OVC018 09/07 A3011 RMK AO2 SLP201 T00890067 $,KGAD,2025-01-27T21:56:00Z,33.9686,-86.0917,8.9,6.7,290,9,,10+,30.11,1020.1,,TRUE,TRUE,TRUE,,,,,,OVC,1800,,,,,,,MVFR,,,,,,,,,,,,METAR,169
KFSD 272156Z 31019KT 10SM SCT140 SCT180 07/M08 A2981 RMK AO2 PK WND 33026/2117 SLP111 ACC N AND S T00721078,KFSD,2025-01-27T21:56:00Z,43.5775,-96.7539,7.2,-7.8,310,19,,10+,29.81,1011.1,,,TRUE,,,,,,,SCT,14000,SCT,18000,,,,,VFR,,,,,,,,,,,,METAR,433
KFRM 272156Z AUTO 30009KT 10SM FEW120 04/M09 A2977 RMK AO2 SLP098 T00391094,KFRM,2025-01-27T21:56:00Z,43.6455,-94.4168,3.9,-9.4,300,9,,10+,29.77,1009.8,,TRUE,TRUE,,,,,,,FEW,12000,,,,,,,VFR,,,,,,,,,,,,METAR,353
KFOD 272156Z AUTO 27011G19KT 10SM BKN095 BKN120 08/M12 A2980 RMK AO2 SLP116 T00781117,KFOD,2025-01-27T21:56:00Z,42.549,-94.182,7.8,-11.7,270,11,19,10+,29.80,1011.6,,TRUE,TRUE,,,,,,,BKN,9500,BKN,12000,,,,,VFR,,,,,,,,,,,,METAR,347
KFNL 272156Z 09003KT 10SM CLR 05/M06 A3005 RMK AO2 SLP202 T00501056,KFNL,2025-01-27T21:56:00Z,40.4427,-105.01,5,-5.6,90,3,,10+,30.05,1020.2,,,TRUE,,,,,,,CLR,,,,,,,,VFR,,,,,,,,,,,,METAR,1529
KFKL 272156Z AUTO 22010G20KT 10SM CLR M01/M13 A2974 RMK AO2 PK WND 21028/2119 SLPNO T10111133 FZRANO,KFKL,2025-01-27T21:56:00Z,41.3806,-79.8603,-1.1,-13.3,220,10,20,10+,29.74,,,TRUE,TRUE,,,,TRUE,,,CLR,,,,,,,,VFR,,,,,,,,,,,,METAR,468
KFCI 272156Z AUTO 24008G18KT 10SM CLR 12/M02 A2990 RMK AO2 SLP136 T01221017,KFCI,2025-01-27T21:56:00Z,37.407,-77.522,12.2,-1.7,240,8,18,10+,29.90,1013.6,,TRUE,TRUE,,,,,,,CLR,,,,,,,,VFR,,,,,,,,,,,,METAR,63
KFAM 272156Z AUTO 27008KT 10SM CLR 08/M09 A3006 RMK AO2 SLP198 T00781089,KFAM,2025-01-27T21:56:00Z,37.7631,-90.4292,7.8,-8.9,270,8,,10+,30.06,1019.8,,TRUE,TRUE,,,,,,,CLR,,,,,,,,VFR,,,,,,,,,,,,METAR,276
KEWK 272156Z AUTO 22012KT 10SM CLR 07/M03 A3008 RMK AO2 SLP196 T00721033,KEWK,2025-01-27T21:56:00Z,38.0621,-97.275,7.2,-3.3,220,12,,10+,30.08,1019.6,,TRUE,TRUE,,,,,,,CLR,,,,,,,,VFR,,,,,,,,,,,,METAR,468
KEUL 272156Z AUTO 00000KT 10SM CLR 02/M12 A3035 RMK AO2 SLP307 T00171122 FZRANO,KEUL,2025-01-27T21:56:00Z,43.6405,-116.63,1.7,-12.2,0,0,,10+,30.35,1030.7,,TRUE,TRUE,,,,TRUE,,,CLR,,,,,,,,VFR,,,,,,,,,,,,METAR,741
KESC 272156Z AUTO 30013KT 10SM OVC044 02/M07 A2941 RMK AO2 PK WND 29027/2112 SLP971 T00221067 FZRANO,KESC,2025-01-27T21:56:00Z,45.7225,-87.0893,2.2,-6.7,300,13,,10+,29.41,997.1,,TRUE,TRUE,,,,TRUE,,,OVC,4400,,,,,,,VFR,,,,,,,,,,,,METAR,180
KENV 272156Z AUTO 16004KT 10SM CLR 01/M10 A3020 RMK AO2 SLP263 T00111100 FZRANO,KENV,2025-01-27T21:56:00Z,40.7211,-114.031,1.1,-10,160,4,,10+,30.20,1026.3,,TRUE,TRUE,,,,TRUE,,,CLR,,,,,,,,VFR,,,,,,,,,,,,METAR,1291
KELZ 272156Z AUTO 24015G30KT 10SM CLR M02/M17 A2960 RMK AO2 PK WND 24030/2154 SLP054 T10221172,KELZ,2025-01-27T21:56:00Z,42.1077,-77.9842,-2.2,-17.2,240,15,30,10+,29.60,1005.4,,TRUE,TRUE,,,,,,,CLR,,,,,,,,VFR,,,,,,,,,,,,METAR,639
KEKY 272156Z AUTO 31008KT 10SM OVC011 09/07 A3012 RMK AO2 SLP177 T00890072,KEKY,2025-01-27T21:56:00Z,33.314,-86.925,8.9,7.2,310,8,,10+,30.12,1017.7,,TRUE,TRUE,,,,,,,OVC,1100,,,,,,,MVFR,,,,,,,,,,,,METAR,213
KEKQ 272156Z AUTO 27008KT 10SM CLR 07/M12 A3005 RMK AO2 SLP178 T00671122,KEKQ,2025-01-27T21:56:00Z,36.8576,-84.8562,6.7,-12.2,270,8,,10+,30.05,1017.8,,TRUE,TRUE,,,,,,,CLR,,,,,,,,VFR,,,,,,,,,,,,METAR,291
KEKO 272156Z AUTO 09005KT 10SM CLR 06/M14 A3014 RMK AO2 SLP234 T00561139,KEKO,2025-01-27T21:56:00Z,40.824,-115.786,5.6,-13.9,90,5,,10+,30.14,1023.4,,TRUE,TRUE,,,,,,,CLR,,,,,,,,VFR,,,,,,,,,,,,METAR,1541
KEHR 272156Z AUTO 27008KT 10SM CLR 05/M09 A3008 RMK AO2 SLP190 T00501094 $,KEHR,2025-01-27T21:56:00Z,37.8066,-87.6824,5,-9.4,270,8,,10+,30.08,1019,,TRUE,TRUE,TRUE,,,,,,CLR,,,,,,,,VFR,,,,,,,,,,,,METAR,117
KEGE 272156Z 10003KT 10SM CLR 02/M12 A3012 RMK AO2 SLP236 T00171122,KEGE,2025-01-27T21:56:00Z,39.6448,-106.918,1.7,-12.2,100,3,,10+,30.12,1023.6,,,TRUE,,,,,,,CLR,,,,,,,,VFR,,,,,,,,,,,,METAR,1993
KEEN 272156Z AUTO 22014G17KT 10SM CLR 02/M11 A2960 RMK AO2 SLP031 T00171106 FZRANO $,KEEN,2025-01-27T21:56:00Z,42.898,-72.2695,1.7,-10.6,220,14,17,10+,29.60,1003.1,,TRUE,TRUE,TRUE,,,TRUE,,,CLR,,,,,,,,VFR,,,,,,,,,,,,METAR,143
KEED 272156Z AUTO 30004KT 10SM OVC049 13/03 A3005 RMK AO2 SLP163 T01330028 PWINO $,KEED,2025-01-27T21:56:00Z,34.7678,-114.618,13.3,2.8,300,4,,10+,30.05,1016.3,,TRUE,TRUE,TRUE,,,,TRUE,,OVC,4900,,,,,,,VFR,,,,,,,,,,,,METAR,271
KEAU 272156Z 27014KT 10SM CLR 00/M07 A2962 RMK AO2 SLP043 T00001067,KEAU,2025-01-27T21:56:00Z,44.8665,-91.4881,0,-6.7,270,14,,10+,29.62,1004.3,,,TRUE,,,,,,,CLR,,,,,,,,VFR,,,,,,,,,,,,METAR,271
KEAR 272156Z AUTO 29014KT 10SM CLR 12/M13 A2993 RMK AO2 SLP148 T01221128,KEAR,2025-01-27T21:56:00Z,40.7193,-99.0086,12.2,-12.8,290,14,,10+,29.93,1014.8,,TRUE,TRUE,,,,,,,CLR,,,,,,,,VFR,,,,,,,,,,,,METAR,649
KDYR 272156Z AUTO 27006KT 10SM CLR 07/M08 A3015 RMK AO2 SLP219 T00721083,KDYR,2025-01-27T21:56:00Z,35.9957,-89.4057,7.2,-8.3,270,6,,10+,30.15,1021.9,,TRUE,TRUE,,,,,,,CLR,,,,,,,,VFR,,,,,,,,,,,,METAR,98
KDWU 272156Z AUTO 23005KT 10SM CLR 05/M11 A2999 RMK AO2 SLP161 T00501111,KDWU,2025-01-27T21:56:00Z,38.556,-82.7375,5,-11.1,230,5,,10+,29.99,1016.1,,TRUE,TRUE,,,,,,,CLR,,,,,,,,VFR,,,,,,,,,,,,METAR,165
KDVL 272156Z AUTO 29012KT 10SM CLR 00/M03 A2982 RMK AO2 SLP121 T00001033 FZRANO,KDVL,2025-01-27T21:56:00Z,48.1136,-98.9034,0,-3.3,290,12,,10+,29.82,1012.1,,TRUE,TRUE,,,,TRUE,,,CLR,,,,,,,,VFR,,,,,,,,,,,,METAR,439
KDUG 272156Z AUTO 25017G23KT 10SM CLR 18/M12 A2998 RMK AO2 PK WND 23028/2132 SLP119 T01831117,KDUG,2025-01-27T21:56:00Z,31.4725,-109.602,18.3,-11.7,250,17,23,10+,29.98,1011.9,,TRUE,TRUE,,,,,,,CLR,,,,,,,,VFR,,,,,,,,,,,,METAR,1260
KDIK 272156Z AUTO 29020KT 10SM CLR 02/M04 A2991 RMK AO2 PK WND 29027/2141 SLP158 T00171044,KDIK,2025-01-27T21:56:00Z,46.7997,-102.797,1.7,-4.4,290,20,,10+,29.91,1015.8,,TRUE,TRUE,,,,,,,CLR,,,,,,,,VFR,,,,,,,,,,,,METAR,788
KDIJ 272156Z AUTO 30003KT 10SM CLR M04/M12 A3017 RMK AO2 SLP302 T10441122 $,KDIJ,2025-01-27T21:56:00Z,43.745,-111.091,-4.4,-12.2,300,3,,10+,30.17,1030.2,,TRUE,TRUE,TRUE,,,,,,CLR,,,,,,,,VFR,,,,,,,,,,,,METAR,1896
KDAY 272156Z 23014G23KT 10SM CLR 01/M10 A2990 RMK AO2 SLP138 T00061100,KDAY,2025-01-27T21:56:00Z,39.9064,-84.2185,0.6,-10,230,14,23,10+,29.90,1013.8,,,TRUE,,,,,,,CLR,,,,,,,,VFR,,,,,,,,,,,,METAR,303
KD07 272156Z AUTO 32019G29KT 02/M03 A2993 RMK AO1 PK WND 33035/2137 SLP167 T00221033 $,KD07,2025-01-27T21:56:00Z,45.0326,-102.02,2.2,-3.3,320,19,29,,29.93,1016.7,,TRUE,TRUE,TRUE,,,,,,,,,,,,,,,,,,,,,,,,,,METAR,786
KCXY 272156Z 22005G15KT 10SM CLR 06/M11 A2982 RMK AO2 SLP101 T00561106,KCXY,2025-01-27T21:56:00Z,40.2184,-76.8552,5.6,-10.6,220,5,15,10+,29.82,1010.1,,,TRUE,,,,,,,CLR,,,,,,,,VFR,,,,,,,,,,,,METAR,102
KCWI 272156Z AUTO 24022G27KT 10SM CLR 07/M09 A2974 RMK AO2 PK WND 24030/2112 SLP082 T00721094,KCWI,2025-01-27T21:56:00Z,41.8295,-90.3328,7.2,-9.4,240,22,27,10+,29.74,1008.2,,TRUE,TRUE,,,,,,,CLR,,,,,,,,VFR,,,,,,,,,,,,METAR,212
KCVO 272156Z AUTO 00000KT 10SM CLR 08/M04 A3029 RMK AO2 SLP263 T00781039,KCVO,2025-01-27T21:56:00Z,44.5013,-123.293,7.8,-3.9,0,0,,10+,30.29,1026.3,,TRUE,TRUE,,,,,,,CLR,,,,,,,,VFR,,,,,,,,,,,,METAR,75
KCVN 272156Z AUTO 19009KT 10SM CLR 11/M06 A3010 RMK AO2 SLP208 T01061061,KCVN,2025-01-27T21:56:00Z,34.4227,-103.08,10.6,-6.1,190,9,,10+,30.10,1020.8,,TRUE,TRUE,,,,,,,CLR,,,,,,,,VFR,,,,,,,,,,,,METAR,1278
KCTB 272156Z AUTO 26015KT 10SM CLR 05/M06 A3006 RMK AO2 SLP206 T00501061,KCTB,2025-01-27T21:56:00Z,48.6036,-112.377,5,-6.1,260,15,,10+,30.06,1020.6,,TRUE,TRUE,,,,,,,CLR,,,,,,,,VFR,,,,,,,,,,,,METAR,1172
KCOE 272156Z AUTO 03005KT 10SM CLR 01/M08 A3038 RMK AO2 SLP336 T00061078 FZRANO,KCOE,2025-01-27T21:56:00Z,47.7719,-116.833,0.6,-7.8,30,5,,10+,30.38,1033.6,,TRUE,TRUE,,,,TRUE,,,CLR,,,,,,,,VFR,,,,,,,,,,,,METAR,693
KCOD 272156Z AUTO 05007KT 10SM CLR 02/M12 A3012 RMK AO2 SLP253 T00221122 FZRANO,KCOD,2025-01-27T21:56:00Z,44.52,-109.027,2.2,-12.2,50,7,,10+,30.12,1025.3,,TRUE,TRUE,,,,TRUE,,,CLR,,,,,,,,VFR,,,,,,,,,,,,METAR,1550
KCHS 272156Z 19004KT 10SM SCT040 OVC060 10/07 A3006 RMK AO2 SLP179 T01000067,KCHS,2025-01-27T21:56:00Z,32.8994,-80.0407,10,6.7,190,4,,10+,30.06,1017.9,,,TRUE,,,,,,,SCT,4000,OVC,6000,,,,,VFR,,,,,,,,,,,,METAR,12
KCEC 272156Z AUTO 33006KT 10SM CLR 12/M03 A3020 RMK AO2 SLP229 T01171033,KCEC,2025-01-27T21:56:00Z,41.7836,-124.238,11.7,-3.3,330,6,,10+,30.20,1022.9,,TRUE,TRUE,,,,,,,CLR,,,,,,,,VFR,,,,,,,,,,,,METAR,17
KCAE 272156Z 22007KT 10SM OVC009 10/09 A3001 RMK AO2 CIG 008V012 SLP163 T01000089,KCAE,2025-01-27T21:56:00Z,33.9422,-81.118,10,8.9,220,7,,10+,30.01,1016.3,,,TRUE,,,,,,,OVC,900,,,,,,,IFR,,,,,,,,,,,,METAR,69
KBZN 272156Z 35003KT 10SM CLR M09/M15 A3024 RMK AO2 SNB11E20 SLP332 P0000 T10891150,KBZN,2025-01-27T21:56:00Z,45.7876,-111.162,-8.9,-15,350,3,,10+,30.24,1033.2,,,TRUE,,,,,,,CLR,,,,,,,,VFR,,,,,,0.005,,,,,,METAR,1349
KBVX 272156Z AUTO VRB04KT 10SM CLR A3015 RMK AO2 SLPNO FZRANO $,KBVX,2025-01-27T21:56:00Z,35.7259,-91.6517,,,VRB,4,,10+,30.15,,,TRUE,TRUE,TRUE,,,TRUE,,,CLR,,,,,,,,VFR,,,,,,,,,,,,METAR,137
KBTP 272156Z AUTO 22013G22KT 10SM CLR 00/M12 A2979 RMK AO2 PRESFR SLPNO T00001122 FZRANO,KBTP,2025-01-27T21:56:00Z,40.7765,-79.9568,0,-12.2,220,13,22,10+,29.79,,,TRUE,TRUE,,,,TRUE,,,CLR,,,,,,,,VFR,,,,,,,,,,,,METAR,375
KBOK 272156Z AUTO 27006KT 10SM CLR A3020 RMK AO2 SLPNO PNO $,KBOK,2025-01-27T21:56:00Z,42.0754,-124.29,,,270,6,,10+,30.20,,,TRUE,TRUE,TRUE,,,,,,CLR,,,,,,,,VFR,,,,,,,,,,,,METAR,140
KBMI 272156Z 24018G24KT 10SM CLR 04/M06 A2987 RMK AO2 PK WND 23029/2119 SLP123 T00391061,KBMI,2025-01-27T21:56:00Z,40.4777,-88.9144,3.9,-6.1,240,18,24,10+,29.87,1012.3,,,TRUE,,,,,,,CLR,,,,,,,,VFR,,,,,,,,,,,,METAR,262
KBLM 272156Z AUTO 23006KT 10SM CLR 05/M16 A2985 RMK AO2 SLP109 T00501156,KBLM,2025-01-27T21:56:00Z,40.1822,-74.1207,5,-15.6,230,6,,10+,29.85,1010.9,,TRUE,TRUE,,,,,,,CLR,,,,,,,,VFR,,,,,,,,,,,,METAR,45
KBKX 272156Z AUTO 31017KT 10SM OVC090 04/M07 A2978 RMK AO2 SLP116 T00441067,KBKX,2025-01-27T21:56:00Z,44.3075,-96.8183,4.4,-6.7,310,17,,10+,29.78,1011.6,,TRUE,TRUE,,,,,,,OVC,9000,,,,,,,VFR,,,,,,,,,,,,METAR,494
KBJJ 272156Z AUTO 23013G22KT 10SM CLR M02/M13 A2980 RMK AO2 PK WND 21026/2133 SLP108 T10171133,KBJJ,2025-01-27T21:56:00Z,40.8732,-81.8886,-1.7,-13.3,230,13,22,10+,29.80,1010.8,,TRUE,TRUE,,,,,,,CLR,,,,,,,,VFR,,,,,,,,,,,,METAR,338
KBIH 272156Z AUTO 26007KT 10SM CLR 08/M06 A3011 RMK AO2 SLP194 T00781061,KBIH,2025-01-27T21:56:00Z,37.3711,-118.359,7.8,-6.1,260,7,,10+,30.11,1019.4,,TRUE,TRUE,,,,,,,CLR,,,,,,,,VFR,,,,,,,,,,,,METAR,1252
KBID 272156Z AUTO 24017G25KT 10SM CLR 01/M07 A2979 RMK AO2 SLP090 T00111067 FZRANO $,KBID,2025-01-27T21:56:00Z,41.1668,-71.5757,1.1,-6.7,240,17,25,10+,29.79,1009,,TRUE,TRUE,TRUE,,,TRUE,,,CLR,,,,,,,,VFR,,,,,,,,,,,,METAR,32
KBHB 272156Z AUTO 21013G19KT 10SM CLR 00/M07 A2955 RMK AO2 SLP010 T00001067 FZRANO,KBHB,2025-01-27T21:56:00Z,44.4549,-68.3617,0,-6.7,210,13,19,10+,29.55,1001,,TRUE,TRUE,,,,TRUE,,,CLR,,,,,,,,VFR,,,,,,,,,,,,METAR,21
KAWO 272156Z AUTO 32004KT 10SM CLR 07/M02 A3035 RMK AO2 SLP283 T00671022,KAWO,2025-01-27T21:56:00Z,48.1584,-122.159,6.7,-2.2,320,4,,10+,30.35,1028.3,,TRUE,TRUE,,,,,,,CLR,,,,,,,,VFR,,,,,,,,,,,,METAR,38
KAUO 272156Z AUTO 29005KT 10SM OVC003 12/12 A3008 RMK AO2 SLP182 T01170117,KAUO,2025-01-27T21:56:00Z,32.617,-85.4342,11.7,11.7,290,5,,10+,30.08,1018.2,,TRUE,TRUE,,,,,,,OVC,300,,,,,,,LIFR,,,,,,,,,,,,METAR,231
KASH 272156Z 23006G12KT 10SM CLR 02/M11 A2964 RMK AO2 SLP039 T00221111,KASH,2025-01-27T21:56:00Z,42.7798,-71.5141,2.2,-11.1,230,6,12,10+,29.64,1003.9,,,TRUE,,,,,,,CLR,,,,,,,,VFR,,,,,,,,,,,,METAR,56
KART 272156Z AUTO 22024G43KT 6SM HZ BKN100 01/M10 A2945 RMK AO2 PK WND 21043/2154 UPE2059RAB2059E14 SLP978 P0000 T00111100 $,KART,2025-01-27T21:56:00Z,43.9888,-76.0261,1.1,-10,220,24,43,6,29.45,997.8,,TRUE,TRUE,TRUE,,,,,HZ,BKN,10000,,,,,,,VFR,,,,,,0.005,,,,,,METAR,100
KARG 272156Z AUTO 19010KT 10SM CLR 08/M06 A3013 RMK AO2 SLP208 T00831056,KARG,2025-01-27T21:56:00Z,36.1256,-90.9216,8.3,-5.6,190,10,,10+,30.13,1020.8,,TRUE,TRUE,,,,,,,CLR,,,,,,,,VFR,,,,,,,,,,,,METAR,82
KAND 272156Z AUTO 25009KT 9SM OVC009 10/08 A2999 RMK AO2 SLP156 T01000078,KAND,2025-01-27T21:56:00Z,34.498,-82.7092,10,7.8,250,9,,9,29.99,1015.6,,TRUE,TRUE,,,,,,,OVC,900,,,,,,,IFR,,,,,,,,,,,,METAR,233
KALK 272156Z AUTO 22018G34KT 10SM CLR 14/M13 A3002 RMK AO2 PK WND 24034/2152 SLP109 T01441128,KALK,2025-01-27T21:56:00Z,31.606,-110.428,14.4,-12.8,220,18,34,10+,30.02,1010.9,,TRUE,TRUE,,,,,,,CLR,,,,,,,,VFR,,,,,,,,,,,,METAR,1451
KAJO 272156Z AUTO 30006KT 10SM SCT047 15/04 A3007 RMK AO2 SLP182 T01500044 PNO $,KAJO,2025-01-27T21:56:00Z,33.8956,-117.596,15,4.4,300,6,,10+,30.07,1018.2,,TRUE,TRUE,TRUE,,,,,,SCT,4700,,,,,,,VFR,,,,,,,,,,,,METAR,161
KAIZ 272156Z AUTO 25012G17KT 10SM CLR 08/M08 A3008 RMK AO2 SLP191 T00781083,KAIZ,2025-01-27T21:56:00Z,38.1005,-92.5475,7.8,-8.3,250,12,17,10+,30.08,1019.1,,TRUE,TRUE,,,,,,,CLR,,,,,,,,VFR,,,,,,,,,,,,METAR,263
KAFJ 272156Z AUTO 24010G19KT 10SM CLR 02/M12 A2987 RMK AO2 SLP129 T00171117 FZRANO $,KAFJ,2025-01-27T21:56:00Z,40.1362,-80.2851,1.7,-11.7,240,10,19,10+,29.87,1012.9,,TRUE,TRUE,TRUE,,,TRUE,,,CLR,,,,,,,,VFR,,,,,,,,,,,,METAR,360
KADF 272156Z AUTO VRB03KT 10SM CLR 13/02 A3018 RMK AO2 SLP221 T01330017,KADF,2025-01-27T21:56:00Z,34.0953,-93.069,13.3,1.7,VRB,3,,10+,30.18,1022.1,,TRUE,TRUE,,,,,,,CLR,,,,,,,,VFR,,,,,,,,,,,,METAR,54
K2WX 272156Z AUTO 30019KT 02/M04 A2994 RMK AO1 PK WND 29034/2059 SLP177 P0001 T00171044,K2WX,2025-01-27T21:56:00Z,45.6043,-103.547,1.7,-4.4,300,19,,,29.94,1017.7,,TRUE,TRUE,,,,,,,,,,,,,,,,,,,,,0.01,,,,,,METAR,925
K1M4 272156Z AUTO 33006KT 10SM CLR 09/02 A3014 RMK AO2 SLP966 T00890017 PNO $,K1M4,2025-01-27T21:56:00Z,34.2832,-87.5986,8.9,1.7,330,6,,10+,30.14,996.6,,TRUE,TRUE,TRUE,,,,,,CLR,,,,,,,,VFR,,,,,,,,,,,,METAR,283
EHEH 272156Z AUTO 19012KT 150V240 9999 SCT028 BKN033 08/05 Q0992 BLU,EHEH,2025-01-27T21:56:00Z,51.45,5.377,8,5,190,12,,6+,29.29,,,TRUE,,,,,,,,SCT,2800,BKN,3300,,,,,VFR,,,,,,,,,,,,SPECI,20
TXKF 272155Z 26011KT 9999 FEW031 OVC240 18/12 Q1021 ,TXKF,2025-01-27T21:55:00Z,32.364,-64.679,18,12,260,11,,6+,30.15,,,,,,,,,,,FEW,3100,OVC,24000,,,,,VFR,,,,,,,,,,,,METAR,4
TNCE 272155Z AUTO 09013KT //// // ///////// 26/22 Q1015 RE//,TNCE,2025-01-27T21:55:00Z,17.497,-62.979,26,22,90,13,,,29.97,,,TRUE,,,,,,,,,,,,,,,,,,,,,,,,,,,,METAR,38
TNCB 272155Z 10016KT 070V130 9999 SCT018 28/23 Q1010,TNCB,2025-01-27T21:55:00Z,12.133,-68.277,28,23,100,16,,6+,29.82,,,,,,,,,,,SCT,1800,,,,,,,VFR,,,,,,,,,,,,METAR,6
RODN 272155Z 32011KT 10SM BKN042 13/04 A3020 RMK AO2A SLP215 T01280037 FZRANO $,RODN,2025-01-27T21:55:00Z,26.356,127.768,12.8,3.7,320,11,,10+,30.20,1021.5,,,TRUE,TRUE,,,TRUE,,,BKN,4200,,,,,,,VFR,,,,,,,,,,,,METAR,38
RKJK 272155Z 27020G26KT 8SM FEW027 SCT047 00/M06 A2999 RMK AO2A PK WND 27027/20 SLPNO P0000 T00031057 $,RKJK,2025-01-27T21:55:00Z,35.9,126.618,0.3,-5.7,270,20,26,8,29.99,,,,TRUE,TRUE,,,,,,FEW,2700,SCT,4700,,,,,VFR,,,,,,0.005,,,,,,METAR,8
RJTY 272155Z 00000KT 10SM FEW100 03/M02 A2977 RMK AO2A SLP088 T00251024 $,RJTY,2025-01-27T21:55:00Z,35.749,139.349,2.5,-2.4,0,0,,10+,29.77,1008.8,,,TRUE,TRUE,,,,,,FEW,10000,,,,,,,VFR,,,,,,,,,,,,METAR,136
PWAK 272155Z AUTO 13011KT 10SM FEW017 29/24 A2997 RMK AO2 SLP151 T02870240,PWAK,2025-01-27T21:55:00Z,19.287,166.623,28.7,24,130,11,,10+,29.97,1015.1,,TRUE,TRUE,,,,,,,FEW,1700,,,,,,,VFR,,,,,,,,,,,,METAR,7
PGWT 272155Z 09008KT 7SM FEW017 FEW100 FEW160 28/24 A2991 RMK FIRST,PGWT,2025-01-27T21:55:00Z,14.997,145.624,28,24,90,8,,7,29.91,,,,,,,,,,,FEW,1700,FEW,10000,FEW,16000,,,VFR,,,,,,,,,,,,METAR,84
PGUA 272155Z AUTO 07015KT 10SM BKN016 OVC024 27/23 A2991 RMK AO2 SLP119 T02650231 $,PGUA,2025-01-27T21:55:00Z,13.583,144.918,26.5,23.1,70,15,,10+,29.91,1011.9,,TRUE,TRUE,TRUE,,,,,,BKN,1600,OVC,2400,,,,,MVFR,,,,,,,,,,,,METAR,159
PAOT 272155Z 01006KT 9SM OVC055 M18/M21 A2949 RMK AO2 T11781211,PAOT,2025-01-27T21:55:00Z,66.886,-162.607,-17.8,-21.1,10,6,,9,29.49,,,,TRUE,,,,,,,OVC,5500,,,,,,,VFR,,,,,,,,,,,,SPECI,3
PALU 272155Z AUTO 34018G27KT 6SM -SHSN OVC021 M16/M18 A2978 RMK AO2 PK WND 36031/2059 SNB1955E2142SHSNB2142 SLP083 P0000 T11601183,PALU,2025-01-27T21:55:00Z,68.873,-166.101,-16,-18.3,340,18,27,6,29.78,1008.3,,TRUE,TRUE,,,,,,-SHSN,OVC,2100,,,,,,,MVFR,,,,,,0.005,,,,,,METAR,8
PAIM 272155Z AUTO VRB06KT 10SM -SHSN FEW004 BKN075 M11/M13 A2945 RMK AO2 SHSNB2000E2118B2142 SLP008 P0000 T11081127,PAIM,2025-01-27T21:55:00Z,65.994,-153.695,-10.8,-12.7,VRB,6,,10+,29.45,1000.8,,TRUE,TRUE,,,,,,-SHSN,FEW,400,BKN,7500,,,,,VFR,,,,,,0.005,,,,,,METAR,309
PAFR 272155Z AUTO 20020G28KT 10SM SCT060 BKN075 OVC110 M02/M07 A2984 RMK AO2 PK WND 18033/42 SLP110 T10241068 $,PAFR,2025-01-27T21:55:00Z,61.263,-149.66,-2.4,-6.8,200,20,28,10+,29.84,1011,,TRUE,TRUE,TRUE,,,,,,SCT,6000,BKN,7500,OVC,11000,,,VFR,,,,,,,,,,,,METAR,106
PAFB 272155Z 25012KT 10SM VCSH FEW020 BKN060 BKN150 M01/M04 A2952 RMK AO2A SLP007 CIG LWR NW T10121039 $,PAFB,2025-01-27T21:55:00Z,64.836,-147.614,-1.2,-3.9,250,12,,10+,29.52,1000.7,,,TRUE,TRUE,,,,,VCSH,FEW,2000,BKN,6000,BKN,15000,,,VFR,,,,,,,,,,,,METAR,137
PAEI 272155Z 22010G15KT 10SM SCT100 00/M04 A2951 RMK AO2A SLP001 T00031038 $,PAEI,2025-01-27T21:55:00Z,64.654,-147.094,0.3,-3.8,220,10,15,10+,29.51,1000.1,,,TRUE,TRUE,,,,,,SCT,10000,,,,,,,VFR,,,,,,,,,,,,METAR,166
PAEH 272155Z AUTO 30013KT 9SM -SN OVC017 M12/M16 A3005 RMK AO2 WSHFT 2045 SNB1954 SLP193 P0000 T11231156 $,PAEH,2025-01-27T21:55:00Z,58.652,-162.062,-12.3,-15.6,300,13,,9,30.05,1019.3,,TRUE,TRUE,TRUE,,,,,-SN,OVC,1700,,,,,,,MVFR,,,,,,0.005,,,,,,METAR,101
PAED 272155Z 21031G39KT 3SM BLSN SCT075 BKN095 M02/M08 A2983 RMK AO2A PK WND 23039/50 SLP099 T10231080 $,PAED,2025-01-27T21:55:00Z,61.25,-149.837,-2.3,-8,210,31,39,3,29.83,1009.9,,,TRUE,TRUE,,,,,BLSN,SCT,7500,BKN,9500,,,,,MVFR,,,,,,,,,,,,METAR,54
PACZ 272155Z AUTO 29014G21KT 2 1/2SM -SN BR OVC016 M20/M23 A2991 RMK AO2 SHSNB1956E2117 SLP151 P0000 T12001228,PACZ,2025-01-27T21:55:00Z,61.776,-166.043,-20,-22.8,290,14,21,2.5,29.91,1015.1,,TRUE,TRUE,,,,,,-SN BR,OVC,1600,,,,,,,IFR,,,,,,0.005,,,,,,METAR,129
OTBH 272155Z 32010KT 9000 HZ SCT130 17/13 A2999 Q1015 RMK AO2A SLP157 WND DATA ESTMD T01720125 FZRANO $,OTBH,2025-01-27T21:55:00Z,25.117,51.315,17.2,12.5,320,10,,5.59,29.97,1015.7,,,TRUE,TRUE,,,TRUE,,HZ,SCT,13000,,,,,,,VFR,,,,,,,,,,,,METAR,40
OPFA 272155Z 00000KT 4000 FU NSC 08/05 Q1013 NOSIG,OPFA,2025-01-27T21:55:00Z,31.365,72.995,8,5,0,0,,2.49,29.91,,,,,,TRUE,,,,FU,CLR,,,,,,,,IFR,,,,,,,,,,,,METAR,180
OKAS 272155Z AUTO 29007KT 9999 CLR 11/03 A3010 RMK AO2 SLP192 T01120030 $,OKAS,2025-01-27T21:55:00Z,29.347,47.521,11.2,3,290,7,,6+,30.10,1019.2,,TRUE,TRUE,TRUE,,,,,,CLR,,,,,,,,VFR,,,,,,,,,,,,METAR,144
OEPS 272155Z AUTO 02004KT 8000 HZ CLR 13/09 A3008 RMK AO2 SLP168 WND DATA ESTMD T01270091 402180106,OEPS,2025-01-27T21:55:00Z,24.063,47.581,12.7,9.1,20,4,,4.97,30.08,1016.8,,TRUE,TRUE,,,,,,HZ,CLR,,,,,,,,MVFR,,,,,,,,,,,,METAR,503
NZFX 272155Z 11007KT 9000 BR VCFG FEW001 FEW003 BKN120 M15/M17 A2940 RMK AO2A SLPNO LSR11 VCFG GRID SW GRID28007KT SDG/HDF,NZFX,2025-01-27T21:55:00Z,-77.956,166.767,-15,-17,110,7,,5.59,29.40,,,,TRUE,,,,,,BR VCFG,FEW,100,FEW,300,BKN,12000,,,VFR,,,,,,,,,,,,METAR,10
NZCM 272155Z AUTO 23003KT 9999 CLR M05/M10 A2938 RMK AO2 SLP952 T10451102 $,NZCM,2025-01-27T21:55:00Z,-77.85,166.667,-4.5,-10.2,230,3,,6+,29.38,995.2,,TRUE,TRUE,TRUE,,,,,,CLR,,,,,,,,VFR,,,,,,,,,,,,METAR,24
MMQT 272155Z 17009KT 8SM BKN270 27/M01 A3021 RMK 8/008,MMQT,2025-01-27T21:55:00Z,20.617,-100.194,27,-1,170,9,,8,30.21,,,,,,,,,,,BKN,27000,,,,,,,VFR,,,,,,,,,,,,METAR,1909
LIVT 272155Z AUTO /////KT //// 12/11 Q1009,LIVT,2025-01-27T21:55:00Z,45.677,13.754,12,11,,,,,29.79,,,TRUE,,,,,,,,,,,,,,,,,,,,,,,,,,,,METAR,20
LIVM 272155Z AUTO /////KT //// ///// Q////,LIVM,2025-01-27T21:55:00Z,44.441,12.296,,,,,,,0.00,,,TRUE,,,,,,,,,,,,,,,,,,,,,,,,,,,,METAR,6
LIVF 272155Z 16015KT 9999 FEW025 SCT030 11/06 Q1009,LIVF,2025-01-27T21:55:00Z,43.517,12.728,11,6,160,15,,6+,29.79,,,,,,,,,,,FEW,2500,SCT,3000,,,,,VFR,,,,,,,,,,,,METAR,549
LIVD 272155Z AUTO 11007KT 090V150 //// 02/01 Q1008,LIVD,2025-01-27T21:55:00Z,46.729,12.228,2,1,110,7,,,29.76,,,TRUE,,,,,,,,,,,,,,,,,,,,,,,,,,,,METAR,1221
LIVC 272155Z AUTO /////KT //// ///// Q////,LIVC,2025-01-27T21:55:00Z,44.194,10.7,,,,,,,0.00,,,TRUE,,,,,,,,,,,,,,,,,,,,,,,,,,,,METAR,2139
LIRS 272155Z 14020G30KT 8000 -RA BR FEW005TCU SCT007 15/12 Q1010 RMK OVC VIS MIN 8000 WIND THR03 14020KT WIND THR21 16016KT BLU,LIRS,2025-01-27T21:55:00Z,42.76,11.072,15,12,140,20,30,4.97,29.82,,,,,,,,,,-RA BR,FEW,500,SCT,700,,,,,MVFR,,,,,,,,,,,,METAR,3
LIRM 272155Z 35003KT 9999 BKN080 11/09 Q1018 RMK BKN VIS MIN 9999 WIND THR06 36003KT BLU,LIRM,2025-01-27T21:55:00Z,41.061,14.082,11,9,350,3,,6+,30.06,,,,,,,,,,,BKN,8000,,,,,,,VFR,,,,,,,,,,,,METAR,6
LIRK 272155Z AUTO /////KT //// ///// Q////,LIRK,2025-01-27T21:55:00Z,42.466,12.979,,,,,,,0.00,,,TRUE,,,,,,,,,,,,,,,,,,,,,,,,,,,,METAR,1721
LIRE 272155Z 13017G27KT 9999 SCT015 SCT040 14/11 Q1015 RMK BKN VIS MIN 9999 WIND THR13 /////KT WIND THR31 /////KT BLU,LIRE,2025-01-27T21:55:00Z,41.656,12.449,14,11,130,17,27,6+,29.97,,,,,,,,,,,SCT,1500,SCT,4000,,,,,VFR,,,,,,,,,,,,METAR,16
LIQO 272155Z AUTO 16019G31KT 100V200 //// 11/11 Q1011,LIQO,2025-01-27T21:55:00Z,42.387,11.17,11,11,160,19,31,,29.85,,,TRUE,,,,,,,,,,,,,,,,,,,,,,,,,,,,METAR,627
LIQC 272155Z AUTO 14010KT 100V180 9999 ///////// 13/09 Q1015 RMK /// QUK QUL VIS MIN 9999,LIQC,2025-01-27T21:55:00Z,40.558,14.201,13,9,140,10,,6+,29.97,,,TRUE,,,,,,,,,,,,,,,,VFR,,,,,,,,,,,,METAR,154
LIPS 272155Z 06010KT 6000 -RA SCT005 BKN015 09/09 Q1008 RMK OVC VIS MIN 6000 WIND THR26 07013KT WIND THR08 06012KT WHT,LIPS,2025-01-27T21:55:00Z,45.689,12.101,9,9,60,10,,3.73,29.76,,,,,,,,,,-RA,SCT,500,BKN,1500,,,,,MVFR,,,,,,,,,,,,METAR,42
LIPL 272155Z 11002KT 6000 -RA SCT010 SCT025 09/09 Q1005 RMK OVC VIS MIN 6000 WIND THR31 08005KT WIND THR13 15001KT WHT,LIPL,2025-01-27T21:55:00Z,45.432,10.268,9,9,110,2,,3.73,29.68,,,,,,,,,,-RA,SCT,1000,SCT,2500,,,,,MVFR,,,,,,,,,,,,METAR,96
LIPI 272155Z 02005KT 7000 -RA SCT010 BKN015 09/09 Q1009 RMK OVC VIS MIN 7000 WIND THR06 02006KT WIND THR24 05008KT WHT,LIPI,2025-01-27T21:55:00Z,45.979,13.049,9,9,20,5,,4.35,29.79,,,,,,,,,,-RA,SCT,1000,BKN,1500,,,,,MVFR,,,,,,,,,,,,METAR,49
LIPC 272155Z 16012KT CAVOK ///// Q1008 RMK BKN SCT150 SCT200 VIS MIN 9999 WIND THR11 16010KT WIND THR29 18008KT BLU,LIPC,2025-01-27T21:55:00Z,44.224,12.307,,,160,12,,6+,29.76,,,,,,,,,,,CAVOK,,,,,,,,VFR,,,,,,,,,,,,METAR,10
LIMY 272155Z AUTO VRB03KT //// 05/04 Q1005,LIMY,2025-01-27T21:55:00Z,44.258,7.794,5,4,VRB,3,,,29.68,,,TRUE,,,,,,,,,,,,,,,,,,,,,,,,,,,,METAR,1742
LIMV 272155Z AUTO /////KT //// // ///////// ///// Q//// RMK ///,LIMV,2025-01-27T21:55:00Z,44.552,8.938,,,,,,,0.00,,,TRUE,,,,,,,,,,,,,,,,,,,,,,,,,,,,METAR,474
LIMU 272155Z AUTO /////KT //// ///// Q////,LIMU,2025-01-27T21:55:00Z,43.958,8.17,,,,,,,0.00,,,TRUE,,,,,,,,,,,,,,,,,,,,,,,,,,,,METAR,215
LIMK 272155Z AUTO /////KT //// 04/04 Q1004,LIMK,2025-01-27T21:55:00Z,45.033,7.731,4,4,,,,,29.65,,,TRUE,,,,,,,,,,,,,,,,,,,,,,,,,,,,METAR,693
LIMH 272155Z AUTO 20036G48KT //// M07/M08 Q1001,LIMH,2025-01-27T21:55:00Z,45.935,7.707,-7,-8,200,36,48,,29.56,,,TRUE,,,,,,,,,,,,,,,,,,,,,,,,,,,,METAR,3473
LIED 272155Z 21006KT 9999 FEW040 14/12 Q1013 RMK FEW VIS MIN 9999 WIND THR34 24005KT WIND THR16 24002KT BLU,LIED,2025-01-27T21:55:00Z,39.354,8.973,14,12,210,6,,6+,29.91,,,,,,,,,,,FEW,4000,,,,,,,VFR,,,,,,,,,,,,METAR,26
LICZ 272155Z /////KT 9999 SCT100 14/12 Q1020 RMK SCT SCT200 VIS MIN 9999 WIND THR28 26004KT WIND THR10 26009KT A3013 BLU,LICZ,2025-01-27T21:55:00Z,37.406,14.919,14,12,,,,6+,30.12,,,,,,,,,,,SCT,10000,,,,,,,VFR,,,,,,,,,,,,METAR,22
LICT 272155Z 18013KT CAVOK 14/12 Q1019 RMK SCT SCT200 VIS MIN 9999 WIND THR13 16015G25KT BLU,LICT,2025-01-27T21:55:00Z,37.911,12.488,14,12,180,13,,6+,30.09,,,,,,,,,,,CAVOK,,,,,,,,VFR,,,,,,,,,,,,METAR,4
LICF 272155Z AUTO 04004KT //// 15/06 Q1020,LICF,2025-01-27T21:55:00Z,38.2,15.549,15,6,40,4,,,30.12,,,TRUE,,,,,,,,,,,,,,,,,,,,,,,,,,,,METAR,66
LIBY 272155Z AUTO 17009KT //// 13/12 Q1018,LIBY,2025-01-27T21:55:00Z,39.811,18.342,13,12,170,9,,,30.06,,,TRUE,,,,,,,,,,,,,,,,,,,,,,,,,,,,METAR,105
LIBV 272155Z 16006KT 1500 0500N BCFG BKN002 10/09 Q1018 RMK BKN VIS MIN 0500N WIND THR32 16007KT WIND THR14 17006KT RED,LIBV,2025-01-27T21:55:00Z,40.766,16.935,10,9,160,6,,0.93,30.06,,,,,,,,,,BCFG,BKN,200,,,,,,,LIFR,,,,,,,,,,,,METAR,344
LIBQ 272155Z AUTO /////KT //// ///// Q////,LIBQ,2025-01-27T21:55:00Z,39.331,16.396,,,,,,,0.00,,,TRUE,,,,,,,,,,,,,,,,,,,,,,,,,,,,METAR,1660
LIBN 272155Z 14005KT 6000 FEW008 12/11 Q1019 RMK SCT SCT200 VIS MIN 6000 WIND THR14 15005KT WIND THR32 14004KT WHT,LIBN,2025-01-27T21:55:00Z,40.238,18.138,12,11,140,5,,3.73,30.09,,,,,,,,,,,FEW,800,,,,,,,MVFR,,,,,,,,,,,,METAR,46
LIBA 272155Z 17005KT CAVOK 14/05 Q1016 RMK BKN SCT150 VIS MIN 9999 WIND THR11 17006KT WIND THR29/////KT BLU,LIBA,2025-01-27T21:55:00Z,41.538,15.714,14,5,170,5,,6+,30.00,,,,,,,,,,,CAVOK,,,,,,,,VFR,,,,,,,,,,,,METAR,55
KXMR 272155Z AUTO 14006KT 10SM CLR 21/11 A3007 RMK AO2 SLP186 T02130110 $,KXMR,2025-01-27T21:55:00Z,28.4674,-80.5589,21.3,11,140,6,,10+,30.07,1018.6,,TRUE,TRUE,TRUE,,,,,,CLR,,,,,,,,VFR,,,,,,,,,,,,METAR,5
KXIF 272155Z AUTO 29004KT 10SM CLR 05/M12 A2980 RMK AO2 SLP103 T00531118 $,KXIF,2025-01-27T21:55:00Z,-99.99,-99.99,5.3,-11.8,290,4,,10+,29.80,1010.3,,TRUE,TRUE,TRUE,,,,,,CLR,,,,,,,,VFR,,,,,,,,,,,,METAR,9999
KWRI 272155Z AUTO 24011KT 10SM CLR 05/M14 A2983 RMK AO2 SLP102 T00521138 $,KWRI,2025-01-27T21:55:00Z,40.016,-74.591,5.2,-13.8,240,11,,10+,29.83,1010.2,,TRUE,TRUE,TRUE,,,,,,CLR,,,,,,,,VFR,,,,,,,,,,,,METAR,35
KWHP 272155Z 32008G19KT 10SM OVC085 14/M03 A3008,KWHP,2025-01-27T21:55:00Z,34.2596,-118.415,14,-3,320,8,19,10+,30.08,,,,,,,,,,,OVC,8500,,,,,,,VFR,,,,,,,,,,,,METAR,302
KW75 272155Z AUTO 10SM CLR RMK AO1 PNO,KW75,2025-01-27T21:55:00Z,37.6024,-76.4477,,,,,,10+,0.00,,,TRUE,TRUE,,,,,,,CLR,,,,,,,,VFR,,,,,,,,,,,,METAR,8
KVOK 272155Z 25017G23KT 10SM BKN034 BKN080 03/M06 A2957 RMK AO2A SNE32 SLP027 P0000 T00331056,KVOK,2025-01-27T21:55:00Z,43.938,-90.253,3.3,-5.6,250,17,23,10+,29.57,1002.7,,,TRUE,,,,,,,BKN,3400,BKN,8000,,,,,VFR,,,,,,0.005,,,,,,METAR,278
KVGN 272155Z AUTO 32010KT 10SM M 16/05 A3012 RMK AO2 SLP202 T01640051 $,KVGN,2025-01-27T21:55:00Z,34.8494,-120.6,16.4,5.1,320,10,,10+,30.12,1020.2,,TRUE,TRUE,TRUE,,,,,,,,,,,,,,VFR,,,,,,,,,,,,METAR,93
KVBG 272155Z 35012KT 10SM FEW025 FEW055 16/05 A3013 RMK AO2A SLP207 T01560052,KVBG,2025-01-27T21:55:00Z,34.733,-120.583,15.6,5.2,350,12,,10+,30.13,1020.7,,,TRUE,,,,,,,FEW,2500,FEW,5500,,,,,VFR,,,,,,,,,,,,METAR,96
KTZR 272155Z 24014KT 10SM CLR 00/M10 A2991,KTZR,2025-01-27T21:55:00Z,39.8988,-83.1357,0,-10,240,14,,10+,29.91,,,,,,,,,,,CLR,,,,,,,,VFR,,,,,,,,,,,,METAR,275
KTTS 272155Z AUTO 18008KT 10SM FEW110 FEW160 SCT190 BKN230 21/11 A3008 RMK AO2 SLP190 T02110108 $,KTTS,2025-01-27T21:55:00Z,28.5987,-80.6815,21.1,10.8,180,8,,10+,30.08,1019,,TRUE,TRUE,TRUE,,,,,,FEW,11000,FEW,16000,SCT,19000,BKN,23000,VFR,,,,,,,,,,,,METAR,1
KTQS 272155Z AUTO 35011KT 9SM CLR 15/06 A3013 RMK AO2 SLP207 T01460059,KTQS,2025-01-27T21:55:00Z,34.633,-120.617,14.6,5.9,350,11,,9,30.13,1020.7,,TRUE,TRUE,,,,,,,CLR,,,,,,,,VFR,,,,,,,,,,,,METAR,34
KTOA 272155Z 27011KT 10SM FEW025 SCT060 14/08 A3008,KTOA,2025-01-27T21:55:00Z,33.803,-118.336,14,8,270,11,,10+,30.08,,,,,,,,,,,FEW,2500,SCT,6000,,,,,VFR,,,,,,,,,,,,METAR,30
KTIK 272155Z AUTO 26006KT 10SM CLR 10/M11 A3012 RMK AO2 SLP211 T01011107,KTIK,2025-01-27T21:55:00Z,35.415,-97.386,10.1,-10.7,260,6,,10+,30.12,1021.1,,TRUE,TRUE,,,,,,,CLR,,,,,,,,VFR,,,,,,,,,,,,METAR,387
KTHA 272155Z AUTO 32005KT 10SM CLR 08/M03 A3006 RMK A01,KTHA,2025-01-27T21:55:00Z,35.3804,-86.2419,8,-3,320,5,,10+,30.06,,,TRUE,TRUE,,,,,,,CLR,,,,,,,,VFR,,,,,,,,,,,,METAR,333
KTFP 272155Z AUTO 05010KT 10SM OVC007 14/12 A3013 RMK AO1 T01400116,KTFP,2025-01-27T21:55:00Z,27.9132,-97.2132,14,11.6,50,10,,10+,30.13,,,TRUE,TRUE,,,,,,,OVC,700,,,,,,,IFR,,,,,,,,,,,,METAR,5
KTCM 272155Z AUTO 01006KT 10SM CLR 08/M01 A3032 RMK AO2 SLP274 T00771015 $,KTCM,2025-01-27T21:55:00Z,47.149,-122.475,7.7,-1.5,10,6,,10+,30.32,1027.4,,TRUE,TRUE,TRUE,,,,,,CLR,,,,,,,,VFR,,,,,,,,,,,,METAR,87
KTBN 272155Z AUTO 27011G17KT 9SM CLR 09/M08 A3004 RMK AO2 SLP184 T00911080,KTBN,2025-01-27T21:55:00Z,37.7445,-92.1447,9.1,-8,270,11,17,9,30.04,1018.4,,TRUE,TRUE,,,,,,,CLR,,,,,,,,VFR,,,,,,,,,,,,METAR,349
KT89 272155Z AUTO 12004KT 10SM CLR 17/01 A3005 RMK A01,KT89,2025-01-27T21:55:00Z,29.2774,-103.691,17,1,120,4,,10+,30.05,,,TRUE,TRUE,,,,,,,CLR,,,,,,,,VFR,,,,,,,,,,,,METAR,801
KT70 272155Z AUTO 00000KT 8SM OVC012 11/08 A3016 RMK AO2 SLP210 T01110081 $,KT70,2025-01-27T21:55:00Z,29.117,-100.473,11.1,8.1,0,0,,8,30.16,1021,,TRUE,TRUE,TRUE,,,,,,OVC,1200,,,,,,,MVFR,,,,,,,,,,,,METAR,296
KSZY 272155Z AUTO 27006KT 10SM CLR 09/M09 A3012 RMK A01,KSZY,2025-01-27T21:55:00Z,35.2064,-88.5012,9,-9,270,6,,10+,30.12,,,TRUE,TRUE,,,,,,,CLR,,,,,,,,VFR,,,,,,,,,,,,METAR,184
KSZL 272155Z 25015G21KT 10SM CLR 08/M06 A3002 RMK AO2A SLP176 T00791063 VISNO RWY01 $,KSZL,2025-01-27T21:55:00Z,38.736,-93.55,7.9,-6.3,250,15,21,10+,30.02,1017.6,,,TRUE,TRUE,,,,,,CLR,,,,,,,,VFR,,,,,,,,,,,,METAR,259
KSYI 272155Z AUTO 32005KT 10SM CLR 09/M08 A3007 RMK A01,KSYI,2025-01-27T21:55:00Z,35.5594,-86.4406,9,-8,320,5,,10+,30.07,,,TRUE,TRUE,,,,,,,CLR,,,,,,,,VFR,,,,,,,,,,,,METAR,244
KSVN 272155Z 17004KT 10SM SCT043 SCT050 BKN075 BKN085 OVC160 13/08 A3004 RMK AO2A SLP176 T01310082 $,KSVN,2025-01-27T21:55:00Z,32.011,-81.131,13.1,8.2,170,4,,10+,30.04,1017.6,,,TRUE,TRUE,,,,,,SCT,4300,SCT,5000,BKN,7500,BKN,8500,VFR,,,,,,,,,,,,METAR,13
KSVE 272155Z AUTO 09003KT 10SM CLR 06/M10 A3024 RMK A01 P000,KSVE,2025-01-27T21:55:00Z,40.376,-120.574,6,-10,90,3,,10+,30.24,,,TRUE,TRUE,,,,,,,CLR,,,,,,,,VFR,,,,,,,,,,,,METAR,1263
KSUU 272155Z AUTO 33007KT 10SM CLR 18/M06 A3010 RMK AO2 SLP200 T01801060 $,KSUU,2025-01-27T21:55:00Z,38.25,-121.938,18,-6,330,7,,10+,30.10,1020,,TRUE,TRUE,TRUE,,,,,,CLR,,,,,,,,VFR,,,,,,,,,,,,METAR,9
KSUO 272155Z AUTO 30012G21KT 10SM CLR 07/M06 A2988 RMK AO2,KSUO,2025-01-27T21:55:00Z,43.259,-100.862,7,-6,300,12,21,10+,29.88,,,TRUE,TRUE,,,,,,,CLR,,,,,,,,VFR,,,,,,,,,,,,METAR,830
KSRE 272155Z AUTO VRB04KT 10SM CLR 10/M11 A3017 RMK AO2,KSRE,2025-01-27T21:55:00Z,35.271,-96.675,10,-11,VRB,4,,10+,30.17,,,TRUE,TRUE,,,,,,,CLR,,,,,,,,VFR,,,,,,,,,,,,METAR,306
KSRB 272155Z AUTO VRB05KT 10SM CLR 08/M07 A3006 RMK A01,KSRB,2025-01-27T21:55:00Z,36.0529,-85.536,8,-7,VRB,5,,10+,30.06,,,TRUE,TRUE,,,,,,,CLR,,,,,,,,VFR,,,,,,,,,,,,METAR,303
KSPK 272155Z AUTO 00000KT CLR M01/M08 A3015 RMK AO2 PWINO,KSPK,2025-01-27T21:55:00Z,40.1497,-111.677,-1,-8,0,0,,,30.15,,,TRUE,TRUE,,,,,TRUE,,CLR,,,,,,,,,,,,,,,,,,,,METAR,1381
KSMS 272155Z AUTO 21006KT 10SM OVC008 10/10 A3003 RMK AO2,KSMS,2025-01-27T21:55:00Z,34.0003,-80.3582,10,10,210,6,,10+,30.03,,,TRUE,TRUE,,,,,,,OVC,800,,,,,,,IFR,,,,,,,,,,,,METAR,53
KSLI 272155Z 23005KT 10SM FEW030 SCT060 BKN250 16/07 A3004 RMK AO2A SLP176 T01550065,KSLI,2025-01-27T21:55:00Z,33.796,-118.042,15.5,6.5,230,5,,10+,30.04,1017.6,,,TRUE,,,,,,,FEW,3000,SCT,6000,BKN,25000,,,VFR,,,,,,,,,,,,METAR,8
KSKA 272155Z 02004KT 10SM CLR 00/M07 A3035 RMK AO2A SLP307 T00031072 $,KSKA,2025-01-27T21:55:00Z,47.612,-117.679,0.3,-7.2,20,4,,10+,30.35,1030.7,,,TRUE,TRUE,,,,,,CLR,,,,,,,,VFR,,,,,,,,,,,,METAR,754
KSHM 272155Z AUTO 00000KT 10SM CLR 08/M14 A2999 RMK AO2 SLP192 T00781138 $,KSHM,2025-01-27T21:55:00Z,38.8,-104.52,7.8,-13.8,0,0,,10+,29.99,1019.2,,TRUE,TRUE,TRUE,,,,,,CLR,,,,,,,,VFR,,,,,,,,,,,,METAR,1900
KSEQ 272155Z AUTO 04009KT 10SM BKN008 OVC013 11/06 A3013 RMK AO2 CIG 008V012 BKN V SCT SLP205 T01080058,KSEQ,2025-01-27T21:55:00Z,29.566,-97.908,10.8,5.8,40,9,,10+,30.13,1020.5,,TRUE,TRUE,,,,,,,BKN,800,OVC,1300,,,,,IFR,,,,,,,,,,,,METAR,160
KSEM 272155Z AUTO 30009KT 10SM OVC010 13/13 A3011 RMK AO2,KSEM,2025-01-27T21:55:00Z,32.3367,-86.9836,13,13,300,9,,10+,30.11,,,TRUE,TRUE,,,,,,,OVC,1000,,,,,,,MVFR,,,,,,,,,,,,METAR,48
KSCK 272155Z 06003KT 10SM CLR 15/M02 A3012 RMK AO2 SLP200 T01501017,KSCK,2025-01-27T21:55:00Z,37.89,-121.226,15,-1.7,60,3,,10+,30.12,1020,,,TRUE,,,,,,,CLR,,,,,,,,VFR,,,,,,,,,,,,METAR,8
KSCH 272155Z 23012G21KT 10SM CLR 03/M12 A2961,KSCH,2025-01-27T21:55:00Z,42.8499,-73.9301,3,-12,230,12,21,10+,29.61,,,,,,,,,,,CLR,,,,,,,,VFR,,,,,,,,,,,,METAR,100
KSBX 272155Z AUTO 28007KT 10SM CLR 08/M05 A3010 RMK AO2,KSBX,2025-01-27T21:55:00Z,48.541,-111.871,8,-5,280,7,,10+,30.10,,,TRUE,TRUE,,,,,,,CLR,,,,,,,,VFR,,,,,,,,,,,,METAR,1049
KS39 272155Z AUTO 00000KT 10SM CLR 07/M19 A3027 RMK AO2,KS39,2025-01-27T21:55:00Z,44.2858,-120.901,7,-19,0,0,,10+,30.27,,,TRUE,TRUE,,,,,,,CLR,,,,,,,,VFR,,,,,,,,,,,,METAR,987
KS34 272155Z AUTO 16003KT 10SM CLR M01/M09 A3037 RMK AO2,KS34,2025-01-27T21:55:00Z,47.4718,-114.901,-1,-9,160,3,,10+,30.37,,,TRUE,TRUE,,,,,,,CLR,,,,,,,,VFR,,,,,,,,,,,,METAR,750
KS21 272155Z AUTO 15005KT 10SM CLR 06/M16 A3028 RMK AO2,KS21,2025-01-27T21:55:00Z,43.8801,-121.454,6,-16,150,5,,10+,30.28,,,TRUE,TRUE,,,,,,,CLR,,,,,,,,VFR,,,,,,,,,,,,METAR,1269
KS12 272155Z 00000KT 10SM CLR 08/M04 A3028 RMK AO2 UPCOMING TAXIWY CLOSURES. CHECK NOTAMS,KS12,2025-01-27T21:55:00Z,44.6394,-123.058,8,-4,0,0,,10+,30.28,,,,TRUE,,,,,,,CLR,,,,,,,,VFR,,,,,,,,,,,,METAR,69
KRZR 272155Z AUTO 33006KT 07/06 A3005 RMK A01,KRZR,2025-01-27T21:55:00Z,35.207,-84.8005,7,6,330,6,,,30.05,,,TRUE,TRUE,,,,,,,,,,,,,,,,,,,,,,,,,,,METAR,259
KRYM 272155Z AUTO 30014KT 10SM CLR 02/M04 A2965 RMK AO2 SLP060 T00241041 $,KRYM,2025-01-27T21:55:00Z,46.0878,-94.353,2.4,-4.1,300,14,,10+,29.65,1006,,TRUE,TRUE,TRUE,,,,,,CLR,,,,,,,,VFR,,,,,,,,,,,,METAR,344
KRVF 272155Z AUTO 00000KT 7SM CLR M04/M12 A3023 RMK AO2,KRVF,2025-01-27T21:55:00Z,45.534,-112.303,-4,-12,0,0,,7,30.23,,,TRUE,TRUE,,,,,,,CLR,,,,,,,,VFR,,,,,,,,,,,,METAR,1445
KRNO 272155Z 00000KT 10SM CLR 03/M09 A3022 RMK AO2 SLP256 T00281089,KRNO,2025-01-27T21:55:00Z,39.5077,-119.768,2.8,-8.9,0,0,,10+,30.22,1025.6,,,TRUE,,,,,,,CLR,,,,,,,,VFR,,,,,,,,,,,,METAR,1344
KRNC 272155Z AUTO 27006KT 10SM CLR 08/M07 A3007 RMK A01,KRNC,2025-01-27T21:55:00Z,35.6991,-85.8402,8,-7,270,6,,10+,30.07,,,TRUE,TRUE,,,,,,,CLR,,,,,,,,VFR,,,,,,,,,,,,METAR,310
KRKW 272155Z AUTO VRB04KT 10SM CLR 07/M01 A3002 RMK A01,KRKW,2025-01-27T21:55:00Z,35.922,-84.689,7,-1,VRB,4,,10+,30.02,,,TRUE,TRUE,,,,,,,CLR,,,,,,,,VFR,,,,,,,,,,,,METAR,505
KRIV 272155Z COR 36005KT 10SM BKN032 BKN070 BKN090 11/02 A3005 RMK AO2A SLP177 T01070023 COR 2206,KRIV,2025-01-27T21:55:00Z,33.878,-117.244,10.7,2.3,360,5,,10+,30.05,1017.7,TRUE,,TRUE,,,,,,,BKN,3200,BKN,7000,BKN,9000,,,VFR,,,,,,,,,,,,METAR,454
KRDR 272155Z AUTO 34009KT 10SM CLR 03/M03 A2978 RMK AO2 SLP100 T00251030 $,KRDR,2025-01-27T21:55:00Z,47.9477,-97.4029,2.5,-3,340,9,,10+,29.78,1010,,TRUE,TRUE,TRUE,,,,,,CLR,,,,,,,,VFR,,,,,,,,,,,,METAR,276
KRCA 272155Z AUTO 36024G29KT 10SM CLR 05/M05 A2992 RMK AO2 PK WND 35035/04 SLP169 T00531054,KRCA,2025-01-27T21:55:00Z,44.155,-103.118,5.3,-5.4,360,24,29,10+,29.92,1016.9,,TRUE,TRUE,,,,,,,CLR,,,,,,,,VFR,,,,,,,,,,,,METAR,993
KQTZ 272155Z 00000KT 9999 SKC 09/02 A3012 RMK SLP204,KQTZ,2025-01-27T21:55:00Z,-99.99,-99.99,9,2,0,0,,6+,30.12,1020.4,,,,,,,,,,SKC,,,,,,,,VFR,,,,,,,,,,,,METAR,9999
KQRH 272155Z AUTO 00000KT 9999 CLR 24/19 A2985 RMK AO2 SLP111 WND DATA ESTMD T02360192,KQRH,2025-01-27T21:55:00Z,-99.99,-99.99,23.6,19.2,0,0,,6+,29.85,1011.1,,TRUE,TRUE,,,,,,,CLR,,,,,,,,VFR,,,,,,,,,,,,METAR,9999
KQHY 272155Z AUTO 25003KT 10SM BKN027 OVC032 19/16 A3008 RMK AO2 SLP193 T01860160,KQHY,2025-01-27T21:55:00Z,-99.99,-99.99,18.6,16,250,3,,10+,30.08,1019.3,,TRUE,TRUE,,,,,,,BKN,2700,OVC,3200,,,,,MVFR,,,,,,,,,,,,METAR,9999
KQD3 272155Z VRB03KT 9999 FEW019 24/20 A2994 RMK AO2A SLP123 WND DATA ESTMD T02370195,KQD3,2025-01-27T21:55:00Z,-99.99,-99.99,23.7,19.5,VRB,3,,6+,29.94,1012.3,,,TRUE,,,,,,,FEW,1900,,,,,,,VFR,,,,,,,,,,,,METAR,9999
KQBR 272155Z AUTO 32004KT 10SM CLR 03/M10 A3017 RMK AO2 SLP246 WND DATA ESTMD T00261104,KQBR,2025-01-27T21:55:00Z,-99.99,-99.99,2.6,-10.4,320,4,,10+,30.17,1024.6,,TRUE,TRUE,,,,,,,CLR,,,,,,,,VFR,,,,,,,,,,,,METAR,9999
KQBL 272155Z AUTO 00000KT 9SM BKN022 BKN030 18/16 A3007 RMK AO2 RAB01E02DZB02E05SHRAB05E18 SLP195 WND DATA ESTMD T01830159,KQBL,2025-01-27T21:55:00Z,-99.99,-99.99,18.3,15.9,0,0,,9,30.07,1019.5,,TRUE,TRUE,,,,,,,BKN,2200,BKN,3000,,,,,MVFR,,,,,,,,,,,,METAR,9999
KQAJ 272155Z AUTO 00000KT CLR 11/01 RMK AO2 SLP045 WND DATA ESTMD T01140011 PWINO TSNO,KQAJ,2025-01-27T21:55:00Z,-99.99,-99.99,11.4,1.1,0,0,,,0.00,1004.5,,TRUE,TRUE,,,TRUE,,TRUE,,CLR,,,,,,,,,,,,,,,,,,,,METAR,9999
KPVE 272155Z AUTO 27005KT 10SM CLR 09/M11 A3012 RMK A01,KPVE,2025-01-27T21:55:00Z,35.6592,-88.1929,9,-11,270,5,,10+,30.12,,,TRUE,TRUE,,,,,,,CLR,,,,,,,,VFR,,,,,,,,,,,,METAR,146
KPSM 272155Z 21012G18KT 10SM BKN250 02/M10 A2959 RMK AO2A PK WND 19027/12 SLP024 T00221103,KPSM,2025-01-27T21:55:00Z,43.0677,-70.8127,2.2,-10.3,210,12,18,10+,29.59,1002.4,,,TRUE,,,,,,,BKN,25000,,,,,,,VFR,,,,,,,,,,,,METAR,34
KPOE 272155Z AUTO 04006KT 9SM OVC010 11/09 A3016 RMK AO2 SLP216 T01140088,KPOE,2025-01-27T21:55:00Z,31.047,-93.194,11.4,8.8,40,6,,9,30.16,1021.6,,TRUE,TRUE,,,,,,,OVC,1000,,,,,,,MVFR,,,,,,,,,,,,METAR,98
KPOB 272155Z AUTO 19007KT 8SM OVC006 09/08 A2997 RMK AO2 SLP153 T00890078 $,KPOB,2025-01-27T21:55:00Z,35.175,-79.008,8.9,7.8,190,7,,8,29.97,1015.3,,TRUE,TRUE,TRUE,,,,,,OVC,600,,,,,,,IFR,,,,,,,,,,,,METAR,57
KPO1 272155Z AUTO 26011KT 10SM CLR 04/M02 A2995 RMK AO2,KPO1,2025-01-27T21:55:00Z,48.134,-105.162,4,-2,260,11,,10+,29.95,,,TRUE,TRUE,,,,,,,CLR,,,,,,,,VFR,,,,,,,,,,,,METAR,621
KPHT 272155Z AUTO 24009KT 10SM CLR 07/M08 A3011 RMK A01,KPHT,2025-01-27T21:55:00Z,36.3322,-88.3871,7,-8,240,9,,10+,30.11,,,TRUE,TRUE,,,,,,,CLR,,,,,,,,VFR,,,,,,,,,,,,METAR,172
KPHP 272155Z AUTO 31020G30KT 10SM CLR 07/M06 A2994 RMK AO2 PK WND 31032/2128 SLP158 T00671056,KPHP,2025-01-27T21:55:00Z,44.051,-101.601,6.7,-5.6,310,20,30,10+,29.94,1015.8,,TRUE,TRUE,,,,,,,CLR,,,,,,,,VFR,,,,,,,,,,,,METAR,673
KPAM 272155Z 17004KT 10SM FEW040 BKN060 16/13 A3007 RMK AO2A SLP186 T01630134 $,KPAM,2025-01-27T21:55:00Z,30.071,-85.577,16.3,13.4,170,4,,10+,30.07,1018.6,,,TRUE,TRUE,,,,,,FEW,4000,BKN,6000,,,,,VFR,,,,,,,,,,,,METAR,4
KP58 272155Z AUTO 23015G33KT 01/M07 A2939 RMK AO1 PK WND 24036/2057 SLP964 T00111067 $,KP58,2025-01-27T21:55:00Z,44.0217,-82.7929,1.1,-6.7,230,15,33,,29.39,996.4,,TRUE,TRUE,TRUE,,,,,,,,,,,,,,,,,,,,,,,,,,METAR,180
KP52 272155Z AUTO 00000KT 10SM OVC009 03/02 A3004 RMK AO2,KP52,2025-01-27T21:55:00Z,34.7263,-112.034,3,2,0,0,,10+,30.04,,,TRUE,TRUE,,,,,,,OVC,900,,,,,,,IFR,,,,,,,,,,,,METAR,1085
KP33 272155Z AUTO 25015G23KT 10SM CLR 15/M06 A2998 RMK AO2,KP33,2025-01-27T21:55:00Z,32.245,-109.895,15,-6,250,15,23,10+,29.98,,,TRUE,TRUE,,,,,,,CLR,,,,,,,,VFR,,,,,,,,,,,,METAR,1276
KOWI 272155Z AUTO 24014G20KT 10SM CLR 09/M04 A3005 RMK AO2,KOWI,2025-01-27T21:55:00Z,38.5409,-95.2542,9,-4,240,14,20,10+,30.05,,,TRUE,TRUE,,,,,,,CLR,,,,,,,,VFR,,,,,,,,,,,,METAR,292
KOFF 272155Z AUTO 27016KT 10SM CLR 12/M16 A2987 RMK AO2 SLP127 T01201156 $,KOFF,2025-01-27T21:55:00Z,41.122,-95.91,12,-15.6,270,16,,10+,29.87,1012.7,,TRUE,TRUE,TRUE,,,,,,CLR,,,,,,,,VFR,,,,,,,,,,,,METAR,308
KO86 272155Z AUTO 00000KT 10SM CLR 12/M08 A3018 RMK A01,KO86,2025-01-27T21:55:00Z,40.9845,-122.693,12,-8,0,0,,10+,30.18,,,TRUE,TRUE,,,,,,,CLR,,,,,,,,VFR,,,,,,,,,,,,METAR,729
KO54 272155Z AUTO 20005KT 10SM CLR 14/M08 A3017 RMK A01,KO54,2025-01-27T21:55:00Z,40.746,-122.922,14,-8,200,5,,10+,30.17,,,TRUE,TRUE,,,,,,,CLR,,,,,,,,VFR,,,,,,,,,,,,METAR,693
KO05 272155Z AUTO 08009KT 10SM CLR 07/M10 A3019 RMK A01,KO05,2025-01-27T21:55:00Z,40.2865,-121.243,7,-10,80,9,,10+,30.19,,,TRUE,TRUE,,,,,,,CLR,,,,,,,,VFR,,,,,,,,,,,,METAR,1380
KNUQ 272155Z AUTO 35006KT 10SM CLR 15/M04 A3014 RMK AO2,KNUQ,2025-01-27T21:55:00Z,37.4059,-122.049,15,-4,350,6,,10+,30.14,,,TRUE,TRUE,,,,,,,CLR,,,,,,,,VFR,,,,,,,,,,,,METAR,9
KNTD 272155Z 28014KT 10SM FEW035 FEW150 SCT250 16/06 A3010 RMK AO2 SLP195 T01560061 PNO VISNO S $,KNTD,2025-01-27T21:55:00Z,34.124,-119.123,15.6,6.1,280,14,,10+,30.10,1019.5,,,TRUE,TRUE,,,,,,FEW,3500,FEW,15000,SCT,25000,,,VFR,,,,,,,,,,,,METAR,1
KNKX 272155Z AUTO VRB03KT 7SM SCT041 BKN049 BKN060 13/04 A3007 RMK AO2 SLP181 T01280044 $,KNKX,2025-01-27T21:55:00Z,32.865,-117.137,12.8,4.4,VRB,3,,7,30.07,1018.1,,TRUE,TRUE,TRUE,,,,,,SCT,4100,BKN,4900,BKN,6000,,,VFR,,,,,,,,,,,,METAR,138
KNBG 272155Z 34009KT 8SM OVC010 17/14 A3012 RMK AO2 SLP199 T01670144 $,KNBG,2025-01-27T21:55:00Z,29.837,-90.024,16.7,14.4,340,9,,8,30.12,1019.9,,,TRUE,TRUE,,,,,,OVC,1000,,,,,,,MVFR,,,,,,,,,,,,METAR,
KMZJ 272155Z AUTO 20009G15KT 10SM SCT065 BKN080 17/M02 A3003 RMK AO2,KMZJ,2025-01-27T21:55:00Z,32.5147,-111.335,17,-2,200,9,15,10+,30.03,,,TRUE,TRUE,,,,,,,SCT,6500,BKN,8000,,,,,VFR,,,,,,,,,,,,METAR,574
KMXF 272155Z AUTO 29003KT 10SM OVC010 14/13 A3006 RMK AO2 SLP182 T01410125,KMXF,2025-01-27T21:55:00Z,32.3877,-86.3724,14.1,12.5,290,3,,10+,30.06,1018.2,,TRUE,TRUE,,,,,,,OVC,1000,,,,,,,MVFR,,,,,,,,,,,,METAR,47
KMVH 272155Z AUTO 30013G19KT 10SM CLR 05/M06 A3006 RMK AO2,KMVH,2025-01-27T21:55:00Z,46.838,-108.936,5,-6,300,13,19,10+,30.06,,,TRUE,TRUE,,,,,,,CLR,,,,,,,,VFR,,,,,,,,,,,,METAR,1352
KMUO 272155Z 00000KT 10SM CLR 02/M15 A3029 RMK AO2A SLP288 T00151151 FZRANO $,KMUO,2025-01-27T21:55:00Z,43.03,-115.859,1.5,-15.1,0,0,,10+,30.29,1028.8,,,TRUE,TRUE,,,TRUE,,,CLR,,,,,,,,VFR,,,,,,,,,,,,METAR,915
KMUI 272155Z 20004KT 10SM CLR 04/M11 A2979 RMK AO2A SLP095 T00361108,KMUI,2025-01-27T21:55:00Z,40.4381,-76.5643,3.6,-10.8,200,4,,10+,29.79,1009.5,,,TRUE,,,,,,,CLR,,,,,,,,VFR,,,,,,,,,,,,METAR,146
KMRC 272155Z AUTO VRB04KT 10SM CLR 10/M13 A3008 RMK A01,KMRC,2025-01-27T21:55:00Z,35.5579,-87.1778,10,-13,VRB,4,,10+,30.08,,,TRUE,TRUE,,,,,,,CLR,,,,,,,,VFR,,,,,,,,,,,,METAR,205
KMNV 272155Z AUTO 27004KT 10SM BKN017 BKN022 OVC026 07/06 A3005 RMK A01,KMNV,2025-01-27T21:55:00Z,35.5429,-84.3808,7,6,270,4,,10+,30.05,,,TRUE,TRUE,,,,,,,BKN,1700,BKN,2200,OVC,2600,,,MVFR,,,,,,,,,,,,METAR,306
KMMT 272155Z 21007KT 10SM OVC007 10/09 A3000 RMK AO2A SLP163 T01020088 $,KMMT,2025-01-27T21:55:00Z,33.922,-80.802,10.2,8.8,210,7,,10+,30.00,1016.3,,,TRUE,TRUE,,,,,,OVC,700,,,,,,,IFR,,,,,,,,,,,,METAR,76
KMMI 272155Z AUTO 28004KT 10SM FEW013 SCT025 OVC033 07/05 A3008 RMK A01,KMMI,2025-01-27T21:55:00Z,35.3952,-84.5612,7,5,280,4,,10+,30.08,,,TRUE,TRUE,,,,,,,FEW,1300,SCT,2500,OVC,3300,,,VFR,,,,,,,,,,,,METAR,252
KMIB 272155Z 32016KT 10SM CLR M01/M04 A2982 RMK AO2A SLP121 T10061043,KMIB,2025-01-27T21:55:00Z,48.4062,-101.341,-0.6,-4.3,320,16,,10+,29.82,1012.1,,,TRUE,,,,,,,CLR,,,,,,,,VFR,,,,,,,,,,,,METAR,505
KMHR 272155Z AUTO 00000KT 10SM CLR 16/M02 A3011 RMK AO2,KMHR,2025-01-27T21:55:00Z,38.56,-121.284,16,-2,0,0,,10+,30.11,,,TRUE,TRUE,,,,,,,CLR,,,,,,,,VFR,,,,,,,,,,,,METAR,30
KMGE 272155Z 28005KT 5SM BR OVC006 10/09 A3002 RMK AO2A SLP170 T00990087 $,KMGE,2025-01-27T21:55:00Z,33.9189,-84.5266,9.9,8.7,280,5,,5,30.02,1017,,,TRUE,TRUE,,,,,BR,OVC,600,,,,,,,IFR,,,,,,,,,,,,METAR,309
KMCF 272155Z AUTO 24004KT 10SM CLR 18/00 A3011 RMK AO2 SLP199 T01840000 FZRANO $,KMCF,2025-01-27T21:55:00Z,27.8598,-82.5133,18.4,0,240,4,,10+,30.11,1019.9,,TRUE,TRUE,TRUE,,,TRUE,,,CLR,,,,,,,,VFR,,,,,,,,,,,,METAR,3
KLUF 272155Z AUTO 34007KT 10SM CLR 15/05 A3002 RMK AO2 SLP166 T01490048 $,KLUF,2025-01-27T21:55:00Z,33.538,-112.38,14.9,4.8,340,7,,10+,30.02,1016.6,,TRUE,TRUE,TRUE,,,,,,CLR,,,,,,,,VFR,,,,,,,,,,,,METAR,333
KLTS 272155Z AUTO 20008KT 10SM CLR 10/M10 A3016 RMK AO2 SLP220 T00981104 $,KLTS,2025-01-27T21:55:00Z,34.666,-99.27,9.8,-10.4,200,8,,10+,30.16,1022,,TRUE,TRUE,TRUE,,,,,,CLR,,,,,,,,VFR,,,,,,,,,,,,METAR,416
KLSV 272155Z AUTO 06006KT 10SM FEW080 SCT100 13/M11 A2999 RMK AO2 SLP152 T01321106 $,KLSV,2025-01-27T21:55:00Z,36.236,-115.034,13.2,-10.6,60,6,,10+,29.99,1015.2,,TRUE,TRUE,TRUE,,,,,,FEW,8000,SCT,10000,,,,,VFR,,,,,,,,,,,,METAR,563
KLRF 272155Z AUTO 24009KT 10SM CLR 12/M05 A3014 RMK AO2 SLP210 T01171053 $,KLRF,2025-01-27T21:55:00Z,34.92,-92.131,11.7,-5.3,240,9,,10+,30.14,1021,,TRUE,TRUE,TRUE,,,,,,CLR,,,,,,,,VFR,,,,,,,,,,,,METAR,85
KLLJ 272155Z AUTO 36003KT 10SM CLR M05/M17 A3024 RMK AO2 SLP312 T10501172,KLLJ,2025-01-27T21:55:00Z,44.523,-114.216,-5,-17.2,360,3,,10+,30.24,1031.2,,TRUE,TRUE,,,,,,,CLR,,,,,,,,VFR,,,,,,,,,,,,METAR,1535
KLIC 272155Z AUTO 24004KT 10SM CLR 10/M13 A3002 RMK AO2 SLP185 T01001133,KLIC,2025-01-27T21:55:00Z,39.2733,-103.667,10,-13.3,240,4,,10+,30.02,1018.5,,TRUE,TRUE,,,,,,,CLR,,,,,,,,VFR,,,,,,,,,,,,METAR,1635
KLHW 272155Z 00000KT 10SM SCT040 OVC150 12/10 A3004 RMK AO2A SLP176 T01160102 $,KLHW,2025-01-27T21:55:00Z,31.8872,-81.5625,11.6,10.2,0,0,,10+,30.04,1017.6,,,TRUE,TRUE,,,,,,SCT,4000,OVC,15000,,,,,VFR,,,,,,,,,,,,METAR,14
KLGF 272155Z AUTO 23008KT 9SM SCT060 BKN080 19/02 A3002 RMK AO2 SLP166 T01850019 $,KLGF,2025-01-27T21:55:00Z,32.868,-114.393,18.5,1.9,230,8,,9,30.02,1016.6,,TRUE,TRUE,TRUE,,,,,,SCT,6000,BKN,8000,,,,,VFR,,,,,,,,,,,,METAR,118
KLFI 272155Z AUTO 14006KT 10SM CLR 09/M03 A2990 RMK AO2 SLP132 T00881034 $,KLFI,2025-01-27T21:55:00Z,37.088,-76.349,8.8,-3.4,140,6,,10+,29.90,1013.2,,TRUE,TRUE,TRUE,,,,,,CLR,,,,,,,,VFR,,,,,,,,,,,,METAR,2
KLCK 272155Z AUTO 22012KT 10SM CLR 01/M09 A2992 RMK AO2 T00071091,KLCK,2025-01-27T21:55:00Z,39.83,-82.919,0.7,-9.1,220,12,,10+,29.92,,,TRUE,TRUE,,,,,,,CLR,,,,,,,,VFR,,,,,,,,,,,,METAR,225
KIRK 272155Z AUTO 26010G28KT 10SM CLR 06/M07 A2993 RMK AO2 PK WND 25032/2121 SLP150 T00611072,KIRK,2025-01-27T21:55:00Z,40.0966,-92.5469,6.1,-7.2,260,10,28,10+,29.93,1015,,TRUE,TRUE,,,,,,,CLR,,,,,,,,VFR,,,,,,,,,,,,METAR,292
KINS 272155Z AUTO 32005KT 10SM BKN075 OVC095 12/M12 A3001 RMK AO2 SLP154 T01161119 $,KINS,2025-01-27T21:55:00Z,36.586,-115.69,11.6,-11.9,320,5,,10+,30.01,1015.4,,TRUE,TRUE,TRUE,,,,,,BKN,7500,OVC,9500,,,,,VFR,,,,,,,,,,,,METAR,954
KILM 272155Z 21005KT 7SM BKN006 BKN034 OVC055 08/07 A3004 RMK AO2 T00830072,KILM,2025-01-27T21:55:00Z,34.2668,-77.8999,8.3,7.2,210,5,,7,30.04,,,,TRUE,,,,,,,BKN,600,BKN,3400,OVC,5500,,,IFR,,,,,,,,,,,,SPECI,9
KIAB 272155Z AUTO 23015KT 10SM CLR 09/M05 A3009 RMK AO2 SLP201 T00891054,KIAB,2025-01-27T21:55:00Z,37.622,-97.268,8.9,-5.4,230,15,,10+,30.09,1020.1,,TRUE,TRUE,,,,,,,CLR,,,,,,,,VFR,,,,,,,,,,,,METAR,413
KHST 272155Z AUTO 08006KT 10SM OVC070 23/16 A3008 RMK AO2 SLP189 T02340162,KHST,2025-01-27T21:55:00Z,25.49,-80.379,23.4,16.2,80,6,,10+,30.08,1018.9,,TRUE,TRUE,,,,,,,OVC,7000,,,,,,,VFR,,,,,,,,,,,,METAR,1
KHOP 272155Z AUTO 26010KT 10SM CLR 08/M12 A3007 RMK AO2 SLP188 T00781121,KHOP,2025-01-27T21:55:00Z,36.672,-87.495,7.8,-12.1,260,10,,10+,30.07,1018.8,,TRUE,TRUE,,,,,,,CLR,,,,,,,,VFR,,,,,,,,,,,,METAR,170
KHON 272155Z AUTO 32014KT 10SM CLR 08/M06 A2982 RMK AO2 SLP111 T00781056,KHON,2025-01-27T21:55:00Z,44.3792,-98.2227,7.8,-5.6,320,14,,10+,29.82,1011.1,,TRUE,TRUE,,,,,,,CLR,,,,,,,,VFR,,,,,,,,,,,,METAR,391
KHMN 272155Z AUTO 13012G17KT 10SM CLR 17/M07 A3003 RMK AO2 SLP145 T01651072 $,KHMN,2025-01-27T21:55:00Z,32.852,-106.108,16.5,-7.2,130,12,17,10+,30.03,1014.5,,TRUE,TRUE,TRUE,,,,,,CLR,,,,,,,,VFR,,,,,,,,,,,,METAR,1240
KHLR 272155Z AUTO 05004KT 9SM BKN039 OVC075 12/03 A3017 RMK AO2 SLP218 T01180030,KHLR,2025-01-27T21:55:00Z,31.1361,-97.7149,11.8,3,50,4,,9,30.17,1021.8,,TRUE,TRUE,,,,,,,BKN,3900,OVC,7500,,,,,VFR,,,,,,,,,,,,METAR,271
KHIF 272155Z AUTO 00000KT 10SM CLR 02/M11 A3014 RMK AO2 SLP219 T00171111,KHIF,2025-01-27T21:55:00Z,41.111,-111.962,1.7,-11.1,0,0,,10+,30.14,1021.9,,TRUE,TRUE,,,,,,,CLR,,,,,,,,VFR,,,,,,,,,,,,METAR,1461
KHFF 272155Z AUTO 23006KT 10SM OVC004 09/08 A2996 RMK AO2 DZE12 SLP150 P0000 T00860080 $,KHFF,2025-01-27T21:55:00Z,35.0424,-79.4973,8.6,8,230,6,,10+,29.96,1015,,TRUE,TRUE,TRUE,,,,,,OVC,400,,,,,,,LIFR,,,,,,0.005,,,,,,METAR,100
KGXF 272155Z 29008KT 10SM FEW040 BKN055 17/03 A3002 RMK AO2A LTG DSNT NW SHRA E SLP162 T01710030 FZRANO $,KGXF,2025-01-27T21:55:00Z,32.885,-112.721,17.1,3,290,8,,10+,30.02,1016.2,,,TRUE,TRUE,,,TRUE,,,FEW,4000,BKN,5500,,,,,VFR,,,,,,,,,,,,METAR,261
KGXA 272155Z AUTO VRB03KT 10SM FEW085 06/M00 A3003 RMK AO2 SLP177 WND DATA ESTMD T00611003,KGXA,2025-01-27T21:55:00Z,34.565,-117.669,6.1,-0.3,VRB,3,,10+,30.03,1017.7,,TRUE,TRUE,,,,,,,FEW,8500,,,,,,,VFR,,,,,,,,,,,,METAR,927
KGUS 272155Z AUTO 24025G29KT 10SM CLR 03/M08 A2981 RMK AO2 PK WND 23032/38 SLP107 T00331084 $,KGUS,2025-01-27T21:55:00Z,40.6375,-86.1631,3.3,-8.4,240,25,29,10+,29.81,1010.7,,TRUE,TRUE,TRUE,,,,,,CLR,,,,,,,,VFR,,,,,,,,,,,,METAR,245
KGUR 272155Z AUTO 29008KT 5SM HZ BKN100 07/M10 A3003 RMK AO2 SLP229 T00721097,KGUR,2025-01-27T21:55:00Z,42.261,-104.732,7.2,-9.7,290,8,,5,30.03,1022.9,,TRUE,TRUE,,,,,,HZ,BKN,10000,,,,,,,MVFR,,,,,,,,,,,,METAR,1341
KGTB 272155Z AUTO 23019G28KT 10SM CLR 01/M12 A2940 RMK AO2 PK WND 22039/10 SLP962 T00061124,KGTB,2025-01-27T21:55:00Z,44.0617,-75.7218,0.6,-12.4,230,19,28,10+,29.40,996.2,,TRUE,TRUE,,,,,,,CLR,,,,,,,,VFR,,,,,,,,,,,,METAR,206
KGRK 272155Z AUTO 00000KT 10SM BKN034 OVC042 11/02 A3017 RMK AO2 SLP218 T01130015,KGRK,2025-01-27T21:55:00Z,31.0779,-97.8323,11.3,1.5,0,0,,10+,30.17,1021.8,,TRUE,TRUE,,,,,,,BKN,3400,OVC,4200,,,,,VFR,,,,,,,,,,,,METAR,311
KGRF 272155Z AUTO 34005KT 10SM CLR 08/M02 A3030 RMK AO2 SLP267 T00781023 $,KGRF,2025-01-27T21:55:00Z,47.079,-122.58,7.8,-2.3,340,5,,10+,30.30,1026.7,,TRUE,TRUE,TRUE,,,,,,CLR,,,,,,,,VFR,,,,,,,,,,,,METAR,91
KGPI 272155Z 00000KT 10SM CLR M03/M10 A3035 RMK AO2 SLP331 T10331100,KGPI,2025-01-27T21:55:00Z,48.3041,-114.264,-3.3,-10,0,0,,10+,30.35,1033.1,,,TRUE,,,,,,,CLR,,,,,,,,VFR,,,,,,,,,,,,METAR,903
KGFA 272155Z AUTO 23016KT 10SM CLR 04/M07 A3009 RMK AO2 SLP216 T00351070 $,KGFA,2025-01-27T21:55:00Z,47.505,-111.187,3.5,-7,230,16,,10+,30.09,1021.6,,TRUE,TRUE,TRUE,,,,,,CLR,,,,,,,,VFR,,,,,,,,,,,,METAR,1058
KFWS 272155Z 02003KT 10SM CLR 11/M04 A3021,KFWS,2025-01-27T21:55:00Z,32.558,-97.308,11,-4,20,3,,10+,30.21,,,,,,,,,,,CLR,,,,,,,,VFR,,,,,,,,,,,,METAR,211
KFTK 272155Z AUTO 24008KT 10SM CLR 05/M13 A3001 RMK AO2 SLP171 T00471127,KFTK,2025-01-27T21:55:00Z,37.907,-85.973,4.7,-12.7,240,8,,10+,30.01,1017.1,,TRUE,TRUE,,,,,,,CLR,,,,,,,,VFR,,,,,,,,,,,,METAR,225
KFSI 272155Z 21005KT 10SM CLR 11/M12 A3014 RMK AO2 SLP211 T01051122 FZRANO $,KFSI,2025-01-27T21:55:00Z,34.6457,-98.404,10.5,-12.2,210,5,,10+,30.14,1021.1,,,TRUE,TRUE,,,TRUE,,,CLR,,,,,,,,VFR,,,,,,,,,,,,METAR,360
KFRI 272155Z AUTO 22016KT 10SM CLR 06/M02 A3003 RMK AO2 SLP180 T00581025 $,KFRI,2025-01-27T21:55:00Z,39.0568,-96.7617,5.8,-2.5,220,16,,10+,30.03,1018,,TRUE,TRUE,TRUE,,,,,,CLR,,,,,,,,VFR,,,,,,,,,,,,METAR,232
KFHU 272155Z AUTO 22013G18KT 10SM CLR 15/M10 A3001 RMK AO2 SLP138 T01541096,KFHU,2025-01-27T21:55:00Z,31.586,-110.348,15.4,-9.6,220,13,18,10+,30.01,1013.8,,TRUE,TRUE,,,,,,,CLR,,,,,,,,VFR,,,,,,,,,,,,METAR,1424
KFFO 272155Z AUTO 22013KT 10SM CLR 01/M12 A2991 RMK AO2 SLP141 T00121116,KFFO,2025-01-27T21:55:00Z,39.837,-84.035,1.2,-11.6,220,13,,10+,29.91,1014.1,,TRUE,TRUE,,,,,,,CLR,,,,,,,,VFR,,,,,,,,,,,,METAR,250
KFEW 272155Z AUTO 34008KT 10SM M 03/M08 A3006 RMK AO2 SLP229 T00341080 $,KFEW,2025-01-27T21:55:00Z,41.141,-104.869,3.4,-8,340,8,,10+,30.06,1022.9,,TRUE,TRUE,TRUE,,,,,,,,,,,,,,VFR,,,,,,,,,,,,METAR,1877
KFCS 272155Z AUTO 04003KT 10SM CLR 07/M10 A3001 RMK AO2 SLP212 T00721097 $,KFCS,2025-01-27T21:55:00Z,38.6756,-104.751,7.2,-9.7,40,3,,10+,30.01,1021.2,,TRUE,TRUE,TRUE,,,,,,CLR,,,,,,,,VFR,,,,,,,,,,,,METAR,1789
KFAF 272155Z 22006KT 10SM FEW050 FEW250 12/M01 A2987 RMK AO2A SLP119 T01181010 $,KFAF,2025-01-27T21:55:00Z,37.134,-76.61,11.8,-1,220,6,,10+,29.87,1011.9,,,TRUE,TRUE,,,,,,FEW,5000,FEW,25000,,,,,VFR,,,,,,,,,,,,METAR,3
KF70 272155Z AUTO 35003KT 10SM SCT032 BKN045 OVC065 11/03 A3006 RMK AO2,KF70,2025-01-27T21:55:00Z,33.577,-117.126,11,3,350,3,,10+,30.06,,,TRUE,TRUE,,,,,,,SCT,3200,BKN,4500,OVC,6500,,,VFR,,,,,,,,,,,,METAR,406
KETC 272155Z AUTO 20007KT 7SM OVC011 09/06 A2997 RMK AO2 T00860064,KETC,2025-01-27T21:55:00Z,35.9363,-77.5416,8.6,6.4,200,7,,7,29.97,,,TRUE,TRUE,,,,,,,OVC,1100,,,,,,,MVFR,,,,,,,,,,,,METAR,15
KEND 272155Z AUTO 21009KT 10SM CLR 10/M10 A3010 RMK AO2 SLP204 T01001102 $,KEND,2025-01-27T21:55:00Z,36.338,-97.919,10,-10.2,210,9,,10+,30.10,1020.4,,TRUE,TRUE,TRUE,,,,,,CLR,,,,,,,,VFR,,,,,,,,,,,,METAR,392
KEGI 272155Z 25006KT 10SM -DZ OVC020 19/16 A3006 RMK SLP186 WND DATA ESTMD ALSTG/SLP ESTMD $,KEGI,2025-01-27T21:55:00Z,30.653,-86.525,19,16,250,6,,10+,30.06,1018.6,,,,TRUE,,,,,-DZ,OVC,2000,,,,,,,MVFR,,,,,,,,,,,,METAR,59
KEDW 272155Z 20007KT 90SM FEW025 SCT080 10/02 A3005 RMK AO2A SLP179 T00980017,KEDW,2025-01-27T21:55:00Z,34.908,-117.874,9.8,1.7,200,7,,90,30.05,1017.9,,,TRUE,,,,,,,FEW,2500,SCT,8000,,,,,VFR,,,,,,,,,,,,METAR,698
KEAT 272155Z AUTO 00000KT 10SM CLR 00/M08 A3043 RMK AO2 SLP321 T00001078,KEAT,2025-01-27T21:55:00Z,47.3975,-120.201,0,-7.8,0,0,,10+,30.43,1032.1,,TRUE,TRUE,,,,,,,CLR,,,,,,,,VFR,,,,,,,,,,,,METAR,375
KDYS 272155Z VRB01KT 10SM OVC029 07/M10 A3022 RMK AO2A SLP254 WND DATA ESTMD T00701099,KDYS,2025-01-27T21:55:00Z,32.406,-99.85,7,-9.9,VRB,1,,10+,30.22,1025.4,,,TRUE,,,,,,,OVC,2900,,,,,,,MVFR,,,,,,,,,,,,METAR,544
KDPG 272155Z 27003KT 40SM SKC M02/M09 A3017 RMK SLP256 T10181093,KDPG,2025-01-27T21:55:00Z,40.187,-112.934,-1.8,-9.3,270,3,,40,30.17,1025.6,,,,,,,,,,SKC,,,,,,,,VFR,,,,,,,,,,,,METAR,1324
KDOV 272155Z AUTO 20006KT 10SM CLR 07/M07 A2987 RMK AO2 SLP119 T00661071 $,KDOV,2025-01-27T21:55:00Z,39.13,-75.465,6.6,-7.1,200,6,,10+,29.87,1011.9,,TRUE,TRUE,TRUE,,,,,,CLR,,,,,,,,VFR,,,,,,,,,,,,METAR,6
KDMA 272155Z AUTO 26010G15KT 10SM CLR 16/M03 A2998 RMK AO2 SLP137 T01641032 $,KDMA,2025-01-27T21:55:00Z,32.165,-110.887,16.4,-3.2,260,10,15,10+,29.98,1013.7,,TRUE,TRUE,TRUE,,,,,,CLR,,,,,,,,VFR,,,,,,,,,,,,METAR,804
KDLH 272155Z 31015G23KT 10SM FEW030 BKN041 00/M07 A2955 RMK AO2 PK WND 31028/2116 SLP029 T00001072,KDLH,2025-01-27T21:55:00Z,46.8435,-92.1866,0,-7.2,310,15,23,10+,29.55,1002.9,,,TRUE,,,,,,,FEW,3000,BKN,4100,,,,,VFR,,,,,,,,,,,,METAR,434
KDLF 272155Z AUTO 00000KT 10SM OVC016 12/06 A3014 RMK AO2 SLP205 T01150064 $,KDLF,2025-01-27T21:55:00Z,29.3666,-100.785,11.5,6.4,0,0,,10+,30.14,1020.5,,TRUE,TRUE,TRUE,,,,,,OVC,1600,,,,,,,MVFR,,,,,,,,,,,,METAR,328
KDAA 272155Z AUTO 00000KT 10SM CLR 10/M08 A2985 RMK AO2 SLP112 T00991078 $,KDAA,2025-01-27T21:55:00Z,38.714,-77.178,9.9,-7.8,0,0,,10+,29.85,1011.2,,TRUE,TRUE,TRUE,,,,,,CLR,,,,,,,,VFR,,,,,,,,,,,,METAR,17
KCXW 272155Z AUTO 24005KT 9SM 12/M03 A3017 RMK A01,KCXW,2025-01-27T21:55:00Z,35.0217,-92.5506,12,-3,240,5,,9,30.17,,,TRUE,TRUE,,,,,,,,,,,,,,,VFR,,,,,,,,,,,,METAR,84
KCXP 272155Z AUTO 00000KT 10SM CLR 02/M09 A3022 RMK AO2,KCXP,2025-01-27T21:55:00Z,39.1905,-119.732,2,-9,0,0,,10+,30.22,,,TRUE,TRUE,,,,,,,CLR,,,,,,,,VFR,,,,,,,,,,,,METAR,1431
KCWN 272155Z AUTO 29003KT 10SM CLR 03/M12 A3002 RMK AO2 SLP102 T00301117 $,KCWN,2025-01-27T21:55:00Z,38.748,-104.847,3,-11.7,290,3,,10+,30.02,1010.2,,TRUE,TRUE,TRUE,,,,,,CLR,,,,,,,,VFR,,,,,,,,,,,,METAR,2040
KCVS 272155Z AUTO 20010KT 10SM CLR 11/M07 A3006 RMK AO2 SLP181 T01141070 $,KCVS,2025-01-27T21:55:00Z,34.381,-103.322,11.4,-7,200,10,,10+,30.06,1018.1,,TRUE,TRUE,TRUE,,,,,,CLR,,,,,,,,VFR,,,,,,,,,,,,METAR,1305
KCRX 272155Z AUTO 31007KT 10SM CLR 10/M08 A3014 RMK AO2,KCRX,2025-01-27T21:55:00Z,34.9209,-88.6071,10,-8,310,7,,10+,30.14,,,TRUE,TRUE,,,,,,,CLR,,,,,,,,VFR,,,,,,,,,,,,METAR,128
KCOF 272155Z 12005KT 10SM CLR 22/14 A3007 RMK AO2A SLPNO ALSTG ESTMD RVRNO TSNO $,KCOF,2025-01-27T21:55:00Z,28.242,-80.608,22,14,120,5,,10+,30.07,,,,TRUE,TRUE,,TRUE,,,,CLR,,,,,,,,VFR,,,,,,,,,,,,METAR,1
KCNW 272155Z 04003KT 10SM CLR 10/04 A3021,KCNW,2025-01-27T21:55:00Z,31.637,-97.071,10,4,40,3,,10+,30.21,,,,,,,,,,,CLR,,,,,,,,VFR,,,,,,,,,,,,METAR,139
KCNK 272155Z AUTO 23010KT 10SM CLR 06/M02 A3000 RMK AO2 SLP170 T00611017,KCNK,2025-01-27T21:55:00Z,39.5513,-97.6508,6.1,-1.7,230,10,,10+,30.00,1017,,TRUE,TRUE,,,,,,,CLR,,,,,,,,VFR,,,,,,,,,,,,METAR,445
KCMY 272155Z AUTO 26013G20KT 9SM SCT037 BKN110 03/M05 A2963 RMK AO2 PK WND 25026/30 RAB2055E20 SLP047 P0000 T00251052 $,KCMY,2025-01-27T21:55:00Z,43.9581,-90.7398,2.5,-5.2,260,13,20,9,29.63,1004.7,,TRUE,TRUE,TRUE,,,,,,SCT,3700,BKN,11000,,,,,VFR,,,,,,0.005,,,,,,METAR,253
KCMA 272155Z 28013KT 10SM CLR 15/05 A3008 RMK AO2 SLP196 T01500050,KCMA,2025-01-27T21:55:00Z,34.2114,-119.088,15,5,280,13,,10+,30.08,1019.6,,,TRUE,,,,,,,CLR,,,,,,,,VFR,,,,,,,,,,,,METAR,20
KCEY 272155Z AUTO 25008KT 10SM CLR 07/M11 A3011 RMK A01,KCEY,2025-01-27T21:55:00Z,36.664,-88.372,7,-11,250,8,,10+,30.11,,,TRUE,TRUE,,,,,,,CLR,,,,,,,,VFR,,,,,,,,,,,,METAR,172
KCEF 272155Z 22015G21KT 10SM FEW180 SCT250 02/M11 A2965 RMK AO2A SLP047 T00211108,KCEF,2025-01-27T21:55:00Z,42.201,-72.525,2.1,-10.8,220,15,21,10+,29.65,1004.7,,,TRUE,,,,,,,FEW,18000,SCT,25000,,,,,VFR,,,,,,,,,,,,METAR,72
KCCB 272155Z AUTO 25006G11KT 10SM SCT050 OVC060 11/03 A3005 RMK AO2,KCCB,2025-01-27T21:55:00Z,34.1118,-117.685,11,3,250,6,11,10+,30.05,,,TRUE,TRUE,,,,,,,SCT,5000,OVC,6000,,,,,VFR,,,,,,,,,,,,METAR,440
KCBM 272155Z 00000KT 10SM FEW029 10/06 A3010 RMK AO2A SLP196 T01010061 $,KCBM,2025-01-27T21:55:00Z,33.6519,-88.4567,10.1,6.1,0,0,,10+,30.10,1019.6,,,TRUE,TRUE,,,,,,FEW,2900,,,,,,,VFR,,,,,,,,,,,,METAR,59
KCAO 272155Z AUTO 21016G22KT 10SM CLR 11/M07 A3003 RMK AO2 PK WND 22026/2128 SLP176 T01111067,KCAO,2025-01-27T21:55:00Z,36.4483,-103.154,11.1,-6.7,210,16,22,10+,30.03,1017.6,,TRUE,TRUE,,,,,,,CLR,,,,,,,,VFR,,,,,,,,,,,,METAR,1517
KC83 272155Z AUTO 31006G13KT 10SM CLR 17/M05 A3013 RMK AO2,KC83,2025-01-27T21:55:00Z,37.8276,-121.624,17,-5,310,6,13,10+,30.13,,,TRUE,TRUE,,,,,,,CLR,,,,,,,,VFR,,,,,,,,,,,,METAR,16
KC08 272155Z AUTO 21013G19KT 10SM CLR 06/M19 A3005 RMK AO2,KC08,2025-01-27T21:55:00Z,38.0138,-105.373,6,-19,210,13,19,10+,30.05,,,TRUE,TRUE,,,,,,,CLR,,,,,,,,VFR,,,,,,,,,,,,METAR,2527
KBYS 272155Z AUTO 14006KT 10SM OVC080 09/01 A3004 RMK AO2 SLP171 T00860010 $,KBYS,2025-01-27T21:55:00Z,35.271,-116.634,8.6,1,140,6,,10+,30.04,1017.1,,TRUE,TRUE,TRUE,,,,,,OVC,8000,,,,,,,VFR,,,,,,,,,,,,METAR,717
KBTN 272155Z AUTO 33009G16KT 9SM CLR 04/M03 A2980 RMK AO2,KBTN,2025-01-27T21:55:00Z,45.8186,-97.7457,4,-3,330,9,16,9,29.80,,,TRUE,TRUE,,,,,,,CLR,,,,,,,,VFR,,,,,,,,,,,,METAR,400
KBOW 272155Z AUTO VRB05KT 10SM CLR 23/09 A3012 RMK AO2 PWINO,KBOW,2025-01-27T21:55:00Z,27.9471,-81.7811,23,9,VRB,5,,10+,30.12,,,TRUE,TRUE,,,,,TRUE,,CLR,,,,,,,,VFR,,,,,,,,,,,,METAR,38
KBLV 272155Z AUTO 22010KT 10SM CLR 08/M07 A3001 RMK AO2 SLP170 T00831070,KBLV,2025-01-27T21:55:00Z,38.54,-89.845,8.3,-7,220,10,,10+,30.01,1017,,TRUE,TRUE,,,,,,,CLR,,,,,,,,VFR,,,,,,,,,,,,METAR,134
KBKT 272155Z AUTO 23008KT 9SM FEW055 12/00 A2989 RMK AO2 SLP127 T01150000,KBKT,2025-01-27T21:55:00Z,37.082,-77.953,11.5,0,230,8,,9,29.89,1012.7,,TRUE,TRUE,,,,,,,FEW,5500,,,,,,,VFR,,,,,,,,,,,,METAR,134
KBIF 272155Z AUTO 21006KT 10SM CLR 18/M05 A2999 RMK AO2 SLP132 T01821051 $,KBIF,2025-01-27T21:55:00Z,31.861,-106.369,18.2,-5.1,210,6,,10+,29.99,1013.2,,TRUE,TRUE,TRUE,,,,,,CLR,,,,,,,,VFR,,,,,,,,,,,,METAR,1201
KBFA 272155Z AUTO 25008G14KT 220V280 1/2SM -SN FZFG OVC003 M01/M02 A2937 RMK AO2 P0002,KBFA,2025-01-27T21:55:00Z,45.166,-84.924,-1,-2,250,8,14,0.5,29.37,,,TRUE,TRUE,,,,,,FZFG -SN,OVC,300,,,,,,,LIFR,,,,,,0.02,,,,,,METAR,219
KBDN 272155Z AUTO VRB04KT 10SM CLR 08/M16 A3026 RMK AO2,KBDN,2025-01-27T21:55:00Z,44.1006,-121.198,8,-16,VRB,4,,10+,30.26,,,TRUE,TRUE,,,,,,,CLR,,,,,,,,VFR,,,,,,,,,,,,METAR,1044
KBAD 272155Z AUTO 28004KT 10SM CLR 14/04 A3018 RMK AO2 SLP224 T01400043,KBAD,2025-01-27T21:55:00Z,32.488,-93.658,14,4.3,280,4,,10+,30.18,1022.4,,TRUE,TRUE,,,,,,,CLR,,,,,,,,VFR,,,,,,,,,,,,METAR,49
KBAB 272155Z AUTO 33013KT 10SM CLR 18/M03 A3008 RMK AO2 SLP189 T01751033 $,KBAB,2025-01-27T21:55:00Z,39.145,-121.436,17.5,-3.3,330,13,,10+,30.08,1018.9,,TRUE,TRUE,TRUE,,,,,,CLR,,,,,,,,VFR,,,,,,,,,,,,METAR,31
KAVK 272155Z AUTO 22012KT 10SM CLR 11/M06 A3010 RMK AO2,KAVK,2025-01-27T21:55:00Z,36.7765,-98.6724,11,-6,220,12,,10+,30.10,,,TRUE,TRUE,,,,,,,CLR,,,,,,,,VFR,,,,,,,,,,,,METAR,450
KAST 272155Z AUTO 10SM CLR 11/M01 A3027 RMK AO2 SLP250 T01111006,KAST,2025-01-27T21:55:00Z,46.157,-123.883,11.1,-0.6,,,,10+,30.27,1025,,TRUE,TRUE,,,,,,,CLR,,,,,,,,VFR,,,,,,,,,,,,METAR,3
KAPG 272155Z 21008KT 7SM CLR 05/M13 A2987 RMK AO2A LAST,KAPG,2025-01-27T21:55:00Z,39.474,-76.166,5,-13,210,8,,7,29.87,,,,TRUE,,,,,,,CLR,,,,,,,,VFR,,,,,,,,,,,,METAR,18
KANE 272155Z 27012G17KT 10SM CLR 03/M05 A2966,KANE,2025-01-27T21:55:00Z,45.1426,-93.2127,3,-5,270,12,17,10+,29.66,,,,,,,,,,,CLR,,,,,,,,VFR,,,,,,,,,,,,METAR,276
KAFF 272155Z AUTO 18006KT 10SM CLR 08/M15 A3002 RMK AO2 SLP198 T00811155,KAFF,2025-01-27T21:55:00Z,38.971,-104.816,8.1,-15.5,180,6,,10+,30.02,1019.8,,TRUE,TRUE,,,,,,,CLR,,,,,,,,VFR,,,,,,,,,,,,METAR,2003
KADW 272155Z AUTO 24006KT 10SM CLR 08/M06 A2985 RMK AO2 SLP117 T00761062 $,KADW,2025-01-27T21:55:00Z,38.8215,-76.8654,7.6,-6.2,240,6,,10+,29.85,1011.7,,TRUE,TRUE,TRUE,,,,,,CLR,,,,,,,,VFR,,,,,,,,,,,,METAR,87
KABH 272155Z AUTO 00000KT 10SM CLR 10/M16 A3004 RMK AO2 SLP222 T00991156,KABH,2025-01-27T21:55:00Z,38.7587,-104.299,9.9,-15.6,0,0,,10+,30.04,1022.2,,TRUE,TRUE,,,,,,,CLR,,,,,,,,VFR,,,,,,,,,,,,METAR,1838
KAAT 272155Z AUTO 13003KT 10SM CLR 04/M11 A3023 RMK AO2 SLP265 T00391106,KAAT,2025-01-27T21:55:00Z,41.4836,-120.561,3.9,-10.6,130,3,,10+,30.23,1026.5,,TRUE,TRUE,,,,,,,CLR,,,,,,,,VFR,,,,,,,,,,,,METAR,1336
K9S9 272155Z AUTO 02006KT 10SM CLR 03/03 A3042 RMK AO2,K9S9,2025-01-27T21:55:00Z,45.4551,-119.686,3,3,20,6,,10+,30.42,,,TRUE,TRUE,,,,,,,CLR,,,,,,,,VFR,,,,,,,,,,,,METAR,498
K9L2 272155Z AUTO 17008KT 9SM BKN090 10/03 A3006 RMK AO2 SLP182 T00980031,K9L2,2025-01-27T21:55:00Z,34.996,-117.857,9.8,3.1,170,8,,9,30.06,1018.2,,TRUE,TRUE,,,,,,,BKN,9000,,,,,,,VFR,,,,,,,,,,,,METAR,697
K8V7 272155Z AUTO 06007KT 10SM CLR 11/M04 A3002 RMK AO2,K8V7,2025-01-27T21:55:00Z,37.4547,-102.619,11,-4,60,7,,10+,30.02,,,TRUE,TRUE,,,,,,,CLR,,,,,,,,VFR,,,,,,,,,,,,METAR,1338
K8A3 272155Z AUTO 30004KT 10SM CLR 07/M10 A3001 RMK A01,K8A3,2025-01-27T21:55:00Z,36.4164,-85.3061,7,-10,300,4,,10+,30.01,,,TRUE,TRUE,,,,,,,CLR,,,,,,,,VFR,,,,,,,,,,,,METAR,413
K6E5 272155Z AUTO 31014KT 10SM SCT085 06/M05 A2980 RMK AO2,K6E5,2025-01-27T21:55:00Z,44.4324,-97.5598,6,-5,310,14,,10+,29.80,,,TRUE,TRUE,,,,,,,SCT,8500,,,,,,,VFR,,,,,,,,,,,,METAR,525
K65S 272155Z AUTO 00000KT 10SM CLR M02/M09 A3039 RMK AO2,K65S,2025-01-27T21:55:00Z,48.7255,-116.293,-2,-9,0,0,,10+,30.39,,,TRUE,TRUE,,,,,,,CLR,,,,,,,,VFR,,,,,,,,,,,,METAR,708
K5T9 272155Z AUTO 02005KT 10SM BKN012 11/11 A3015 RMK A01,K5T9,2025-01-27T21:55:00Z,28.8568,-100.516,11,11,20,5,,10+,30.15,,,TRUE,TRUE,,,,,,,BKN,1200,,,,,,,MVFR,,,,,,,,,,,,METAR,269
K54A 272155Z AUTO 32004G10KT 10SM CLR 22/11 A3010 RMK AO2,K54A,2025-01-27T21:55:00Z,26.8601,-82.2468,22,11,320,4,10,10+,30.10,,,TRUE,TRUE,,,,,,,CLR,,,,,,,,VFR,,,,,,,,,,,,METAR,2
K4MR 272155Z AUTO 19006KT 10SM CLR 09/M06 A3004 RMK AO2 SLP156 T00931062 $,K4MR,2025-01-27T21:55:00Z,34.29,-103.791,9.3,-6.2,190,6,,10+,30.04,1015.6,,TRUE,TRUE,TRUE,,,,,,CLR,,,,,,,,VFR,,,,,,,,,,,,METAR,1339
K49B 272155Z AUTO 31026G32KT 10SM CLR 04/M04 A2997 RMK AO2,K49B,2025-01-27T21:55:00Z,44.4284,-103.38,4,-4,310,26,32,10+,29.97,,,TRUE,TRUE,,,,,,,CLR,,,,,,,,VFR,,,,,,,,,,,,METAR,986
K42A 272155Z AUTO 25006KT 10SM CLR 10/M10 A3013 RMK AO2,K42A,2025-01-27T21:55:00Z,36.0713,-91.8287,10,-10,250,6,,10+,30.13,,,TRUE,TRUE,,,,,,,CLR,,,,,,,,VFR,,,,,,,,,,,,METAR,224
K3W7 272155Z AUTO VRB03KT 10SM CLR 00/M05 A3041 RMK AO2,K3W7,2025-01-27T21:55:00Z,47.9219,-119.077,0,-5,VRB,3,,10+,30.41,,,TRUE,TRUE,,,,,,,CLR,,,,,,,,VFR,,,,,,,,,,,,METAR,492
K3S8 272155Z AUTO 00000KT 10SM CLR 09/M08 A3027 RMK AO2,K3S8,2025-01-27T21:55:00Z,42.51,-123.388,9,-8,0,0,,10+,30.27,,,TRUE,TRUE,,,,,,,CLR,,,,,,,,VFR,,,,,,,,,,,,METAR,339
K3L4 272155Z AUTO 03006KT 10SM BKN049 14/14 A3014 RMK A01,K3L4,2025-01-27T21:55:00Z,29.8,-92.804,14,14,30,6,,10+,30.14,,,TRUE,TRUE,,,,,,,BKN,4900,,,,,,,VFR,,,,,,,,,,,,METAR,1
K33N 272155Z AUTO 22005G14KT 10SM CLR 07/M07 A2988 RMK A01,K33N,2025-01-27T21:55:00Z,39.218,-75.597,7,-7,220,5,14,10+,29.88,,,TRUE,TRUE,,,,,,,CLR,,,,,,,,VFR,,,,,,,,,,,,METAR,17
K2M2 272155Z AUTO 29005KT 10SM CLR 09/M08 A3009 RMK A01,K2M2,2025-01-27T21:55:00Z,35.2372,-87.2611,9,-8,290,5,,10+,30.09,,,TRUE,TRUE,,,,,,,CLR,,,,,,,,VFR,,,,,,,,,,,,METAR,286
K2G2 272155Z AUTO 24012G19KT 10SM CLR 01/M13 A2982 RMK A01,K2G2,2025-01-27T21:55:00Z,40.359,-80.7,1,-13,240,12,19,10+,29.82,,,TRUE,TRUE,,,,,,,CLR,,,,,,,,VFR,,,,,,,,,,,,METAR,365
K2DP 272155Z AUTO 23008KT M M OVC007 08/07 A2998 RMK AO2 SLP159 T00750066 RVRNO PWINO TSNO $,K2DP,2025-01-27T21:55:00Z,35.672,-75.892,7.5,6.6,230,8,,,29.98,1015.9,,TRUE,TRUE,TRUE,,TRUE,,TRUE,,OVC,700,,,,,,,,,,,,,,,,,,,METAR,1
K2A0 272155Z AUTO 32005KT 10SM CLR 08/03 A3006 RMK A01,K2A0,2025-01-27T21:55:00Z,35.4817,-84.9322,8,3,320,5,,10+,30.06,,,TRUE,TRUE,,,,,,,CLR,,,,,,,,VFR,,,,,,,,,,,,METAR,219
K1YT 272155Z AUTO 23003KT 10SM CLR 04/M07 A3036 RMK AO2 SLP299 T00351073 $,K1YT,2025-01-27T21:55:00Z,46.668,-120.457,3.5,-7.3,230,3,,10+,30.36,1029.9,,TRUE,TRUE,TRUE,,,,,,CLR,,,,,,,,VFR,,,,,,,,,,,,METAR,423
K1U7 272155Z AUTO 00000KT 10SM FEW002 M10/M10 A3017 RMK A01,K1U7,2025-01-27T21:55:00Z,42.252,-111.337,-10,-10,0,0,,10+,30.17,,,TRUE,TRUE,,,,,,,FEW,200,,,,,,,VFR,,,,,,,,,,,,METAR,1808
K1ON 272155Z AUTO 29015KT 10SM CLR M02/M05 A2985 RMK AO2 SLP133 T10191047 $,K1ON,2025-01-27T21:55:00Z,48.82,-101.28,-1.9,-4.7,290,15,,10+,29.85,1013.3,,TRUE,TRUE,TRUE,,,,,,CLR,,,,,,,,VFR,,,,,,,,,,,,METAR,466
K1OM 272155Z AUTO 27019KT 10SM CLR 05/M05 A3001 RMK AO2 SLP185 T00451050 $,K1OM,2025-01-27T21:55:00Z,47.328,-108.927,4.5,-5,270,19,,10+,30.01,1018.5,,TRUE,TRUE,TRUE,,,,,,CLR,,,,,,,,VFR,,,,,,,,,,,,METAR,1088
K1NN 272155Z AUTO 29015KT 10SM CLR M01/M04 A2984 RMK AO2 SLP132 T10091039 $,K1NN,2025-01-27T21:55:00Z,48.76,-101.59,-0.9,-3.9,290,15,,10+,29.84,1013.2,,TRUE,TRUE,TRUE,,,,,,CLR,,,,,,,,VFR,,,,,,,,,,,,METAR,516
K1NM 272155Z AUTO 26019KT 10SM CLR 06/M06 A3001 RMK AO2 SLP184 T00631063 $,K1NM,2025-01-27T21:55:00Z,47.059,-109.031,6.3,-6.3,260,19,,10+,30.01,1018.4,,TRUE,TRUE,TRUE,,,,,,CLR,,,,,,,,VFR,,,,,,,,,,,,METAR,1169
K1MW 272155Z AUTO 32012KT 10SM CLR 11/M08 A3002 RMK AO2 SLP180 T01121081 $,K1MW,2025-01-27T21:55:00Z,40.704,-103.477,11.2,-8.1,320,12,,10+,30.02,1018,,TRUE,TRUE,TRUE,,,,,,CLR,,,,,,,,VFR,,,,,,,,,,,,METAR,1338
K1MN 272155Z AUTO 28017KT 10SM CLR M01/M04 A2984 RMK AO2 SLP133 T10131041 $,K1MN,2025-01-27T21:55:00Z,48.67,-101.88,-1.3,-4.1,280,17,,10+,29.84,1013.3,,TRUE,TRUE,TRUE,,,,,,CLR,,,,,,,,VFR,,,,,,,,,,,,METAR,569
K1MM 272155Z AUTO 25004KT 10SM CLR 01/M07 A3006 RMK AO2 SLP211 T00131068 $,K1MM,2025-01-27T21:55:00Z,47.014,-109.63,1.3,-6.8,250,4,,10+,30.06,1021.1,,TRUE,TRUE,TRUE,,,,,,CLR,,,,,,,,VFR,,,,,,,,,,,,METAR,1256
K1M5 272155Z AUTO 26007KT 10SM CLR 06/M11 A3006 RMK A01,K1M5,2025-01-27T21:55:00Z,36.5956,-86.478,6,-11,260,7,,10+,30.06,,,TRUE,TRUE,,,,,,,CLR,,,,,,,,VFR,,,,,,,,,,,,METAR,239
K1LN 272155Z AUTO 28019KT 10SM CLR M01/M05 A2986 RMK AO2 SLP142 T10121047 $,K1LN,2025-01-27T21:55:00Z,48.79,-102.27,-1.2,-4.7,280,19,,10+,29.86,1014.2,,TRUE,TRUE,TRUE,,,,,,CLR,,,,,,,,VFR,,,,,,,,,,,,METAR,601
K1KM 272155Z AUTO 21024KT 10SM CLR 06/M11 M RMK AO2 PK WND 26030/17 SLPNO T00611115 $,K1KM,2025-01-27T21:55:00Z,46.444,-109.801,6.1,-11.5,210,24,,10+,0.00,,,TRUE,TRUE,TRUE,,,,,,CLR,,,,,,,,VFR,,,,,,,,,,,,METAR,1332
K1K8 272155Z AUTO 23010KT 10SM CLR 09/M08 A3017 RMK AO2,K1K8,2025-01-27T21:55:00Z,36.543,-95.012,9,-8,230,10,,10+,30.17,,,TRUE,TRUE,,,,,,,CLR,,,,,,,,VFR,,,,,,,,,,,,METAR,234
K1JW 272155Z AUTO 31015KT 10SM CLR 09/M11 A2999 RMK AO2 SLP169 T00851115 $,K1JW,2025-01-27T21:55:00Z,40.961,-103.199,8.5,-11.5,310,15,,10+,29.99,1016.9,,TRUE,TRUE,TRUE,,,,,,CLR,,,,,,,,VFR,,,,,,,,,,,,METAR,1382
K1JN 272155Z AUTO 27018KT 10SM M M01/M04 A2982 RMK AO2 SLP129 T10071039 $,K1JN,2025-01-27T21:55:00Z,48.41,-101.89,-0.7,-3.9,270,18,,10+,29.82,1012.9,,TRUE,TRUE,TRUE,,,,,,,,,,,,,,VFR,,,,,,,,,,,,METAR,670
K1JM 272155Z AUTO 22011KT 10SM CLR 00/M06 A3007 RMK AO2 SLP225 T00021058 $,K1JM,2025-01-27T21:55:00Z,47.751,-111.547,0.2,-5.8,220,11,,10+,30.07,1022.5,,TRUE,TRUE,TRUE,,,,,,CLR,,,,,,,,VFR,,,,,,,,,,,,METAR,1154
K1IN 272155Z AUTO 29017KT 10SM CLR M02/M04 A2985 RMK AO2 SLP142 T10181045 $,K1IN,2025-01-27T21:55:00Z,48.34,-102.3,-1.8,-4.5,290,17,,10+,29.85,1014.2,,TRUE,TRUE,TRUE,,,,,,CLR,,,,,,,,VFR,,,,,,,,,,,,METAR,678
K1IM 272155Z AUTO 23006KT 10SM CLR M00/M07 A3009 RMK AO2 SLP227 T10011074 $,K1IM,2025-01-27T21:55:00Z,47.312,-111.473,-0.1,-7.4,230,6,,10+,30.09,1022.7,,TRUE,TRUE,TRUE,,,,,,CLR,,,,,,,,VFR,,,,,,,,,,,,METAR,1110
K1HW 272155Z AUTO 32019KT 10SM CLR 09/M12 M RMK AO2 SLPNO T00941119 $,K1HW,2025-01-27T21:55:00Z,41.325,-102.83,9.4,-11.9,320,19,,10+,0.00,,,TRUE,TRUE,TRUE,,,,,,CLR,,,,,,,,VFR,,,,,,,,,,,,METAR,1265
K1HN 272155Z AUTO 28010KT 10SM CLR 00/M04 A2989 RMK AO2 SLP150 T00021043 $,K1HN,2025-01-27T21:55:00Z,47.97,-102.22,0.2,-4.3,280,10,,10+,29.89,1015,,TRUE,TRUE,TRUE,,,,,,CLR,,,,,,,,VFR,,,,,,,,,,,,METAR,578
K1HM 272155Z AUTO 21014KT 10SM CLR 02/M07 A3007 RMK AO2 SLP216 T00211075 $,K1HM,2025-01-27T21:55:00Z,47.698,-111.943,2.1,-7.5,210,14,,10+,30.07,1021.6,,TRUE,TRUE,TRUE,,,,,,CLR,,,,,,,,VFR,,,,,,,,,,,,METAR,1181
K1GW 272155Z AUTO 31013KT 10SM CLR 08/M09 M RMK AO2 SLPNO T00811089 $,K1GW,2025-01-27T21:55:00Z,41.208,-103.097,8.1,-8.9,310,13,,10+,0.00,,,TRUE,TRUE,TRUE,,,,,,CLR,,,,,,,,VFR,,,,,,,,,,,,METAR,1335
K1GN 272155Z AUTO 28011KT 10SM CLR M01/M05 A2985 RMK AO2 SLP140 T10101047 $,K1GN,2025-01-27T21:55:00Z,48.12,-101.96,-1,-4.7,280,11,,10+,29.85,1014,,TRUE,TRUE,TRUE,,,,,,CLR,,,,,,,,VFR,,,,,,,,,,,,METAR,644
K1GM 272155Z AUTO 18017KT 10SM CLR M01/M10 A3006 RMK AO2 SLP230 T10091105 $,K1GM,2025-01-27T21:55:00Z,47.325,-112.093,-0.9,-10.5,180,17,,10+,30.06,1023,,TRUE,TRUE,TRUE,,,,,,CLR,,,,,,,,VFR,,,,,,,,,,,,METAR,1317
K1FM 272155Z AUTO 19010KT 10SM CLR 00/M07 A3010 RMK AO2 SLP223 T00031070 $,K1FM,2025-01-27T21:55:00Z,47.605,-112.311,0.3,-7,190,10,,10+,30.10,1022.3,,TRUE,TRUE,TRUE,,,,,,CLR,,,,,,,,VFR,,,,,,,,,,,,METAR,1344
K1EW 272155Z AUTO 32012KT 10SM CLR 05/M07 A3002 RMK AO2 SLP196 T00521067 $,K1EW,2025-01-27T21:55:00Z,41.103,-103.983,5.2,-6.7,320,12,,10+,30.02,1019.6,,TRUE,TRUE,TRUE,,,,,,CLR,,,,,,,,VFR,,,,,,,,,,,,METAR,1609
K1EN 272155Z AUTO 28015KT 10SM CLR M01/M05 A2964 RMK AO2 SLP067 T10101047 $,K1EN,2025-01-27T21:55:00Z,47.75,-101.67,-1,-4.7,280,15,,10+,29.64,1006.7,,TRUE,TRUE,TRUE,,,,,,CLR,,,,,,,,VFR,,,,,,,,,,,,METAR,641
K1EM 272155Z AUTO 24008KT 10SM CLR 04/M05 A3004 RMK AO2 SLP197 T00391053 $,K1EM,2025-01-27T21:55:00Z,47.454,-109.416,3.9,-5.3,240,8,,10+,30.04,1019.7,,TRUE,TRUE,TRUE,,,,,,CLR,,,,,,,,VFR,,,,,,,,,,,,METAR,1118
K1DM 272155Z AUTO 00000KT 10SM CLR 06/M06 M RMK AO2 SLPNO T00561063 $,K1DM,2025-01-27T21:55:00Z,47.376,-109.814,5.6,-6.3,0,0,,10+,0.00,,,TRUE,TRUE,TRUE,,,,,,CLR,,,,,,,,VFR,,,,,,,,,,,,METAR,1093
K1D8 272155Z AUTO 33016KT 10SM CLR 07/M06 A2984 RMK AO2,K1D8,2025-01-27T21:55:00Z,44.86,-98.529,7,-6,330,16,,10+,29.84,,,TRUE,TRUE,,,,,,,CLR,,,,,,,,VFR,,,,,,,,,,,,METAR,398
K1CM 272155Z AUTO 28009KT 10SM CLR 02/M04 A3006 RMK AO2 SLP203 T00241041 $,K1CM,2025-01-27T21:55:00Z,47.096,-110.164,2.4,-4.1,280,9,,10+,30.06,1020.3,,TRUE,TRUE,TRUE,,,,,,CLR,,,,,,,,VFR,,,,,,,,,,,,METAR,1338
K1BW 272155Z AUTO 31013KT 10SM CLR 06/M07 A3006 RMK AO2 SLP206 T00571072 $,K1BW,2025-01-27T21:55:00Z,41.511,-103.995,5.7,-7.2,310,13,,10+,30.06,1020.6,,TRUE,TRUE,TRUE,,,,,,CLR,,,,,,,,VFR,,,,,,,,,,,,METAR,1606
K1BM 272155Z AUTO 27016KT 10SM CLR 05/M06 A3006 RMK AO2 SLP200 T00471059 $,K1BM,2025-01-27T21:55:00Z,47.285,-110.359,4.7,-5.9,270,16,,10+,30.06,1020,,TRUE,TRUE,TRUE,,,,,,CLR,,,,,,,,VFR,,,,,,,,,,,,METAR,1234
K1AW 272155Z AUTO 31018KT 10SM CLR 02/M07 A3005 RMK AO2 SLP220 T00201071 $,K1AW,2025-01-27T21:55:00Z,41.329,-104.265,2,-7.1,310,18,,10+,30.05,1022,,TRUE,TRUE,TRUE,,,,,,CLR,,,,,,,,VFR,,,,,,,,,,,,METAR,1670
K1AM 272155Z AUTO 00000KT 10SM CLR 04/M06 A3007 RMK AO2 SLP208 T00351057 $,K1AM,2025-01-27T21:55:00Z,47.281,-110.801,3.5,-5.7,0,0,,10+,30.07,1020.8,,TRUE,TRUE,TRUE,,,,,,CLR,,,,,,,,VFR,,,,,,,,,,,,METAR,1228
K0R0 272155Z AUTO VRB05KT 10SM -RA BKN010 11/10 A3018 RMK AO2,K0R0,2025-01-27T21:55:00Z,31.2969,-89.8159,11,10,VRB,5,,10+,30.18,,,TRUE,TRUE,,,,,,-RA,BKN,1000,,,,,,,MVFR,,,,,,,,,,,,METAR,76
K0A9 272155Z AUTO 00000KT 6SM BR BKN008 OVC017 04/04 A3000 RMK AO2,K0A9,2025-01-27T21:55:00Z,36.3711,-82.1768,4,4,0,0,,6,30.00,,,TRUE,TRUE,,,,,,BR,BKN,800,OVC,1700,,,,,IFR,,,,,,,,,,,,METAR,479
K05U 272155Z AUTO 00000KT 10SM CLR M00/M10 A3014 RMK A01,K05U,2025-01-27T21:55:00Z,39.6015,-116.006,0,-10,0,0,,10+,30.14,,,TRUE,TRUE,,,,,,,CLR,,,,,,,,VFR,,,,,,,,,,,,METAR,1813
K00U 272155Z AUTO 26011KT 10SM CLR 04/M05 A3007 RMK A01,K00U,2025-01-27T21:55:00Z,45.7453,-107.661,4,-5,260,11,,10+,30.07,,,TRUE,TRUE,,,,,,,CLR,,,,,,,,VFR,,,,,,,,,,,,METAR,922
ETOU 272155Z AUTO 20004KT 9999 BKN030 OVC035 07/05 A2948 RMK AO2 SLP987 T00740052,ETOU,2025-01-27T21:55:00Z,50.048,8.329,7.4,5.2,200,4,,6+,29.48,998.7,,TRUE,TRUE,,,,,,,BKN,3000,OVC,3500,,,,,MVFR,,,,,,,,,,,,METAR,141
ETIC 272155Z AUTO 10003KT 9999 FEW012 06/05 A2958 RMK AO2 SLP026 T00630051 400881021,ETIC,2025-01-27T21:55:00Z,49.696,11.941,6.3,5.1,100,3,,6+,29.58,1002.6,,TRUE,TRUE,,,,,,,FEW,1200,,,,,,,VFR,,,,,,,,,,,,METAR,414
ETEB 272155Z AUTO 16011G17KT 9999 CLR 07/04 A2956 RMK AO2 SLP031 T00650042 $,ETEB,2025-01-27T21:55:00Z,49.308,10.639,6.5,4.2,160,11,17,6+,29.56,1003.1,,TRUE,TRUE,TRUE,,,,,,CLR,,,,,,,,VFR,,,,,,,,,,,,METAR,466
ETAR 272155Z AUTO 22010G16KT 9999 CLR 10/04 A2945 RMK AO2 SLP977 T00980035,ETAR,2025-01-27T21:55:00Z,49.437,7.6,9.8,3.5,220,10,16,6+,29.45,997.7,,TRUE,TRUE,,,,,,,CLR,,,,,,,,VFR,,,,,,,,,,,,METAR,231
ETAD 272155Z AUTO 21009KT 9999 SCT024 06/04 A2942 RMK AO2 SLP958 T00570037 FZRANO,ETAD,2025-01-27T21:55:00Z,49.979,6.698,5.7,3.7,210,9,,6+,29.42,995.8,,TRUE,TRUE,,,,TRUE,,,SCT,2400,,,,,,,VFR,,,,,,,,,,,,METAR,365
EHWO 272155Z AUTO 20010KT 160V240 9999 SCT026 08/04 Q0990 BLU,EHWO,2025-01-27T21:55:00Z,51.448,4.342,8,4,200,10,,6+,29.23,,,TRUE,,,,,,,,SCT,2600,,,,,,,VFR,,,,,,,,,,,,METAR,15
EHVL 272155Z AUTO 18014KT 9999 OVC120 06/04 Q0988 BLU,EHVL,2025-01-27T21:55:00Z,53.297,5.086,6,4,180,14,,6+,29.17,,,TRUE,,,,,,,,OVC,12000,,,,,,,VFR,,,,,,,,,,,,METAR,2
EHVK 272155Z AUTO 19013KT 150V240 9999 BKN034 08/05 Q0992 BLU,EHVK,2025-01-27T21:55:00Z,51.658,5.707,8,5,190,13,,6+,29.29,,,TRUE,,,,,,,,BKN,3400,,,,,,,VFR,,,,,,,,,,,,METAR,20
EHSC 272155Z AUTO 18024KT 9999 ///////// 08/04 Q0988 W06/H13,EHSC,2025-01-27T21:55:00Z,51.926,3.67,8,4,180,24,,6+,29.17,,,TRUE,,,,,,,,,,,,,,,,VFR,,,,,,,,,,,,METAR,19
EHSA 272155Z AUTO 17033KT 9999 ///////// 08/05 Q0987 W07/H16,EHSA,2025-01-27T21:55:00Z,51.998,3.275,8,5,170,33,,6+,29.14,,,TRUE,,,,,,,,,,,,,,,,VFR,,,,,,,,,,,,METAR,18
EHRD 272155Z AUTO 19012KT 140V220 9999 NCD 08/04 Q0989 NOSIG,EHRD,2025-01-27T21:55:00Z,51.954,4.444,8,4,190,12,,6+,29.20,,,TRUE,,,TRUE,,,,,CLR,,,,,,,,VFR,,,,,,,,,,,,METAR,-4
EHPG 272155Z AUTO 20028KT 160V260 9999 FEW043 09/05 Q0986,EHPG,2025-01-27T21:55:00Z,52.36,3.342,9,5,200,28,,6+,29.11,,,TRUE,,,,,,,,FEW,4300,,,,,,,VFR,,,,,,,,,,,,METAR,24
EHMG 272155Z AUTO 19030KT 9999 SCT032 BKN037 BKN042 09/05 Q0988,EHMG,2025-01-27T21:55:00Z,53.614,4.96,9,5,190,30,,6+,29.17,,,TRUE,,,,,,,,SCT,3200,BKN,3700,BKN,4200,,,VFR,,,,,,,,,,,,METAR,30
EHMA 272155Z AUTO 20025KT 9999 NSC 07/03 Q0989,EHMA,2025-01-27T21:55:00Z,53.492,5.942,7,3,200,25,,6+,29.20,,,TRUE,,,,,,,,CLR,,,,,,,,VFR,,,,,,,,,,,,METAR,27
EHLW 272155Z AUTO 17011KT 130V200 9999 BKN056 OVC180 07/03 Q0989 BLU,EHLW,2025-01-27T21:55:00Z,53.223,5.752,7,3,170,11,,6+,29.20,,,TRUE,,,,,,,,BKN,5600,OVC,18000,,,,,VFR,,,,,,,,,,,,METAR,1
EHLE 272155Z AUTO 18011KT 9999 NCD 07/04 Q0990,EHLE,2025-01-27T21:55:00Z,52.456,5.522,7,4,180,11,,6+,29.23,,,TRUE,,,,,,,,CLR,,,,,,,,VFR,,,,,,,,,,,,METAR,-3
EHKV 272155Z AUTO 20031KT 9999 FEW022 SCT029 BKN045 09/06 Q0986,EHKV,2025-01-27T21:55:00Z,53.269,3.628,9,6,200,31,,6+,29.11,,,TRUE,,,,,,,,FEW,2200,SCT,2900,BKN,4500,,,VFR,,,,,,,,,,,,METAR,28
EHKD 272155Z AUTO 18012KT 9999 BKN050 BKN057 07/03 Q0988 BLU,EHKD,2025-01-27T21:55:00Z,52.927,4.781,7,3,180,12,,6+,29.17,,,TRUE,,,,,,,,BKN,5000,BKN,5700,,,,,VFR,,,,,,,,,,,,METAR,1
EHJR 272155Z AUTO 19030KT //// // ///////// 09/06 Q0985 RE// W07/H26,EHJR,2025-01-27T21:55:00Z,53.218,3.22,9,6,190,30,,,29.08,,,TRUE,,,,,,,,,,,,,,,,,,,,,,,,,,,,METAR,31
EHJA 272155Z AUTO 20027KT 9999 NSC 08/05 Q0984,EHJA,2025-01-27T21:55:00Z,53.824,2.945,8,5,200,27,,6+,29.06,,,TRUE,,,,,,,,CLR,,,,,,,,VFR,,,,,,,,,,,,METAR,34
EHHW 272155Z AUTO 19026KT 9999 FEW038/// SCT048/// 08/04 Q0989,EHHW,2025-01-27T21:55:00Z,54.037,6.042,8,4,190,26,,6+,29.20,,,TRUE,,,,,,,,FEW,3800,SCT,4800,,,,,VFR,,,,,,,,,,,,METAR,10
EHGG 272155Z AUTO 18010KT 150V230 9999 NCD 07/04 Q0990 NOSIG,EHGG,2025-01-27T21:55:00Z,53.12,6.579,7,4,180,10,,6+,29.23,,,TRUE,,,TRUE,,,,,CLR,,,,,,,,VFR,,,,,,,,,,,,METAR,2
EHFS 272155Z AUTO 18021KT 9999 FEW026/// 07/04 Q0989,EHFS,2025-01-27T21:55:00Z,51.441,3.596,7,4,180,21,,6+,29.20,,,TRUE,,,,,,,,FEW,2600,,,,,,,VFR,,,,,,,,,,,,METAR,1
EHFD 272155Z AUTO 19030KT 9999 FEW027/// 08/05 Q0984,EHFD,2025-01-27T21:55:00Z,54.854,4.696,8,5,190,30,,6+,29.06,,,TRUE,,,,,,,,FEW,2700,,,,,,,VFR,,,,,,,,,,,,METAR,24
EHDV 272155Z AUTO 18029KT 9999 NSC 08/04 Q0982,EHDV,2025-01-27T21:55:00Z,54.326,2.936,8,4,180,29,,6+,29.00,,,TRUE,,,,,,,,CLR,,,,,,,,VFR,,,,,,,,,,,,METAR,36
EHDL 272155Z AUTO 18010KT 100V240 9999 NCD 08/04 Q0991 BLU,EHDL,2025-01-27T21:55:00Z,52.061,5.887,8,4,180,10,,6+,29.26,,,TRUE,,,,,,,,CLR,,,,,,,,VFR,,,,,,,,,,,,METAR,49
EHBK 272155Z AUTO 19016KT 9999 NSC 07/04 Q0994 NOSIG,EHBK,2025-01-27T21:55:00Z,50.905,5.762,7,4,190,16,,6+,29.35,,,TRUE,,,TRUE,,,,,CLR,,,,,,,,VFR,,,,,,,,,,,,METAR,112
EHAM 272155Z 18011KT CAVOK 07/04 Q0989 NOSIG,EHAM,2025-01-27T21:55:00Z,52.315,4.79,7,4,180,11,,6+,29.20,,,,,,TRUE,,,,,CAVOK,,,,,,,,VFR,,,,,,,,,,,,METAR,-2
EHAK 272155Z AUTO 17022KT 9999 NSC 08/05 Q0982,EHAK,2025-01-27T21:55:00Z,55.399,3.81,8,5,170,22,,6+,29.00,,,TRUE,,,,,,,,CLR,,,,,,,,VFR,,,,,,,,,,,,METAR,33
EGVA 272155Z AUTO 20014G23KT 9999 -RA BKN017 OVC024 07/05 A2886 RMK AO2 RAE2059RAB03 SLP777 P0005 T00720053 $,EGVA,2025-01-27T21:55:00Z,51.682,-1.79,7.2,5.3,200,14,23,6+,28.86,977.7,,TRUE,TRUE,TRUE,,,,,-RA,BKN,1700,OVC,2400,,,,,MVFR,,,,,,0.05,,,,,,METAR,84
EGUN 272155Z 19016KT 9999 CLR 08/04 A2896 RMK AO2A PK WND 19028/25 SLP810 T00780036 $,EGUN,2025-01-27T21:55:00Z,52.362,0.486,7.8,3.6,190,16,,6+,28.96,981,,,TRUE,TRUE,,,,,,CLR,,,,,,,,VFR,,,,,,,,,,,,METAR,10
EGUL 272155Z AUTO 17016G21KT 9999 FEW050 08/04 A2896 RMK AO2 PK WND 18026/40 SLP810 T00830037 $,EGUL,2025-01-27T21:55:00Z,52.409,0.561,8.3,3.7,170,16,21,6+,28.96,981,,TRUE,TRUE,TRUE,,,,,,FEW,5000,,,,,,,VFR,,,,,,,,,,,,METAR,8
EBLB 272155Z AUTO 20009G20KT 9999 BKN017/// 04/02 Q0994 WHT,EBLB,2025-01-27T21:55:00Z,50.482,6.181,4,2,200,9,20,6+,29.35,,,TRUE,,,,,,,,BKN,1700,,,,,,,MVFR,,,,,,,,,,,,METAR,563
EBFS 272155Z AUTO 19013KT 9999 FEW017/// SCT025/// BKN036/// 06/04 Q0993 BLU,EBFS,2025-01-27T21:55:00Z,50.243,4.646,6,4,190,13,,6+,29.32,,,TRUE,,,,,,,,FEW,1700,SCT,2500,BKN,3600,,,VFR,,,,,,,,,,,,METAR,276
EBFN 272155Z AUTO 18012KT 9999 NCD 07/04 Q0988 BLU,EBFN,2025-01-27T21:55:00Z,51.09,2.653,7,4,180,12,,6+,29.17,,,TRUE,,,,,,,,CLR,,,,,,,,VFR,,,,,,,,,,,,METAR,9
EBDT 272155Z AUTO 19013KT 9999 FEW027/// BKN240/// 08/04 Q0992 BLU,EBDT,2025-01-27T21:55:00Z,51.005,5.067,8,4,190,13,,6+,29.29,,,TRUE,,,,,,,,FEW,2700,BKN,24000,,,,,VFR,,,,,,,,,,,,METAR,25
EBCV 272155Z AUTO 19018KT 9999 FEW030/// BKN200/// 08/04 Q0991 BLU,EBCV,2025-01-27T21:55:00Z,50.576,3.831,8,4,190,18,,6+,29.26,,,TRUE,,,,,,,,FEW,3000,BKN,20000,,,,,VFR,,,,,,,,,,,,METAR,56
EBBL 272155Z AUTO 21012KT 9999 FEW029/// 08/04 Q0992 BLU,EBBL,2025-01-27T21:55:00Z,51.168,5.47,8,4,210,12,,6+,29.29,,,TRUE,,,,,,,,FEW,2900,,,,,,,VFR,,,,,,,,,,,,METAR,50
EBBE 272155Z AUTO 20017KT 9999 FEW032/// BKN038/// 08/03 Q0992 BLU,EBBE,2025-01-27T21:55:00Z,50.759,4.768,8,3,200,17,,6+,29.29,,,TRUE,,,,,,,,FEW,3200,BKN,3800,,,,,VFR,,,,,,,,,,,,METAR,127
BGTL 272155Z 14022KT 9999 CLR M14/M21 A2949 RMK AO2A PK WND 15026/41 SLP971 T11371208 TSNO $,BGTL,2025-01-27T21:55:00Z,76.527,-68.758,-13.7,-20.8,140,22,,6+,29.49,997.1,,,TRUE,TRUE,,TRUE,,,,CLR,,,,,,,,VFR,,,,,,,,,,,,METAR,79
PHOG 272154Z 35010KT 10SM FEW030 SCT050 26/21 A3002 RMK AO2 SLP169 T02610206,PHOG,2025-01-27T21:54:00Z,20.8887,-156.435,26.1,20.6,350,10,,10+,30.02,1016.9,,,TRUE,,,,,,,FEW,3000,SCT,5000,,,,,VFR,,,,,,,,,,,,METAR,14
PHMK 272154Z 02010KT 10SM FEW020 24/19 A3004 RMK AO2 SLP175 T02390189,PHMK,2025-01-27T21:54:00Z,21.1545,-157.096,23.9,18.9,20,10,,10+,30.04,1017.5,,,TRUE,,,,,,,FEW,2000,,,,,,,VFR,,,,,,,,,,,,METAR,135
PGUM 272154Z COR 07014KT 10SM BKN040 OVC047 26/23 A2991 RMK AO2 SLP118 T02610233,PGUM,2025-01-27T21:54:00Z,13.4796,144.796,26.1,23.3,70,14,,10+,29.91,1011.8,TRUE,,TRUE,,,,,,,BKN,4000,OVC,4700,,,,,VFR,,,,,,,,,,,,METAR,74
PGSN 272154Z 08012KT 10SM FEW024 SCT033 28/23 A2991 RMK AO2 SLP151 T02780228 $,PGSN,2025-01-27T21:54:00Z,15.116,145.72,27.8,22.8,80,12,,10+,29.91,1015.1,,,TRUE,TRUE,,,,,,FEW,2400,SCT,3300,,,,,VFR,,,,,,,,,,,,METAR,65
KWLD 272154Z AUTO 23011KT 10SM CLR 09/M06 A3014 RMK AO2 SLP216 T00941056,KWLD,2025-01-27T21:54:00Z,37.1649,-97.035,9.4,-5.6,230,11,,10+,30.14,1021.6,,TRUE,TRUE,,,,,,,CLR,,,,,,,,VFR,,,,,,,,,,,,METAR,351
KWAL 272154Z AUTO 18006KT 9SM CLR 04/M02 A2994 RMK AO2 SLP134 T00441017,KWAL,2025-01-27T21:54:00Z,37.9372,-75.4662,4.4,-1.7,180,6,,9,29.94,1013.4,,TRUE,TRUE,,,,,,,CLR,,,,,,,,VFR,,,,,,,,,,,,METAR,10
KVTA 272154Z AUTO 21011KT 10SM CLR 01/M11 A2989 RMK AO2 SLP134 T00061106,KVTA,2025-01-27T21:54:00Z,40.0263,-82.4635,0.6,-10.6,210,11,,10+,29.89,1013.4,,TRUE,TRUE,,,,,,,CLR,,,,,,,,VFR,,,,,,,,,,,,METAR,268
KVSF 272154Z AUTO 22008KT 190V260 10SM CLR 02/M12 A2956 RMK AO2 SLP018 T00221117,KVSF,2025-01-27T21:54:00Z,43.3421,-72.5213,2.2,-11.7,220,8,,10+,29.56,1001.8,,TRUE,TRUE,,,,,,,CLR,,,,,,,,VFR,,,,,,,,,,,,METAR,176
KVAY 272154Z AUTO 22005KT 10SM CLR 06/M13 A2985 RMK AO2 SLP109 T00561133,KVAY,2025-01-27T21:54:00Z,39.9408,-74.8407,5.6,-13.3,220,5,,10+,29.85,1010.9,,TRUE,TRUE,,,,,,,CLR,,,,,,,,VFR,,,,,,,,,,,,METAR,15
KUZA 272154Z AUTO 22005KT OVC003 08/08 A2997 RMK AO2 SLP151 T00830083 $,KUZA,2025-01-27T21:54:00Z,34.9836,-81.0562,8.3,8.3,220,5,,,29.97,1015.1,,TRUE,TRUE,TRUE,,,,,,OVC,300,,,,,,,,,,,,,,,,,,,METAR,198
KUIN 272154Z AUTO 25017G27KT 10SM CLR 06/M06 A2992 RMK AO2 PK WND 24031/2127 SLP137 T00611056 $,KUIN,2025-01-27T21:54:00Z,39.9371,-91.1966,6.1,-5.6,250,17,27,10+,29.92,1013.7,,TRUE,TRUE,TRUE,,,,,,CLR,,,,,,,,VFR,,,,,,,,,,,,METAR,233
KTQE 272154Z AUTO 26013KT 10SM CLR 12/M12 A2985 RMK AO2 SLP110 T01221122,KTQE,2025-01-27T21:54:00Z,41.763,-96.1797,12.2,-12.2,260,13,,10+,29.85,1011,,TRUE,TRUE,,,,,,,CLR,,,,,,,,VFR,,,,,,,,,,,,METAR,312
KTAD 272154Z AUTO 17013KT 10SM CLR 12/M08 A2998 RMK AO2 SLP147 T01171083,KTAD,2025-01-27T21:54:00Z,37.2618,-104.332,11.7,-8.3,170,13,,10+,29.98,1014.7,,TRUE,TRUE,,,,,,,CLR,,,,,,,,VFR,,,,,,,,,,,,METAR,1751
KSYR 272154Z 21017G30KT 10SM FEW150 FEW200 BKN250 03/M13 A2956 RMK AO2 PK WND 22035/2143 SLP010 T00331128,KSYR,2025-01-27T21:54:00Z,43.1111,-76.1038,3.3,-12.8,210,17,30,10+,29.56,1001,,,TRUE,,,,,,,FEW,15000,FEW,20000,BKN,25000,,,VFR,,,,,,,,,,,,METAR,125
KSUS 272154Z 24018G24KT 10SM CLR 07/M06 A3001 RMK AO2 SLP170 T00671056,KSUS,2025-01-27T21:54:00Z,38.6575,-90.6557,6.7,-5.6,240,18,24,10+,30.01,1017,,,TRUE,,,,,,,CLR,,,,,,,,VFR,,,,,,,,,,,,METAR,140
KSLC 272154Z 26004KT 10SM FEW100 02/M07 A3015 RMK AO2 SLP228 T00171072,KSLC,2025-01-27T21:54:00Z,40.7707,-111.965,1.7,-7.2,260,4,,10+,30.15,1022.8,,,TRUE,,,,,,,FEW,10000,,,,,,,VFR,,,,,,,,,,,,METAR,1286
KSJN 272154Z AUTO 23015G23KT 10SM CLR 13/M17 A2991 RMK AO2 PK WND 24029/2138 WSHFT 2112 SLP116 T01281172,KSJN,2025-01-27T21:54:00Z,34.5184,-109.38,12.8,-17.2,230,15,23,10+,29.91,1011.6,,TRUE,TRUE,,,,,,,CLR,,,,,,,,VFR,,,,,,,,,,,,METAR,1747
KSET 272154Z AUTO 24011KT 10SM CLR 06/M06 A3000 RMK AO2 SLP161 T00561056,KSET,2025-01-27T21:54:00Z,38.9304,-90.4329,5.6,-5.6,240,11,,10+,30.00,1016.1,,TRUE,TRUE,,,,,,,CLR,,,,,,,,VFR,,,,,,,,,,,,METAR,133
KSBY 272154Z 18008KT 10SM CLR 06/M07 A2992 RMK AO2 SLP133 T00611067,KSBY,2025-01-27T21:54:00Z,38.3409,-75.5132,6.1,-6.7,180,8,,10+,29.92,1013.3,,,TRUE,,,,,,,CLR,,,,,,,,VFR,,,,,,,,,,,,METAR,14
KSBN 272154Z 23021G35KT 10SM CLR 03/M07 A2972 RMK AO2 PK WND 23035/2153 PRESFR SLP076 T00331072,KSBN,2025-01-27T21:54:00Z,41.7072,-86.3163,3.3,-7.2,230,21,35,10+,29.72,1007.6,,,TRUE,,,,,,,CLR,,,,,,,,VFR,,,,,,,,,,,,METAR,236
KRST 272154Z 31018KT 10SM BKN075 OVC100 03/M10 A2969 RMK AO2 PK WND 28031/2107 SLP069 T00281100,KRST,2025-01-27T21:54:00Z,43.904,-92.4921,2.8,-10,310,18,,10+,29.69,1006.9,,,TRUE,,,,,,,BKN,7500,OVC,10000,,,,,VFR,,,,,,,,,,,,METAR,398
KRSP 272154Z AUTO 24008G18KT 200V270 10SM CLR 03/M12 A2978 RMK AO2 SLP107 T00331122 PWINO $,KRSP,2025-01-27T21:54:00Z,39.646,-77.468,3.3,-12.2,240,8,18,10+,29.78,1010.7,,TRUE,TRUE,TRUE,,,,TRUE,,CLR,,,,,,,,VFR,,,,,,,,,,,,METAR,555
KROC 272154Z 23025G33KT 10SM FEW080 BKN200 01/M12 A2954 RMK AO2 PK WND 24040/2056 SLP012 T00111122 $,KROC,2025-01-27T21:54:00Z,43.1172,-77.6754,1.1,-12.2,230,25,33,10+,29.54,1001.2,,,TRUE,TRUE,,,,,,FEW,8000,BKN,20000,,,,,VFR,,,,,,,,,,,,METAR,166
KROA 272154Z 24008KT 10SM CLR 10/M03 A2992 RMK AO2 SLP136 T01001028,KROA,2025-01-27T21:54:00Z,37.3172,-79.9737,10,-2.8,240,8,,10+,29.92,1013.6,,,TRUE,,,,,,,CLR,,,,,,,,VFR,,,,,,,,,,,,METAR,349
KRKS 272154Z AUTO 00000KT 10SM CLR M04/M12 A3014 RMK AO2 SLP281 T10391122,KRKS,2025-01-27T21:54:00Z,41.5947,-109.053,-3.9,-12.2,0,0,,10+,30.14,1028.1,,TRUE,TRUE,,,,,,,CLR,,,,,,,,VFR,,,,,,,,,,,,METAR,2062
KRIC 272154Z 25009KT 10SM FEW060 12/M02 A2989 RMK AO2 SLP126 T01221022,KRIC,2025-01-27T21:54:00Z,37.5115,-77.3234,12.2,-2.2,250,9,,10+,29.89,1012.6,,,TRUE,,,,,,,FEW,6000,,,,,,,VFR,,,,,,,,,,,,METAR,51
KRFD 272154Z 24018G37KT 10SM BKN100 BKN160 BKN250 07/M12 A2971 RMK AO2 PK WND 25042/2113 SLP070 T00671117,KRFD,2025-01-27T21:54:00Z,42.1915,-89.0876,6.7,-11.7,240,18,37,10+,29.71,1007,,,TRUE,,,,,,,BKN,10000,BKN,16000,BKN,25000,,,VFR,,,,,,,,,,,,METAR,222
KRDG 272154Z 21007KT 10SM CLR 03/M11 A2981 RMK AO2 SLP103 T00331106,KRDG,2025-01-27T21:54:00Z,40.3734,-75.9593,3.3,-10.6,210,7,,10+,29.81,1010.3,,,TRUE,,,,,,,CLR,,,,,,,,VFR,,,,,,,,,,,,METAR,101
KRBL 272154Z AUTO 35013KT 10SM CLR 18/M08 A3015 RMK AO2 SLP208 T01781078 $,KRBL,2025-01-27T21:54:00Z,40.1519,-122.255,17.8,-7.8,350,13,,10+,30.15,1020.8,,TRUE,TRUE,TRUE,,,,,,CLR,,,,,,,,VFR,,,,,,,,,,,,METAR,107
KPTW 272154Z AUTO 23005KT 10SM CLR 04/M13 A2984 RMK AO2 SLP105 T00391133,KPTW,2025-01-27T21:54:00Z,40.238,-75.5549,3.9,-13.3,230,5,,10+,29.84,1010.5,,TRUE,TRUE,,,,,,,CLR,,,,,,,,VFR,,,,,,,,,,,,METAR,88
KPSF 272154Z AUTO 20009G23KT 10SM CLR 00/M11 A2960 RMK AO2 PK WND 22028/2124 SLP038 T00001111,KPSF,2025-01-27T21:54:00Z,42.4268,-73.2891,0,-11.1,200,9,23,10+,29.60,1003.8,,TRUE,TRUE,,,,,,,CLR,,,,,,,,VFR,,,,,,,,,,,,METAR,352
KPNE 272154Z 23008G18KT 10SM CLR 06/M14 A2985 RMK AO2 SLP109 T00611144,KPNE,2025-01-27T21:54:00Z,40.0789,-75.0133,6.1,-14.4,230,8,18,10+,29.85,1010.9,,,TRUE,,,,,,,CLR,,,,,,,,VFR,,,,,,,,,,,,METAR,32
KPIA 272154Z 25015G28KT 10SM CLR 06/M08 A2987 RMK AO2 PK WND 23031/2109 SLP122 T00611078 $,KPIA,2025-01-27T21:54:00Z,40.6675,-89.6842,6.1,-7.8,250,15,28,10+,29.87,1012.2,,,TRUE,TRUE,,,,,,CLR,,,,,,,,VFR,,,,,,,,,,,,METAR,200
KPHL 272154Z 21009KT 10SM CLR 06/M11 A2985 RMK AO2 SLP108 T00611111,KPHL,2025-01-27T21:54:00Z,39.8733,-75.2268,6.1,-11.1,210,9,,10+,29.85,1010.8,,,TRUE,,,,,,,CLR,,,,,,,,VFR,,,,,,,,,,,,METAR,2
KPHF 272154Z 21009KT 10SM CLR 11/M01 A2991 RMK AO2 SLP127 T01111011,KPHF,2025-01-27T21:54:00Z,37.1322,-76.494,11.1,-1.1,210,9,,10+,29.91,1012.7,,,TRUE,,,,,,,CLR,,,,,,,,VFR,,,,,,,,,,,,METAR,12
KORH 272154Z 22013G23KT 10SM CLR 01/M11 A2963 RMK AO2 PK WND 22030/2105 SLP048 T00061111,KORH,2025-01-27T21:54:00Z,42.2706,-71.8731,0.6,-11.1,220,13,23,10+,29.63,1004.8,,,TRUE,,,,,,,CLR,,,,,,,,VFR,,,,,,,,,,,,METAR,306
KOLS 272154Z AUTO 22014G22KT 10SM CLR 16/M04 A3001 RMK AO2 SLP133 T01561044,KOLS,2025-01-27T21:54:00Z,31.4208,-110.847,15.6,-4.4,220,14,22,10+,30.01,1013.3,,TRUE,TRUE,,,,,,,CLR,,,,,,,,VFR,,,,,,,,,,,,METAR,1194
KOLM 272154Z 33004KT 10SM CLR 08/01 A3033 RMK AO2 SLP273 T00780011,KOLM,2025-01-27T21:54:00Z,46.9737,-122.905,7.8,1.1,330,4,,10+,30.33,1027.3,,,TRUE,,,,,,,CLR,,,,,,,,VFR,,,,,,,,,,,,METAR,58
KOFP 272154Z AUTO 26007KT 10SM CLR 12/M04 A2991 RMK AO2 SLP127 T01171044,KOFP,2025-01-27T21:54:00Z,37.7093,-77.4349,11.7,-4.4,260,7,,10+,29.91,1012.7,,TRUE,TRUE,,,,,,,CLR,,,,,,,,VFR,,,,,,,,,,,,METAR,63
KNAK 272154Z AUTO 17008KT 10SM CLR 04/M06 A2988 RMK AO2 SLP120 T00441061,KNAK,2025-01-27T21:54:00Z,38.9913,-76.4891,4.4,-6.1,170,8,,10+,29.88,1012,,TRUE,TRUE,,,,,,,CLR,,,,,,,,VFR,,,,,,,,,,,,METAR,2
KN60 272154Z AUTO 30016G26KT M01/M04 A2988 RMK AO1 PK WND 30026/2146 SLP145 T10111044,KN60,2025-01-27T21:54:00Z,47.654,-101.436,-1.1,-4.4,300,16,26,,29.88,1014.5,,TRUE,TRUE,,,,,,,,,,,,,,,,,,,,,,,,,,,METAR,582
KMVL 272154Z AUTO 19014G23KT 10SM BKN100 OVC110 02/M11 A2942 RMK AO2 SLP972 T00171111,KMVL,2025-01-27T21:54:00Z,44.5328,-72.6152,1.7,-11.1,190,14,23,10+,29.42,997.2,,TRUE,TRUE,,,,,,,BKN,10000,OVC,11000,,,,,VFR,,,,,,,,,,,,METAR,226
KMTP 272154Z AUTO 23007G15KT 200V260 03/M06 A2981 RMK AO1 SLP094 T00331056,KMTP,2025-01-27T21:54:00Z,41.073,-71.9235,3.3,-5.6,230,7,15,,29.81,1009.4,,TRUE,TRUE,,,,,,,,,,,,,,,,,,,,,,,,,,,METAR,2
KMRY 272154Z 30006KT 10SM CLR 13/M03 A3014 RMK AO2 SLP220 T01331028,KMRY,2025-01-27T21:54:00Z,36.5904,-121.849,13.3,-2.8,300,6,,10+,30.14,1022,,,TRUE,,,,,,,CLR,,,,,,,,VFR,,,,,,,,,,,,METAR,51
KMOT 272154Z 25011KT 10SM CLR 01/M04 A2985 RMK AO2 SLP129 T00111039,KMOT,2025-01-27T21:54:00Z,48.252,-101.269,1.1,-3.9,250,11,,10+,29.85,1012.9,,,TRUE,,,,,,,CLR,,,,,,,,VFR,,,,,,,,,,,,METAR,507
KMKC 272154Z 23017G26KT 10SM CLR 08/M06 A3003 RMK AO2 PK WND 25027/2139 SLP174 T00781056,KMKC,2025-01-27T21:54:00Z,39.1279,-94.5892,7.8,-5.6,230,17,26,10+,30.03,1017.4,,,TRUE,,,,,,,CLR,,,,,,,,VFR,,,,,,,,,,,,METAR,228
KMIV 272154Z AUTO VRB03KT 10SM CLR 03/M10 A2988 RMK AO2 SLP119 T00331100,KMIV,2025-01-27T21:54:00Z,39.3662,-75.0778,3.3,-10,VRB,3,,10+,29.88,1011.9,,TRUE,TRUE,,,,,,,CLR,,,,,,,,VFR,,,,,,,,,,,,METAR,18
KMGJ 272154Z AUTO 22015KT 10SM CLR 00/M11 A2972 RMK AO2 PK WND 21027/2111 SLP071 T00001106,KMGJ,2025-01-27T21:54:00Z,41.509,-74.2645,0,-10.6,220,15,,10+,29.72,1007.1,,TRUE,TRUE,,,,,,,CLR,,,,,,,,VFR,,,,,,,,,,,,METAR,106
KMFI 272154Z AUTO 28013G24KT 10SM FEW034 SCT050 SCT095 01/M06 A2956 RMK AO2 PK WND 28031/2137 SLP026 T00111061,KMFI,2025-01-27T21:54:00Z,44.6379,-90.1875,1.1,-6.1,280,13,24,10+,29.56,1002.6,,TRUE,TRUE,,,,,,,FEW,3400,SCT,5000,SCT,9500,,,VFR,,,,,,,,,,,,METAR,383
KMEM 272154Z 31004KT 10SM CLR 09/M08 A3016 RMK AO2 SLP213 T00891078 $,KMEM,2025-01-27T21:54:00Z,35.0564,-89.9864,8.9,-7.8,310,4,,10+,30.16,1021.3,,,TRUE,TRUE,,,,,,CLR,,,,,,,,VFR,,,,,,,,,,,,METAR,78
KLYH 272154Z 22004KT 10SM CLR 11/M03 A2990 RMK AO2 SLP126 T01061028,KLYH,2025-01-27T21:54:00Z,37.3213,-79.2065,10.6,-2.8,220,4,,10+,29.90,1012.6,,,TRUE,,,,,,,CLR,,,,,,,,VFR,,,,,,,,,,,,METAR,282
KLWT 272154Z AUTO 23005KT 10SM CLR 01/M06 A3009 RMK AO2 SLP230 T00061061,KLWT,2025-01-27T21:54:00Z,47.0544,-109.457,0.6,-6.1,230,5,,10+,30.09,1023,,TRUE,TRUE,,,,,,,CLR,,,,,,,,VFR,,,,,,,,,,,,METAR,1254
KLWM 272154Z 21013G22KT 10SM CLR 02/M11 A2966 RMK AO2 PK WND 20026/2131 SLP044 T00221106,KLWM,2025-01-27T21:54:00Z,42.7125,-71.1256,2.2,-10.6,210,13,22,10+,29.66,1004.4,,,TRUE,,,,,,,CLR,,,,,,,,VFR,,,,,,,,,,,,METAR,42
KLNK 272154Z AUTO 28013G25KT 10SM CLR 13/M12 A2991 RMK AO2 PK WND 27028/2127 SLP136 T01331122,KLNK,2025-01-27T21:54:00Z,40.8478,-96.7647,13.3,-12.2,280,13,25,10+,29.91,1013.6,,TRUE,TRUE,,,,,,,CLR,,,,,,,,VFR,,,,,,,,,,,,METAR,357
KLEX 272154Z 24009KT 10SM CLR 05/M09 A3000 RMK AO2 SLP165 T00501094,KLEX,2025-01-27T21:54:00Z,38.0339,-84.6114,5,-9.4,240,9,,10+,30.00,1016.5,,,TRUE,,,,,,,CLR,,,,,,,,VFR,,,,,,,,,,,,METAR,294
KLAF 272154Z 23011G22KT 10SM CLR 03/M06 A2987 RMK AO2 PK WND 21031/2101 SLP123 T00331061,KLAF,2025-01-27T21:54:00Z,40.4124,-86.9474,3.3,-6.1,230,11,22,10+,29.87,1012.3,,,TRUE,,,,,,,CLR,,,,,,,,VFR,,,,,,,,,,,,METAR,182
KJST 272154Z AUTO 23014G21KT 10SM CLR M01/M14 A2974 RMK AO2 PK WND 23027/2120 SLP101 T10111139,KJST,2025-01-27T21:54:00Z,40.3149,-78.8307,-1.1,-13.9,230,14,21,10+,29.74,1010.1,,TRUE,TRUE,,,,,,,CLR,,,,,,,,VFR,,,,,,,,,,,,METAR,695
KJAN 272154Z 33005KT 9SM OVC005 08/07 A3018 RMK AO2 SLP220 T00830072 $,KJAN,2025-01-27T21:54:00Z,32.3198,-90.0778,8.3,7.2,330,5,,9,30.18,1022,,,TRUE,TRUE,,,,,,OVC,500,,,,,,,IFR,,,,,,,,,,,,METAR,92
KIZG 272154Z AUTO 10SM CLR 03/M12 A2950 RMK AO2 SLP995 T00281122,KIZG,2025-01-27T21:54:00Z,43.9899,-70.9501,2.8,-12.2,,,,10+,29.50,999.5,,TRUE,TRUE,,,,,,,CLR,,,,,,,,VFR,,,,,,,,,,,,METAR,138
KIPT 272154Z 24012G20KT 10SM CLR 04/M16 A2975 RMK AO2 SLP082 T00391156,KIPT,2025-01-27T21:54:00Z,41.243,-76.9217,3.9,-15.6,240,12,20,10+,29.75,1008.2,,,TRUE,,,,,,,CLR,,,,,,,,VFR,,,,,,,,,,,,METAR,160
KINT 272154Z 23003KT 10SM OVC055 11/02 A2995 RMK AO2 SLP142 T01060017,KINT,2025-01-27T21:54:00Z,36.1335,-80.2244,10.6,1.7,230,3,,10+,29.95,1014.2,,,TRUE,,,,,,,OVC,5500,,,,,,,VFR,,,,,,,,,,,,METAR,292
KINL 272154Z AUTO 33011G21KT 10SM BKN048 OVC055 M02/M10 A2961 RMK AO2 SLP046 T10221100,KINL,2025-01-27T21:54:00Z,48.5594,-93.3955,-2.2,-10,330,11,21,10+,29.61,1004.6,,TRUE,TRUE,,,,,,,BKN,4800,OVC,5500,,,,,VFR,,,,,,,,,,,,METAR,353
KIND 272154Z 23021G29KT 10SM CLR 02/M09 A2993 RMK AO2 PK WND 23029/2115 SLP144 T00221094,KIND,2025-01-27T21:54:00Z,39.7252,-86.2816,2.2,-9.4,230,21,29,10+,29.93,1014.4,,,TRUE,,,,,,,CLR,,,,,,,,VFR,,,,,,,,,,,,METAR,242
KIMT 272154Z AUTO 30015G27KT 260V330 10SM OVC033 00/M07 A2942 RMK AO2 PK WND 29028/2122 SLP977 T00001072,KIMT,2025-01-27T21:54:00Z,45.8134,-88.1129,0,-7.2,300,15,27,10+,29.42,997.7,,TRUE,TRUE,,,,,,,OVC,3300,,,,,,,VFR,,,,,,,,,,,,METAR,343
KILN 272154Z AUTO 24016KT 10SM CLR 01/M11 A2991 RMK AO2 SLP162 T00111106,KILN,2025-01-27T21:54:00Z,39.4308,-83.777,1.1,-10.6,240,16,,10+,29.91,1016.2,,TRUE,TRUE,,,,,,,CLR,,,,,,,,VFR,,,,,,,,,,,,METAR,325
KIGM 272154Z AUTO 13009KT 10SM BKN027 OVC033 04/00 A3002 RMK AO2 T00390000,KIGM,2025-01-27T21:54:00Z,35.2575,-113.934,3.9,0,130,9,,10+,30.02,,,TRUE,TRUE,,,,,,,BKN,2700,OVC,3300,,,,,MVFR,,,,,,,,,,,,SPECI,1045
KHWD 272154Z 25005KT 10SM CLR 15/M04 A3014 RMK AO2 SLP215 T01501039,KHWD,2025-01-27T21:54:00Z,37.6589,-122.121,15,-3.9,250,5,,10+,30.14,1021.5,,,TRUE,,,,,,,CLR,,,,,,,,VFR,,,,,,,,,,,,METAR,9
KGSO 272154Z 23004KT 10SM BKN060 BKN075 BKN250 09/02 A2993 RMK AO2 SLP138 T00940022,KGSO,2025-01-27T21:54:00Z,36.0969,-79.9432,9.4,2.2,230,4,,10+,29.93,1013.8,,,TRUE,,,,,,,BKN,6000,BKN,7500,BKN,25000,,,VFR,,,,,,,,,,,,METAR,275
KGED 272154Z AUTO VRB04KT 10SM CLR 08/M06 A2990 RMK AO2 SLP126 T00781056,KGED,2025-01-27T21:54:00Z,38.6898,-75.3625,7.8,-5.6,VRB,4,,10+,29.90,1012.6,,TRUE,TRUE,,,,,,,CLR,,,,,,,,VFR,,,,,,,,,,,,METAR,15
KGCK 272154Z 27013KT 10SM CLR 12/M07 A3002 RMK AO2 SLP181 T01221067,KGCK,2025-01-27T21:54:00Z,37.9221,-100.723,12.2,-6.7,270,13,,10+,30.02,1018.1,,,TRUE,,,,,,,CLR,,,,,,,,VFR,,,,,,,,,,,,METAR,877
KFZY 272154Z AUTO 20012G24KT 10SM CLR 02/M13 A2953 RMK AO2 PK WND 22026/2101 SLP004 T00221133,KFZY,2025-01-27T21:54:00Z,43.3504,-76.3831,2.2,-13.3,200,12,24,10+,29.53,1000.4,,TRUE,TRUE,,,,,,,CLR,,,,,,,,VFR,,,,,,,,,,,,METAR,143
KFWA 272154Z 23021G33KT 10SM FEW250 03/M08 A2978 RMK AO2 PK WND 24035/2123 SLP095 T00281078,KFWA,2025-01-27T21:54:00Z,40.9725,-85.2064,2.8,-7.8,230,21,33,10+,29.78,1009.5,,,TRUE,,,,,,,FEW,25000,,,,,,,VFR,,,,,,,,,,,,METAR,243
KFIG 272154Z AUTO 24011G24KT 10SM CLR 01/M13 A2975 RMK AO2 PK WND 25026/2142 SLP092 T00061128,KFIG,2025-01-27T21:54:00Z,41.0465,-78.4112,0.6,-12.8,240,11,24,10+,29.75,1009.2,,TRUE,TRUE,,,,,,,CLR,,,,,,,,VFR,,,,,,,,,,,,METAR,461
KFFZ 272154Z AUTO 00000KT 10SM 15/01 A3000 RMK AO2 SLP148 T01500006,KFFZ,2025-01-27T21:54:00Z,33.4659,-111.721,15,0.6,0,0,,10+,30.00,1014.8,,TRUE,TRUE,,,,,,,,,,,,,,,VFR,,,,,,,,,,,,METAR,420
KEWN 272154Z 20007KT 8SM -RA OVC006 08/07 A3002 RMK AO2 SLP166 P0003 T00780067,KEWN,2025-01-27T21:54:00Z,35.0684,-77.0478,7.8,6.7,200,7,,8,30.02,1016.6,,,TRUE,,,,,,-RA,OVC,600,,,,,,,IFR,,,,,,0.03,,,,,,METAR,3
KEVV 272154Z AUTO 25007KT 10SM CLR 04/M09 A3008 RMK AO2 SLP188 T00441089 $,KEVV,2025-01-27T21:54:00Z,38.0502,-87.5147,4.4,-8.9,250,7,,10+,30.08,1018.8,,TRUE,TRUE,TRUE,,,,,,CLR,,,,,,,,VFR,,,,,,,,,,,,METAR,123
KEUG 272154Z 33005KT 10SM CLR 08/M04 A3028 RMK AO2 SLP257 T00781039,KEUG,2025-01-27T21:54:00Z,44.1331,-123.216,7.8,-3.9,330,5,,10+,30.28,1025.7,,,TRUE,,,,,,,CLR,,,,,,,,VFR,,,,,,,,,,,,METAR,109
KEFD 272154Z 03008KT 7SM OVC015 14/11 A3014,KEFD,2025-01-27T21:54:00Z,29.606,-95.16,14,11,30,8,,7,30.14,,,,,,,,,,,OVC,1500,,,,,,,MVFR,,,,,,,,,,,,METAR,9
KECG 272154Z 21012KT 10SM FEW090 SCT120 09/06 A2997 RMK AO2 SLP147 T00890061,KECG,2025-01-27T21:54:00Z,36.2571,-76.1716,8.9,6.1,210,12,,10+,29.97,1014.7,,,TRUE,,,,,,,FEW,9000,SCT,12000,,,,,VFR,,,,,,,,,,,,METAR,2
KDYL 272154Z AUTO 24005KT 10SM CLR 04/M13 A2981 RMK AO2 SLP101 T00441128,KDYL,2025-01-27T21:54:00Z,40.3302,-75.1228,4.4,-12.8,240,5,,10+,29.81,1010.1,,TRUE,TRUE,,,,,,,CLR,,,,,,,,VFR,,,,,,,,,,,,METAR,121
KDSV 272154Z AUTO 19007KT 160V230 10SM CLR 03/M16 A2962 RMK AO2 SLP045 T00331161,KDSV,2025-01-27T21:54:00Z,42.5699,-77.7142,3.3,-16.1,190,7,,10+,29.62,1004.5,,TRUE,TRUE,,,,,,,CLR,,,,,,,,VFR,,,,,,,,,,,,METAR,195
KDSM 272154Z 25020G26KT 10SM FEW120 SCT160 SCT200 10/M14 A2982 RMK AO2 PK WND 25032/2101 SLP106 T01001144,KDSM,2025-01-27T21:54:00Z,41.534,-93.6531,10,-14.4,250,20,26,10+,29.82,1010.6,,,TRUE,,,,,,,FEW,12000,SCT,16000,SCT,20000,,,VFR,,,,,,,,,,,,METAR,286
KDEC 272154Z COR 23016G28KT 10SM CLR 04/M06 A2992,KDEC,2025-01-27T21:54:00Z,39.8308,-88.8719,4,-6,230,16,28,10+,29.92,,TRUE,,,,,,,,,CLR,,,,,,,,VFR,,,,,,,,,,,,METAR,205
KDDH 272154Z AUTO 19011G20KT 10SM CLR 01/M11 A2959 RMK AO2 SLP029 T00111111,KDDH,2025-01-27T21:54:00Z,42.8935,-73.2488,1.1,-11.1,190,11,20,10+,29.59,1002.9,,TRUE,TRUE,,,,,,,CLR,,,,,,,,VFR,,,,,,,,,,,,METAR,241
KCRW 272154Z 26007KT 10SM CLR 07/M12 A2994 RMK AO2 SLP142 T00671117,KCRW,2025-01-27T21:54:00Z,38.3795,-81.5911,6.7,-11.7,260,7,,10+,29.94,1014.2,,,TRUE,,,,,,,CLR,,,,,,,,VFR,,,,,,,,,,,,METAR,278
KCOU 272154Z 25014G24KT 10SM CLR 07/M06 A3003 RMK AO2 PK WND 25027/2137 SLP175 T00671056,KCOU,2025-01-27T21:54:00Z,38.8171,-92.2148,6.7,-5.6,250,14,24,10+,30.03,1017.5,,,TRUE,,,,,,,CLR,,,,,,,,VFR,,,,,,,,,,,,METAR,272
KCOS 272154Z 00000KT 10SM FEW100 08/M06 A3004 RMK AO2 SLP206 T00831056 $,KCOS,2025-01-27T21:54:00Z,38.8095,-104.689,8.3,-5.6,0,0,,10+,30.04,1020.6,,,TRUE,TRUE,,,,,,FEW,10000,,,,,,,VFR,,,,,,,,,,,,METAR,1886
KCEU 272154Z AUTO 24008KT 10SM OVC012 09/08 A2998 RMK AO2 SLP154 T00940083,KCEU,2025-01-27T21:54:00Z,34.6722,-82.8814,9.4,8.3,240,8,,10+,29.98,1015.4,,TRUE,TRUE,,,,,,,OVC,1200,,,,,,,MVFR,,,,,,,,,,,,METAR,270
KCAR 272154Z AUTO 19012G25KT 10SM OVC055 M02/M11 A2926 RMK AO2 PK WND 19032/2112 SLP920 T10171106,KCAR,2025-01-27T21:54:00Z,46.8705,-68.0172,-1.7,-10.6,190,12,25,10+,29.26,992,,TRUE,TRUE,,,,,,,OVC,5500,,,,,,,VFR,,,,,,,,,,,,METAR,189
KBWI 272154Z 21004KT 10SM CLR 08/M07 A2986 RMK AO2 SLP112 T00831072,KBWI,2025-01-27T21:54:00Z,39.1733,-76.684,8.3,-7.2,210,4,,10+,29.86,1011.2,,,TRUE,,,,,,,CLR,,,,,,,,VFR,,,,,,,,,,,,METAR,42
KBUY 272154Z AUTO 18005KT 10SM OVC060 10/03 A2994 RMK AO2 SLP141 T01000033,KBUY,2025-01-27T21:54:00Z,36.0475,-79.4737,10,3.3,180,5,,10+,29.94,1014.1,,TRUE,TRUE,,,,,,,OVC,6000,,,,,,,VFR,,,,,,,,,,,,METAR,185
KBUF 272154Z 22023G38KT 10SM FEW080 FEW140 BKN280 00/M13 A2955 RMK AO2 PK WND 21045/2116 SLP016 T00001128,KBUF,2025-01-27T21:54:00Z,42.94,-78.7361,0,-12.8,220,23,38,10+,29.55,1001.6,,,TRUE,,,,,,,FEW,8000,FEW,14000,BKN,28000,,,VFR,,,,,,,,,,,,METAR,217
KBTV 272154Z 20016G26KT 10SM FEW110 BKN130 03/M11 A2943 RMK AO2 PK WND 21030/2106 SLP968 T00281106,KBTV,2025-01-27T21:54:00Z,44.4683,-73.1499,2.8,-10.6,200,16,26,10+,29.43,996.8,,,TRUE,,,,,,,FEW,11000,BKN,13000,,,,,VFR,,,,,,,,,,,,METAR,101
KBOS 272154Z 21020G26KT 10SM FEW130 SCT220 03/M09 A2969 RMK AO2 PK WND 23029/2107 SLP053 T00281094,KBOS,2025-01-27T21:54:00Z,42.3606,-71.0097,2.8,-9.4,210,20,26,10+,29.69,1005.3,,,TRUE,,,,,,,FEW,13000,SCT,22000,,,,,VFR,,,,,,,,,,,,METAR,4
KBFL 272154Z 10SM SCT036 12/04 A3014 RMK AO2 SLP207 T01220039,KBFL,2025-01-27T21:54:00Z,35.4342,-119.055,12.2,3.9,,,,10+,30.14,1020.7,,,TRUE,,,,,,,SCT,3600,,,,,,,VFR,,,,,,,,,,,,METAR,146
KAVP 272154Z 20011G25KT 10SM CLR 01/M13 A2972 RMK AO2 PK WND 21030/2115 SLP073 T00061128,KAVP,2025-01-27T21:54:00Z,41.3335,-75.7227,0.6,-12.8,200,11,25,10+,29.72,1007.3,,,TRUE,,,,,,,CLR,,,,,,,,VFR,,,,,,,,,,,,METAR,290
KAVL 272154Z 36010G17KT 10SM FEW039 OVC060 07/03 A2996 RMK AO2 SLP145 T00720028,KAVL,2025-01-27T21:54:00Z,35.4318,-82.5379,7.2,2.8,360,10,17,10+,29.96,1014.5,,,TRUE,,,,,,,FEW,3900,OVC,6000,,,,,VFR,,,,,,,,,,,,METAR,646
KAUW 272154Z AUTO 26014G27KT 10SM CLR M01/M07 A2952 RMK AO2 PK WND 28038/2119 SLP015 T10061072,KAUW,2025-01-27T21:54:00Z,44.9265,-89.6248,-0.6,-7.2,260,14,27,10+,29.52,1001.5,,TRUE,TRUE,,,,,,,CLR,,,,,,,,VFR,,,,,,,,,,,,METAR,367
KAPN 272154Z AUTO 26017G27KT 1 1/4SM -SN FEW022 BKN028 OVC035 00/M03 A2934 RMK AO2 PK WND 24035/2105 SNB08 SLP942 P0000 T00001028,KAPN,2025-01-27T21:54:00Z,45.0716,-83.5645,0,-2.8,260,17,27,1.25,29.34,994.2,,TRUE,TRUE,,,,,,-SN,FEW,2200,BKN,2800,OVC,3500,,,IFR,,,,,,0.005,,,,,,METAR,208
KAPC 272154Z 19007KT 10SM CLR 16/01 A3013 RMK AO2 SLP193 T01560011,KAPC,2025-01-27T21:54:00Z,38.2075,-122.28,15.6,1.1,190,7,,10+,30.13,1019.3,,,TRUE,,,,,,,CLR,,,,,,,,VFR,,,,,,,,,,,,METAR,5
KALO 272154Z 28016G27KT 10SM OVC090 08/M13 A2975 RMK AO2 PK WND 27030/2057 SLP084 T00831128,KALO,2025-01-27T21:54:00Z,42.5544,-92.4013,8.3,-12.8,280,16,27,10+,29.75,1008.4,,,TRUE,,,,,,,OVC,9000,,,,,,,VFR,,,,,,,,,,,,METAR,264
KAKR 272154Z AUTO 23020G29KT 10SM CLR M01/M13 A2978 RMK AO2 PK WND 23029/2147 SLP097 T10061133,KAKR,2025-01-27T21:54:00Z,41.0373,-81.4634,-0.6,-13.3,230,20,29,10+,29.78,1009.7,,TRUE,TRUE,,,,,,,CLR,,,,,,,,VFR,,,,,,,,,,,,METAR,319
KAKH 272154Z AUTO 00000KT 1/2SM FG OVC002 08/07 A2996 RMK AO2 SLP148 T00780072,KAKH,2025-01-27T21:54:00Z,35.1968,-81.1555,7.8,7.2,0,0,,0.5,29.96,1014.8,,TRUE,TRUE,,,,,,FG,OVC,200,,,,,,,LIFR,,,,,,,,,,,,METAR,242
KACY 272154Z 21006KT 10SM CLR 06/M13 A2988 RMK AO2 SLP117 T00561133 $,KACY,2025-01-27T21:54:00Z,39.452,-74.567,5.6,-13.3,210,6,,10+,29.88,1011.7,,,TRUE,TRUE,,,,,,CLR,,,,,,,,VFR,,,,,,,,,,,,METAR,18
KAAO 272154Z AUTO 23015KT 10SM CLR 08/M05 A3009 RMK AO2 SLP203 T00781050,KAAO,2025-01-27T21:54:00Z,37.7496,-97.2191,7.8,-5,230,15,,10+,30.09,1020.3,,TRUE,TRUE,,,,,,,CLR,,,,,,,,VFR,,,,,,,,,,,,METAR,429
K1V4 272154Z AUTO 02/M12 A2944 RMK AO1 SLP979 T00171117,K1V4,2025-01-27T21:54:00Z,44.42,-72.019,1.7,-11.7,,,,,29.44,997.9,,TRUE,TRUE,,,,,,,,,,,,,,,,,,,,,,,,,,,METAR,213
TISX 272153Z 08012KT 10SM FEW023 SCT030 27/22 A2999 RMK AO2 SLP154 T02670222 $,TISX,2025-01-27T21:53:00Z,17.6997,-64.8126,26.7,22.2,80,12,,10+,29.99,1015.4,,,TRUE,TRUE,,,,,,FEW,2300,SCT,3000,,,,,VFR,,,,,,,,,,,,METAR,16
TIST 272153Z AUTO 09013G20KT 10SM FEW027 FEW031 BKN060 27/21 A2999 RMK AO2 SLP156 T02670211 $,TIST,2025-01-27T21:53:00Z,18.3362,-64.9799,26.7,21.1,90,13,20,10+,29.99,1015.6,,TRUE,TRUE,TRUE,,,,,,FEW,2700,FEW,3100,BKN,6000,,,VFR,,,,,,,,,,,,METAR,5
PTTP 272153Z 05009KT 15SM BKN017TCU BKN130 OVC300 29/24 A2986 RMK TCU E-SE SLP110 T02900243,PTTP,2025-01-27T21:53:00Z,6.96,158.21,29,24.3,50,9,,15,29.86,1011,,,,,,,,,,BKN,1700,BKN,13000,OVC,30000,,,MVFR,,,,,,,,,,,,METAR,36
PHTO 272153Z 11007KT 10SM FEW031 SCT039 26/20 A2999 RMK AO2 SLP154 T02610200,PHTO,2025-01-27T21:53:00Z,19.7191,-155.049,26.1,20,110,7,,10+,29.99,1015.4,,,TRUE,,,,,,,FEW,3100,SCT,3900,,,,,VFR,,,,,,,,,,,,METAR,9
PHNL 272153Z 07009KT 10SM FEW024 SCT035 BKN070 26/19 A3004 RMK AO2 SLP173 VCSH NE T02560189 PNO VISNO RWY04R $,PHNL,2025-01-27T21:53:00Z,21.3151,-157.924,25.6,18.9,70,9,,10+,30.04,1017.3,,,TRUE,TRUE,,,,,,FEW,2400,SCT,3500,BKN,7000,,,VFR,,,,,,,,,,,,METAR,2
PHLI 272153Z 02015KT 10SM FEW033 SCT050 24/17 A3008 RMK AO2 SLP183 T02440172,PHLI,2025-01-27T21:53:00Z,21.9805,-159.339,24.4,17.2,20,15,,10+,30.08,1018.3,,,TRUE,,,,,,,FEW,3300,SCT,5000,,,,,VFR,,,,,,,,,,,,METAR,32
PHKO 272153Z 18017KT 10SM SCT075 27/19 A3001 RMK AO2 RAE53 SLP162 P0000 T02720189,PHKO,2025-01-27T21:53:00Z,19.7378,-156.048,27.2,18.9,180,17,,10+,30.01,1016.2,,,TRUE,,,,,,,SCT,7500,,,,,,,VFR,,,,,,0.005,,,,,,METAR,11
PHJR 272153Z 02008KT 10SM FEW070 SCT085 28/18 A3004 RMK AO2 SLP178 T02780183,PHJR,2025-01-27T21:53:00Z,21.312,-158.07,27.8,18.3,20,8,,10+,30.04,1017.8,,,TRUE,,,,,,,FEW,7000,SCT,8500,,,,,VFR,,,,,,,,,,,,METAR,9
PGRO 272153Z 09007KT 7SM SCT014 BKN080 26/23 A2991,PGRO,2025-01-27T21:53:00Z,14.172,145.24,26,23,90,7,,7,29.91,,,,,,,,,,,SCT,1400,BKN,8000,,,,,VFR,,,,,,,,,,,,METAR,181
PAYA 272153Z AUTO 24011KT 10SM FEW034 BKN055 OVC120 07/M02 A3017 RMK AO2 SLP217 T00671022 TSNO,PAYA,2025-01-27T21:53:00Z,59.512,-139.671,6.7,-2.2,240,11,,10+,30.17,1021.7,,TRUE,TRUE,,,TRUE,,,,FEW,3400,BKN,5500,OVC,12000,,,VFR,,,,,,,,,,,,METAR,9
PAWD 272153Z AUTO 17018G27KT 10SM FEW065 03/M05 A2985 RMK AO2 PK WND 18029/2130 SLP110 T00281050 TSNO,PAWD,2025-01-27T21:53:00Z,60.129,-149.418,2.8,-5,170,18,27,10+,29.85,1011,,TRUE,TRUE,,,TRUE,,,,FEW,6500,,,,,,,VFR,,,,,,,,,,,,METAR,3
PATO 272153Z AUTO VRB04KT 10SM SCT055 BKN070 OVC090 02/M02 A2982 RMK AO2 SLP099 T00171022 TSNO,PATO,2025-01-27T21:53:00Z,60.783,-148.843,1.7,-2.2,VRB,4,,10+,29.82,1009.9,,TRUE,TRUE,,,TRUE,,,,SCT,5500,BKN,7000,OVC,9000,,,VFR,,,,,,,,,,,,METAR,47
PASN 272153Z AUTO 00000KT 10SM CLR M07/M08 A3008 RMK AO2 SNE36 SLP189 P0001 T10721078 TSNO $,PASN,2025-01-27T21:53:00Z,57.155,-170.223,-7.2,-7.8,0,0,,10+,30.08,1018.9,,TRUE,TRUE,TRUE,,TRUE,,,,CLR,,,,,,,,VFR,,,,,,0.01,,,,,,METAR,8
PASI 272153Z 24007KT 9SM -RA SCT005 BKN011 OVC034 07/04 A3034 RMK AO2 SLP275 P0000 T00720039 $,PASI,2025-01-27T21:53:00Z,57.047,-135.364,7.2,3.9,240,7,,9,30.34,1027.5,,,TRUE,TRUE,,,,,-RA,SCT,500,BKN,1100,OVC,3400,,,MVFR,,,,,,0.005,,,,,,METAR,2
PASC 272153Z 08008KT 7SM BKN080 M19/M22 A2963 RMK AO2 SLP034 T11941222 $,PASC,2025-01-27T21:53:00Z,70.191,-148.48,-19.4,-22.2,80,8,,7,29.63,1003.4,,,TRUE,TRUE,,,,,,BKN,8000,,,,,,,VFR,,,,,,,,,,,,METAR,17
PAQT 272153Z AUTO 04007KT 8SM OVC080 M18/M21 A2965 RMK AO2 SLP043 T11831211 TSNO $,PAQT,2025-01-27T21:53:00Z,70.213,-150.994,-18.3,-21.1,40,7,,8,29.65,1004.3,,TRUE,TRUE,TRUE,,TRUE,,,,OVC,8000,,,,,,,VFR,,,,,,,,,,,,METAR,11
PAPB 272153Z AUTO A3010 RMK AO2 SLPNO PWINO FZRANO TSNO $,PAPB,2025-01-27T21:53:00Z,56.576,-169.663,,,,,,,30.10,,,TRUE,TRUE,TRUE,,TRUE,TRUE,TRUE,,,,,,,,,,,,,,,,,,,,,,METAR,33
PAOR 272153Z 18008KT 10SM FEW065 SCT100 02/M09 A2961 RMK AO2 SLP061 T00171094 $,PAOR,2025-01-27T21:53:00Z,62.962,-141.938,1.7,-9.4,180,8,,10+,29.61,1006.1,,,TRUE,TRUE,,,,,,FEW,6500,SCT,10000,,,,,VFR,,,,,,,,,,,,METAR,524
PANC 272153Z 20016G31KT 10SM FEW060 OVC140 M02/M09 A2982 RMK AO2 PK WND 20032/2054 SLP102 T10221094,PANC,2025-01-27T21:53:00Z,61.1691,-150.028,-2.2,-9.4,200,16,31,10+,29.82,1010.2,,,TRUE,,,,,,,FEW,6000,OVC,14000,,,,,VFR,,,,,,,,,,,,METAR,39
PAMR 272153Z 17015G28KT 10SM FEW038 SCT090 BKN110 M02/M08 A2987 RMK AO2 PK WND 18034/2124 SNB2059E46 SLP116 P0000 T10221078 $,PAMR,2025-01-27T21:53:00Z,61.215,-149.85,-2.2,-7.8,170,15,28,10+,29.87,1011.6,,,TRUE,TRUE,,,,,,FEW,3800,SCT,9000,BKN,11000,,,VFR,,,,,,0.005,,,,,,METAR,43
PALH 272153Z AUTO 10SM CLR M02/M09 A2985 RMK AO2 PK WND 19032/2111 SLP110 T10221089 TSNO,PALH,2025-01-27T21:53:00Z,61.179,-149.962,-2.2,-8.9,,,,10+,29.85,1011,,TRUE,TRUE,,,TRUE,,,,CLR,,,,,,,,VFR,,,,,,,,,,,,METAR,26
PAKW 272153Z AUTO 00000KT 3SM -RA BR FEW008 OVC016 04/03 A3038 RMK AO2 SLP288 P0003 T00440028 TSNO,PAKW,2025-01-27T21:53:00Z,55.582,-133.075,4.4,2.8,0,0,,3,30.38,1028.8,,TRUE,TRUE,,,TRUE,,,-RA BR,FEW,800,OVC,1600,,,,,MVFR,,,,,,0.03,,,,,,METAR,7
PAKV 272153Z AUTO 22011G19KT 190V260 5SM HZ OVC033 M17/M21 A2968 RMK AO2 SLP056 T11721206 TSNO $,PAKV,2025-01-27T21:53:00Z,64.321,-158.732,-17.2,-20.6,220,11,19,5,29.68,1005.6,,TRUE,TRUE,TRUE,,TRUE,,,HZ,OVC,3300,,,,,,,MVFR,,,,,,,,,,,,METAR,53
PAKT 272153Z 14004KT 3SM BR OVC007 02/02 A3044 RMK AO2 SLP310 HARBOR WIND 14005KT T00220017,PAKT,2025-01-27T21:53:00Z,55.3592,-131.722,2.2,1.7,140,4,,3,30.44,1031,,,TRUE,,,,,,BR,OVC,700,,,,,,,IFR,,,,,,,,,,,,METAR,27
PAJN 272153Z COR 07007KT 10SM FEW009 BKN033 OVC039 04/02 A3029 RMK AO2 SLP255 VCSH NE-SE T00390017,PAJN,2025-01-27T21:53:00Z,58.354,-134.556,3.9,1.7,70,7,,10+,30.29,1025.5,TRUE,,TRUE,,,,,,,FEW,900,BKN,3300,OVC,3900,,,VFR,,,,,,,,,,,,METAR,6
PAIL 272153Z 26012G19KT 10SM FEW021 M11/M16 A2998 RMK AO2 SLP158 T11061156,PAIL,2025-01-27T21:53:00Z,59.7492,-154.909,-10.6,-15.6,260,12,19,10+,29.98,1015.8,,,TRUE,,,,,,,FEW,2100,,,,,,,VFR,,,,,,,,,,,,METAR,44
PAHO 272153Z 25011G18KT 9SM -SN OVC036 M01/M08 A2996 RMK AO2 SLP145 P0000 T10111083,PAHO,2025-01-27T21:53:00Z,59.642,-151.491,-1.1,-8.3,250,11,18,9,29.96,1014.5,,,TRUE,,,,,,-SN,OVC,3600,,,,,,,VFR,,,,,,0.005,,,,,,METAR,6
PAGY 272153Z AUTO 21024G35KT 10SM SCT047 06/01 A3008 RMK AO2 PK WND 20036/2126 SLP187 T00560006 TSNO,PAGY,2025-01-27T21:53:00Z,59.457,-135.322,5.6,0.6,210,24,35,10+,30.08,1018.7,,TRUE,TRUE,,,TRUE,,,,SCT,4700,,,,,,,VFR,,,,,,,,,,,,METAR,7
PAGK 272153Z AUTO 16017G30KT 10SM CLR M01/M05 A2974 RMK AO2 PK WND 16033/2100 SLP094 T10061050 TSNO,PAGK,2025-01-27T21:53:00Z,62.1592,-145.459,-0.6,-5,160,17,30,10+,29.74,1009.4,,TRUE,TRUE,,,TRUE,,,,CLR,,,,,,,,VFR,,,,,,,,,,,,METAR,481
PAFA 272153Z 20007KT 10SM FEW085 SCT120 BKN160 M01/M05 A2953 RMK AO2 SLP008 T10111050,PAFA,2025-01-27T21:53:00Z,64.8031,-147.876,-1.1,-5,200,7,,10+,29.53,1000.8,,,TRUE,,,,,,,FEW,8500,SCT,12000,BKN,16000,,,VFR,,,,,,,,,,,,METAR,130
PAEN 272153Z 20030G38KT 10SM FEW042 BKN060 M04/M11 A2987 RMK AO2 PK WND 19044/2131 SLP116 T10391106,PAEN,2025-01-27T21:53:00Z,60.579,-151.242,-3.9,-10.6,200,30,38,10+,29.87,1011.6,,,TRUE,,,,,,,FEW,4200,BKN,6000,,,,,VFR,,,,,,,,,,,,METAR,30
PAEG 272153Z AUTO VRB05KT 10SM CLR 04/M12 A2949 RMK AO2 SLP994 T00441117 TSNO,PAEG,2025-01-27T21:53:00Z,64.7761,-141.164,4.4,-11.7,VRB,5,,10+,29.49,999.4,,TRUE,TRUE,,,TRUE,,,,CLR,,,,,,,,VFR,,,,,,,,,,,,METAR,273
PADQ 272153Z 30005KT 10SM CLR 00/M04 A3000 RMK AO2 SLP158 T00001044,PADQ,2025-01-27T21:53:00Z,57.7507,-152.488,0,-4.4,300,5,,10+,30.00,1015.8,,,TRUE,,,,,,,CLR,,,,,,,,VFR,,,,,,,,,,,,METAR,5
PACV 272153Z 18010G22KT 140V220 10SM FEW020 SCT030 BKN040 A3002 RMK AO2 RAB24E41SNE2057B24E41 SLPNO CB S MOV E PNO $,PACV,2025-01-27T21:53:00Z,60.486,-145.445,,,180,10,22,10+,30.02,,,,TRUE,TRUE,,,,,,FEW,2000,SCT,3000,BKN,4000,,,VFR,,,,,,,,,,,,METAR,15
PABI 272153Z 20025G36KT 10SM FEW050 BKN100 BKN150 BKN200 02/M07 A2951 RMK AO2 PK WND 20047/2054 SLP012 SHRA DSNT N VIRGA T00171067 $,PABI,2025-01-27T21:53:00Z,63.9931,-145.721,1.7,-6.7,200,25,36,10+,29.51,1001.2,,,TRUE,TRUE,,,,,,FEW,5000,BKN,10000,BKN,15000,BKN,20000,VFR,,,,,,,,,,,,METAR,388
PABE 272153Z 23012KT 10SM CLR M21/M23 A3003 RMK AO2 SLP175 T12111228,PABE,2025-01-27T21:53:00Z,60.785,-161.829,-21.1,-22.8,230,12,,10+,30.03,1017.5,,,TRUE,,,,,,,CLR,,,,,,,,VFR,,,,,,,,,,,,METAR,28
PAAQ 272153Z 26018G29KT 9SM OVC032 M02/M08 A2981 RMK AO2 PK WND 25036/2137 UPB26E39SNE25 SLP098 P0000 T10221078,PAAQ,2025-01-27T21:53:00Z,61.5951,-149.092,-2.2,-7.8,260,18,29,9,29.81,1009.8,,,TRUE,,,,,,,OVC,3200,,,,,,,VFR,,,,,,0.005,,,,,,METAR,68
KZZV 272153Z AUTO 25007KT 10SM CLR 02/M12 A2991 RMK AO2 SLP136 T00221117,KZZV,2025-01-27T21:53:00Z,39.9461,-81.8932,2.2,-11.7,250,7,,10+,29.91,1013.6,,TRUE,TRUE,,,,,,,CLR,,,,,,,,VFR,,,,,,,,,,,,METAR,268
KYKM 272153Z VRB03KT 10SM CLR 04/M07 A3042 RMK AO2 SLP314 T00391072,KYKM,2025-01-27T21:53:00Z,46.564,-120.535,3.9,-7.2,VRB,3,,10+,30.42,1031.4,,,TRUE,,,,,,,CLR,,,,,,,,VFR,,,,,,,,,,,,METAR,319
KYIP 272153Z 22021G33KT 10SM CLR 03/M10 A2963 RMK AO2 PK WND 24034/2102 SLP038 T00281100,KYIP,2025-01-27T21:53:00Z,42.242,-83.5214,2.8,-10,220,21,33,10+,29.63,1003.8,,,TRUE,,,,,,,CLR,,,,,,,,VFR,,,,,,,,,,,,METAR,215
KXNA 272153Z 23008KT 10SM CLR 09/M09 A3015 RMK AO2 SLP216 T00891094,KXNA,2025-01-27T21:53:00Z,36.2897,-94.3115,8.9,-9.4,230,8,,10+,30.15,1021.6,,,TRUE,,,,,,,CLR,,,,,,,,VFR,,,,,,,,,,,,METAR,390
KWVI 272153Z AUTO 23006KT 10SM CLR 14/00 A3014 RMK AO2 SLP207 T01440000,KWVI,2025-01-27T21:53:00Z,36.9394,-121.79,14.4,0,230,6,,10+,30.14,1020.7,,TRUE,TRUE,,,,,,,CLR,,,,,,,,VFR,,,,,,,,,,,,METAR,47
KWST 272153Z AUTO 22011G20KT 10SM CLR 02/M08 A2978 RMK AO2 SLP085 T00171078,KWST,2025-01-27T21:53:00Z,41.3509,-71.8055,1.7,-7.8,220,11,20,10+,29.78,1008.5,,TRUE,TRUE,,,,,,,CLR,,,,,,,,VFR,,,,,,,,,,,,METAR,20
KWRL 272153Z AUTO 35003KT 10SM CLR 03/M14 A3012 RMK AO2 SLP255 T00281139,KWRL,2025-01-27T21:53:00Z,43.9654,-107.95,2.8,-13.9,350,3,,10+,30.12,1025.5,,TRUE,TRUE,,,,,,,CLR,,,,,,,,VFR,,,,,,,,,,,,METAR,1281
KVUO 272153Z AUTO 24003KT 10SM CLR 08/M04 A3031 RMK AO2 SLP265 T00781044,KVUO,2025-01-27T21:53:00Z,45.621,-122.654,7.8,-4.4,240,3,,10+,30.31,1026.5,,TRUE,TRUE,,,,,,,CLR,,,,,,,,VFR,,,,,,,,,,,,METAR,7
KVRB 272153Z 09005KT 10SM CLR 21/12 A3012 RMK AO2 SLP196 T02110122,KVRB,2025-01-27T21:53:00Z,27.6553,-80.4142,21.1,12.2,90,5,,10+,30.12,1019.6,,,TRUE,,,,,,,CLR,,,,,,,,VFR,,,,,,,,,,,,METAR,7
KVLD 272153Z AUTO 20006KT 7SM -RA OVC095 16/11 A3007 RMK AO2 SLP190 P0000 T01610111,KVLD,2025-01-27T21:53:00Z,30.7763,-83.2739,16.1,11.1,200,6,,7,30.07,1019,,TRUE,TRUE,,,,,,-RA,OVC,9500,,,,,,,VFR,,,,,,0.005,,,,,,METAR,59
KVIH 272153Z AUTO 24015G21KT 10SM CLR 07/M07 A3005 RMK AO2 SLP185 T00721072,KVIH,2025-01-27T21:53:00Z,38.1318,-91.7647,7.2,-7.2,240,15,21,10+,30.05,1018.5,,TRUE,TRUE,,,,,,,CLR,,,,,,,,VFR,,,,,,,,,,,,METAR,342
KVGT 272153Z 06005KT 10SM OVC110 13/M08 A3002 RMK AO2 SLP182 T01281078,KVGT,2025-01-27T21:53:00Z,36.2121,-115.194,12.8,-7.8,60,5,,10+,30.02,1018.2,,,TRUE,,,,,,,OVC,11000,,,,,,,VFR,,,,,,,,,,,,METAR,664
KVEL 272153Z AUTO 15005KT 10SM CLR M02/M09 A3018 RMK AO2 SLP271 T10221094,KVEL,2025-01-27T21:53:00Z,40.4429,-109.513,-2.2,-9.4,150,5,,10+,30.18,1027.1,,TRUE,TRUE,,,,,,,CLR,,,,,,,,VFR,,,,,,,,,,,,METAR,1604
KVCB 272153Z AUTO 35011G19KT 10SM CLR 18/M06 A3013 RMK AO2 SLP203 T01831056,KVCB,2025-01-27T21:53:00Z,38.3775,-121.959,18.3,-5.6,350,11,19,10+,30.13,1020.3,,TRUE,TRUE,,,,,,,CLR,,,,,,,,VFR,,,,,,,,,,,,METAR,30
KUUU 272153Z AUTO 21009G19KT 10SM CLR 02/M07 A2977 RMK AO2 SLP080 T00221072,KUUU,2025-01-27T21:53:00Z,41.5299,-71.2833,2.2,-7.2,210,9,19,10+,29.77,1008,,TRUE,TRUE,,,,,,,CLR,,,,,,,,VFR,,,,,,,,,,,,METAR,45
KUTS 272153Z AUTO 04007KT 10SM OVC011 11/08 A3018 RMK AO2 SLP220 T01110083,KUTS,2025-01-27T21:53:00Z,30.7443,-95.5866,11.1,8.3,40,7,,10+,30.18,1022,,TRUE,TRUE,,,,,,,OVC,1100,,,,,,,MVFR,,,,,,,,,,,,METAR,103
KUNV 272153Z 25014G24KT 10SM CLR 01/M13 A2976,KUNV,2025-01-27T21:53:00Z,40.8534,-77.8401,1,-13,250,14,24,10+,29.76,,,,,,,,,,,CLR,,,,,,,,VFR,,,,,,,,,,,,METAR,365
KUNO 272153Z AUTO 26008KT 10SM CLR 09/M09 A3010 RMK AO2 SLP199 T00891089,KUNO,2025-01-27T21:53:00Z,36.8791,-91.9052,8.9,-8.9,260,8,,10+,30.10,1019.9,,TRUE,TRUE,,,,,,,CLR,,,,,,,,VFR,,,,,,,,,,,,METAR,376
KUIL 272153Z AUTO 10SM CLR 11/M02 A3031 RMK AO2 SLP266 T01111022,KUIL,2025-01-27T21:53:00Z,47.937,-124.558,11.1,-2.2,,,,10+,30.31,1026.6,,TRUE,TRUE,,,,,,,CLR,,,,,,,,VFR,,,,,,,,,,,,METAR,58
KUAO 272153Z 00000KT 10SM CLR 10/M04 A3029 RMK AO2 SLP257 T01001044,KUAO,2025-01-27T21:53:00Z,45.2466,-122.771,10,-4.4,0,0,,10+,30.29,1025.7,,,TRUE,,,,,,,CLR,,,,,,,,VFR,,,,,,,,,,,,METAR,60
KTYS 272153Z 24005KT 10SM FEW007 FEW025 OVC030 06/04 A3004 RMK AO2 SLP176 T00610044,KTYS,2025-01-27T21:53:00Z,35.818,-83.9857,6.1,4.4,240,5,,10+,30.04,1017.6,,,TRUE,,,,,,,FEW,700,FEW,2500,OVC,3000,,,MVFR,,,,,,,,,,,,METAR,300
KTYR 272153Z 04006KT 10SM FEW016 11/05 A3020 RMK AO2 SLP225 T01060050,KTYR,2025-01-27T21:53:00Z,32.3587,-95.404,10.6,5,40,6,,10+,30.20,1022.5,,,TRUE,,,,,,,FEW,1600,,,,,,,VFR,,,,,,,,,,,,METAR,161
KTXK 272153Z 30004KT 10SM CLR 13/02 A3019 RMK AO2 SLP221 T01330017,KTXK,2025-01-27T21:53:00Z,33.4561,-93.9878,13.3,1.7,300,4,,10+,30.19,1022.1,,,TRUE,,,,,,,CLR,,,,,,,,VFR,,,,,,,,,,,,METAR,118
KTWF 272153Z 03005KT 10SM CLR 01/M15 A3025 RMK AO2 SLP270 T00061150,KTWF,2025-01-27T21:53:00Z,42.4785,-114.477,0.6,-15,30,5,,10+,30.25,1027,,,TRUE,,,,,,,CLR,,,,,,,,VFR,,,,,,,,,,,,METAR,1269
KTVR 272153Z AUTO 03008KT 10SM OVC022 11/07 A3019 RMK AO2 SLP228 T01110067,KTVR,2025-01-27T21:53:00Z,32.3481,-91.0299,11.1,6.7,30,8,,10+,30.19,1022.8,,TRUE,TRUE,,,,,,,OVC,2200,,,,,,,MVFR,,,,,,,,,,,,METAR,25
KTVL 272153Z AUTO VRB06KT 10SM CLR 03/M09 A3011 RMK AO2 SLP201 T00281089,KTVL,2025-01-27T21:53:00Z,38.8984,-119.996,2.8,-8.9,VRB,6,,10+,30.11,1020.1,,TRUE,TRUE,,,,,,,CLR,,,,,,,,VFR,,,,,,,,,,,,METAR,1907
KTVC 272153Z 23013G22KT 1/2SM SN BLSN VV007 01/M01 A2940 RMK AO2 PK WND 22028/2057 SLP962 SNINCR 1/6 P0001 T00061011,KTVC,2025-01-27T21:53:00Z,44.739,-85.5694,0.6,-1.1,230,13,22,0.5,29.40,996.2,,,TRUE,,,,,,SN BLSN,OVX,0,,,,,,,LIFR,,,,,,0.01,,,,,700,METAR,188
KTUS 272153Z 26014G19KT 10SM CLR 17/M02 A3002 RMK AO2 SLP149 T01671017,KTUS,2025-01-27T21:53:00Z,32.1315,-110.956,16.7,-1.7,260,14,19,10+,30.02,1014.9,,,TRUE,,,,,,,CLR,,,,,,,,VFR,,,,,,,,,,,,METAR,776
KTUP 272153Z VRB05KT 10SM CLR 11/M02 A3014 RMK AO2 SLP206 T01111022,KTUP,2025-01-27T21:53:00Z,34.2622,-88.7713,11.1,-2.2,VRB,5,,10+,30.14,1020.6,,,TRUE,,,,,,,CLR,,,,,,,,VFR,,,,,,,,,,,,METAR,107
KTUL 272153Z 28004KT 10SM CLR 09/M09 A3016 RMK AO2 SLP218 T00941089,KTUL,2025-01-27T21:53:00Z,36.1985,-95.8783,9.4,-8.9,280,4,,10+,30.16,1021.8,,,TRUE,,,,,,,CLR,,,,,,,,VFR,,,,,,,,,,,,METAR,196
KTTN 272153Z 25007KT 10SM CLR 04/M14 A2983 RMK AO2 SLP096 T00441139,KTTN,2025-01-27T21:53:00Z,40.2768,-74.8159,4.4,-13.9,250,7,,10+,29.83,1009.6,,,TRUE,,,,,,,CLR,,,,,,,,VFR,,,,,,,,,,,,METAR,58
KTTD 272153Z 10018G27KT 10SM CLR 09/M04 A3029 RMK AO2 PK WND 09027/2147 SLP255 T00891039,KTTD,2025-01-27T21:53:00Z,45.551,-122.41,8.9,-3.9,100,18,27,10+,30.29,1025.5,,,TRUE,,,,,,,CLR,,,,,,,,VFR,,,,,,,,,,,,METAR,8
KTRL 272153Z AUTO 00000KT 10SM CLR 11/03 A3020 RMK AO2 SLP227 T01060028,KTRL,2025-01-27T21:53:00Z,32.7131,-96.2688,10.6,2.8,0,0,,10+,30.20,1022.7,,TRUE,TRUE,,,,,,,CLR,,,,,,,,VFR,,,,,,,,,,,,METAR,144
KTRI 272153Z 21007KT 10SM OVC011 05/03 A3000 RMK AO2 SLP155 T00500033,KTRI,2025-01-27T21:53:00Z,36.4797,-82.3989,5,3.3,210,7,,10+,30.00,1015.5,,,TRUE,,,,,,,OVC,1100,,,,,,,MVFR,,,,,,,,,,,,METAR,456
KTPA 272153Z 26006KT 10SM FEW032 FEW120 BKN250 21/12 A3013 RMK AO2 SLP202 T02060122 $,KTPA,2025-01-27T21:53:00Z,27.9633,-82.54,20.6,12.2,260,6,,10+,30.13,1020.2,,,TRUE,TRUE,,,,,,FEW,3200,FEW,12000,BKN,25000,,,VFR,,,,,,,,,,,,METAR,2
KTOR 272153Z AUTO 31017G26KT 10SM CLR 09/M12 A3003 RMK AO2 PK WND 32027/2110 SLP206 T00891117,KTOR,2025-01-27T21:53:00Z,42.0613,-104.158,8.9,-11.7,310,17,26,10+,30.03,1020.6,,TRUE,TRUE,,,,,,,CLR,,,,,,,,VFR,,,,,,,,,,,,METAR,1285
KTOP 272153Z 23014G21KT 10SM CLR 07/M04 A3004 RMK AO2 SLP182 T00671044,KTOP,2025-01-27T21:53:00Z,39.0724,-95.626,6.7,-4.4,230,14,21,10+,30.04,1018.2,,,TRUE,,,,,,,CLR,,,,,,,,VFR,,,,,,,,,,,,METAR,268
KTOI 272153Z AUTO 24004KT 5SM BR BKN006 OVC019 14/13 A3008 RMK AO2 CIG 004V010 SLP184 T01390133,KTOI,2025-01-27T21:53:00Z,31.8574,-86.0103,13.9,13.3,240,4,,5,30.08,1018.4,,TRUE,TRUE,,,,,,BR,BKN,600,OVC,1900,,,,,IFR,,,,,,,,,,,,METAR,120
KTMB 272153Z 10008KT 10SM BKN055 23/16 A3010 RMK AO2 SLP192 T02280161,KTMB,2025-01-27T21:53:00Z,25.6423,-80.4347,22.8,16.1,100,8,,10+,30.10,1019.2,,,TRUE,,,,,,,BKN,5500,,,,,,,VFR,,,,,,,,,,,,METAR,2
KTLH 272153Z 17006KT 10SM SCT047 BKN060 OVC080 17/09 A3009 RMK AO2 SLP188 T01670089,KTLH,2025-01-27T21:53:00Z,30.3935,-84.3513,16.7,8.9,170,6,,10+,30.09,1018.8,,,TRUE,,,,,,,SCT,4700,BKN,6000,OVC,8000,,,VFR,,,,,,,,,,,,METAR,17
KTKI 272153Z VRB03KT 10SM CLR 12/M02 A3019 RMK AO2 SLP233 T01171022,KTKI,2025-01-27T21:53:00Z,33.1828,-96.5899,11.7,-2.2,VRB,3,,10+,30.19,1023.3,,,TRUE,,,,,,,CLR,,,,,,,,VFR,,,,,,,,,,,,METAR,173
KTIW 272153Z 05005KT 10SM CLR 08/M01 A3033 RMK AO2 SLP274 T00781011,KTIW,2025-01-27T21:53:00Z,47.2674,-122.576,7.8,-1.1,50,5,,10+,30.33,1027.4,,,TRUE,,,,,,,CLR,,,,,,,,VFR,,,,,,,,,,,,METAR,89
KTHV 272153Z AUTO 22005KT 10SM CLR 06/M09 A2982 RMK AO2 SLP106 T00561094 $,KTHV,2025-01-27T21:53:00Z,39.9194,-76.8768,5.6,-9.4,220,5,,10+,29.82,1010.6,,TRUE,TRUE,TRUE,,,,,,CLR,,,,,,,,VFR,,,,,,,,,,,,METAR,141
KTDZ 272153Z AUTO 22021G34KT 10SM CLR 02/M08 A2974 RMK AO2 PK WND 23037/2057 SLP076 T00221083,KTDZ,2025-01-27T21:53:00Z,41.5633,-83.4767,2.2,-8.3,220,21,34,10+,29.74,1007.6,,TRUE,TRUE,,,,,,,CLR,,,,,,,,VFR,,,,,,,,,,,,METAR,189
KTCS 272153Z AUTO 19024G32KT 10SM CLR 16/M09 A2995 RMK AO2 PK WND 18039/2133 SLP107 T01611089,KTCS,2025-01-27T21:53:00Z,33.2369,-107.268,16.1,-8.9,190,24,32,10+,29.95,1010.7,,TRUE,TRUE,,,,,,,CLR,,,,,,,,VFR,,,,,,,,,,,,METAR,1471
KTCL 272153Z 32008KT 10SM OVC016 09/07 A3015 RMK AO2 SLP207 T00940067,KTCL,2025-01-27T21:53:00Z,33.2122,-87.6155,9.4,6.7,320,8,,10+,30.15,1020.7,,,TRUE,,,,,,,OVC,1600,,,,,,,MVFR,,,,,,,,,,,,METAR,48
KTCC 272153Z AUTO 22011KT 10SM CLR 10/M06 A3006 RMK AO2 SLP185 T01001056,KTCC,2025-01-27T21:53:00Z,35.1805,-103.601,10,-5.6,220,11,,10+,30.06,1018.5,,TRUE,TRUE,,,,,,,CLR,,,,,,,,VFR,,,,,,,,,,,,METAR,1233
KSWO 272153Z 24008KT 10SM CLR 10/M08 A3016 RMK AO2 SLP217 T01001083,KSWO,2025-01-27T21:53:00Z,36.1624,-97.0832,10,-8.3,240,8,,10+,30.16,1021.7,,,TRUE,,,,,,,CLR,,,,,,,,VFR,,,,,,,,,,,,METAR,293
KSTS 272153Z COR 31003KT 10SM CLR 19/M02 A3012 RMK AO2 SLP192 T01891017,KSTS,2025-01-27T21:53:00Z,38.5037,-122.811,18.9,-1.7,310,3,,10+,30.12,1019.2,TRUE,,TRUE,,,,,,,CLR,,,,,,,,VFR,,,,,,,,,,,,METAR,35
KSTP 272153Z 26013G22KT 10SM SCT085 03/M07 A2968 RMK AO2 SLP056 T00331067,KSTP,2025-01-27T21:53:00Z,44.9324,-93.0559,3.3,-6.7,260,13,22,10+,29.68,1005.6,,,TRUE,,,,,,,SCT,8500,,,,,,,VFR,,,,,,,,,,,,METAR,213
KSTJ 272153Z 23015G24KT 10SM CLR 06/M03 A2999 RMK AO2 PK WND 23027/2058 SLP163 T00561033,KSTJ,2025-01-27T21:53:00Z,39.7683,-94.9095,5.6,-3.3,230,15,24,10+,29.99,1016.3,,,TRUE,,,,,,,CLR,,,,,,,,VFR,,,,,,,,,,,,METAR,247
KSTC 272153Z 29014G22KT 10SM CLR 02/M04 A2967 RMK AO2 SLP068 T00221044,KSTC,2025-01-27T21:53:00Z,45.5442,-94.0517,2.2,-4.4,290,14,22,10+,29.67,1006.8,,,TRUE,,,,,,,CLR,,,,,,,,VFR,,,,,,,,,,,,METAR,302
KSSF 272153Z 06006KT 10SM OVC018 11/07 A3015 RMK AO2 RAB06E25 SLP212 P0000 T01060072,KSSF,2025-01-27T21:53:00Z,29.339,-98.472,10.6,7.2,60,6,,10+,30.15,1021.2,,,TRUE,,,,,,,OVC,1800,,,,,,,MVFR,,,,,,0.005,,,,,,METAR,175
KSRQ 272153Z 28008KT 10SM CLR 21/11 A3012 RMK AO2 SLP199 T02060106,KSRQ,2025-01-27T21:53:00Z,27.4015,-82.5596,20.6,10.6,280,8,,10+,30.12,1019.9,,,TRUE,,,,,,,CLR,,,,,,,,VFR,,,,,,,,,,,,METAR,5
KSPW 272153Z AUTO 30013KT 10SM CLR 07/M11 A2979 RMK AO2 PK WND 30026/2122 SLP102 T00721111,KSPW,2025-01-27T21:53:00Z,43.1682,-95.2101,7.2,-11.1,300,13,,10+,29.79,1010.2,,TRUE,TRUE,,,,,,,CLR,,,,,,,,VFR,,,,,,,,,,,,METAR,407
KSPG 272153Z 21006KT 10SM CLR 19/12 A3011 RMK AO1 SLP195 T01940117 $,KSPG,2025-01-27T21:53:00Z,27.7685,-82.6257,19.4,11.7,210,6,,10+,30.11,1019.5,,,TRUE,TRUE,,,,,,CLR,,,,,,,,VFR,,,,,,,,,,,,METAR,1
KSNY 272153Z AUTO 31017KT 10SM CLR 08/M16 A3000 RMK AO2 SLP188 T00831156,KSNY,2025-01-27T21:53:00Z,41.0993,-102.986,8.3,-15.6,310,17,,10+,30.00,1018.8,,TRUE,TRUE,,,,,,,CLR,,,,,,,,VFR,,,,,,,,,,,,METAR,1307
KSNS 272153Z 29003KT 10SM CLR 16/00 A3013 RMK AO2 SLP210 T01560000,KSNS,2025-01-27T21:53:00Z,36.6635,-121.609,15.6,0,290,3,,10+,30.13,1021,,,TRUE,,,,,,,CLR,,,,,,,,VFR,,,,,,,,,,,,METAR,20
KSNA 272153Z 22009KT 10SM BKN047 BKN055 14/06 A3008 RMK AO2 SLP185 T01440056,KSNA,2025-01-27T21:53:00Z,33.6798,-117.867,14.4,5.6,220,9,,10+,30.08,1018.5,,,TRUE,,,,,,,BKN,4700,BKN,5500,,,,,VFR,,,,,,,,,,,,METAR,14
KSMQ 272153Z AUTO 23005KT 10SM CLR 04/M13 A2980 RMK AO2 SLP094 T00391133,KSMQ,2025-01-27T21:53:00Z,40.6241,-74.669,3.9,-13.3,230,5,,10+,29.80,1009.4,,TRUE,TRUE,,,,,,,CLR,,,,,,,,VFR,,,,,,,,,,,,METAR,30
KSMF 272153Z 32013KT 10SM CLR 18/M03 A3011 RMK AO2 SLP197 T01781028,KSMF,2025-01-27T21:53:00Z,38.7007,-121.595,17.8,-2.8,320,13,,10+,30.11,1019.7,,,TRUE,,,,,,,CLR,,,,,,,,VFR,,,,,,,,,,,,METAR,7
KSLN 272153Z 21009KT 10SM CLR 06/M01 A3005 RMK AO2 SLP187 T00611011,KSLN,2025-01-27T21:53:00Z,38.78,-97.6446,6.1,-1.1,210,9,,10+,30.05,1018.7,,,TRUE,,,,,,,CLR,,,,,,,,VFR,,,,,,,,,,,,METAR,377
KSJC 272153Z 27007KT 10SM CLR 17/M04 A3014 RMK AO2 SLP204 T01671039 $,KSJC,2025-01-27T21:53:00Z,37.3594,-121.924,16.7,-3.9,270,7,,10+,30.14,1020.4,,,TRUE,TRUE,,,,,,CLR,,,,,,,,VFR,,,,,,,,,,,,METAR,13
KSIY 272153Z AUTO 00000KT 10SM CLR 08/M12 A3027 RMK AO2 SLP277 T00781117 PWINO $,KSIY,2025-01-27T21:53:00Z,41.7737,-122.468,7.8,-11.7,0,0,,10+,30.27,1027.7,,TRUE,TRUE,TRUE,,,,TRUE,,CLR,,,,,,,,VFR,,,,,,,,,,,,METAR,807
KSHR 272153Z AUTO 29008KT 10SM CLR 04/M07 A3007 RMK AO2 SLP229 T00441067,KSHR,2025-01-27T21:53:00Z,44.7603,-106.974,4.4,-6.7,290,8,,10+,30.07,1022.9,,TRUE,TRUE,,,,,,,CLR,,,,,,,,VFR,,,,,,,,,,,,METAR,1212
KSHN 272153Z AUTO 07006KT 10SM CLR 09/M01 A3030 RMK AO2 SLP268 T00891011,KSHN,2025-01-27T21:53:00Z,47.2384,-123.142,8.9,-1.1,70,6,,10+,30.30,1026.8,,TRUE,TRUE,,,,,,,CLR,,,,,,,,VFR,,,,,,,,,,,,METAR,84
KSGR 272153Z 01008KT 6SM BR OVC010 12/10 A3016 RMK AO2 SLP214 T01220100,KSGR,2025-01-27T21:53:00Z,29.6197,-95.6575,12.2,10,10,8,,6,30.16,1021.4,,,TRUE,,,,,,BR,OVC,1000,,,,,,,MVFR,,,,,,,,,,,,METAR,22
KSFF 272153Z 00000KT 10SM CLR 02/M07 A3039 RMK AO2 SLP313 T00171067,KSFF,2025-01-27T21:53:00Z,47.6857,-117.321,1.7,-6.7,0,0,,10+,30.39,1031.3,,,TRUE,,,,,,,CLR,,,,,,,,VFR,,,,,,,,,,,,METAR,593
KSFB 272153Z 29006KT 10SM CLR 22/09 A3011 RMK AO1 SLP194 T02170094,KSFB,2025-01-27T21:53:00Z,28.7795,-81.2436,21.7,9.4,290,6,,10+,30.11,1019.4,,,TRUE,,,,,,,CLR,,,,,,,,VFR,,,,,,,,,,,,METAR,16
KSEG 272153Z AUTO 21004KT 10SM CLR 04/M13 A2978 RMK AO2 SLP090 T00391128,KSEG,2025-01-27T21:53:00Z,40.8193,-76.8658,3.9,-12.8,210,4,,10+,29.78,1009,,TRUE,TRUE,,,,,,,CLR,,,,,,,,VFR,,,,,,,,,,,,METAR,136
KSEA 272153Z 04004KT 10SM CLR 08/M03 A3033 RMK AO2 SLP279 T00781028,KSEA,2025-01-27T21:53:00Z,47.4447,-122.314,7.8,-2.8,40,4,,10+,30.33,1027.9,,,TRUE,,,,,,,CLR,,,,,,,,VFR,,,,,,,,,,,,METAR,115
KSDM 272153Z COR 25009G16KT 10SM SCT030 14/05 A3007 RMK AO2 SLP183 T01390050,KSDM,2025-01-27T21:53:00Z,32.5758,-116.994,13.9,5,250,9,16,10+,30.07,1018.3,TRUE,,TRUE,,,,,,,SCT,3000,,,,,,,VFR,,,,,,,,,,,,METAR,161
KSDL 272153Z 30005KT 10SM CLR 16/02 A3002 RMK AO2 SLP159 T01560022,KSDL,2025-01-27T21:53:00Z,33.6124,-111.923,15.6,2.2,300,5,,10+,30.02,1015.9,,,TRUE,,,,,,,CLR,,,,,,,,VFR,,,,,,,,,,,,METAR,438
KSBM 272153Z AUTO 25021G37KT 10SM -RA BKN060 OVC080 05/M09 A2951 RMK AO2 PK WND 24037/2146 RAE2057B49 SLP001 P0000 T00501094,KSBM,2025-01-27T21:53:00Z,43.7748,-87.849,5,-9.4,250,21,37,10+,29.51,1000.1,,TRUE,TRUE,,,,,,-RA,BKN,6000,OVC,8000,,,,,VFR,,,,,,0.005,,,,,,METAR,225
KSBA 272153Z 25010KT 10SM CLR 14/08 A3010 RMK AO2 SLP192 T01390078,KSBA,2025-01-27T21:53:00Z,34.4241,-119.842,13.9,7.8,250,10,,10+,30.10,1019.2,,,TRUE,,,,,,,CLR,,,,,,,,VFR,,,,,,,,,,,,METAR,2
KSAV 272153Z 18004KT 10SM FEW038 SCT050 BKN075 OVC140 12/06 A3008 RMK AO2 SLP185 T01170061,KSAV,2025-01-27T21:53:00Z,32.1313,-81.2023,11.7,6.1,180,4,,10+,30.08,1018.5,,,TRUE,,,,,,,FEW,3800,SCT,5000,BKN,7500,OVC,14000,VFR,,,,,,,,,,,,METAR,10
KSAF 272153Z 15010KT 10SM CLR 11/M08 A3001 RMK AO2 SLP142 T01111083 $,KSAF,2025-01-27T21:53:00Z,35.611,-106.096,11.1,-8.3,150,10,,10+,30.01,1014.2,,,TRUE,TRUE,,,,,,CLR,,,,,,,,VFR,,,,,,,,,,,,METAR,1918
KSAC 272153Z 34011KT 10SM CLR 17/M03 A3012 RMK AO2 SLP197 T01721028,KSAC,2025-01-27T21:53:00Z,38.5066,-121.496,17.2,-2.8,340,11,,10+,30.12,1019.7,,,TRUE,,,,,,,CLR,,,,,,,,VFR,,,,,,,,,,,,METAR,5
KRXE 272153Z AUTO 00000KT 10SM CLR M07/M16 A3022 RMK AO2 SLP315 T10671156,KRXE,2025-01-27T21:53:00Z,43.8321,-111.808,-6.7,-15.6,0,0,,10+,30.22,1031.5,,TRUE,TRUE,,,,,,,CLR,,,,,,,,VFR,,,,,,,,,,,,METAR,1483
KRWL 272153Z AUTO 18007KT 10SM CLR M03/M10 A3013 RMK AO2 SLP276 T10331100,KRWL,2025-01-27T21:53:00Z,41.8065,-107.195,-3.3,-10,180,7,,10+,30.13,1027.6,,TRUE,TRUE,,,,,,,CLR,,,,,,,,VFR,,,,,,,,,,,,METAR,2066
KRWF 272153Z AUTO 29016G25KT CLR 04/M06 A2975 RMK AO2 SLP087 T00391061 $,KRWF,2025-01-27T21:53:00Z,44.5483,-95.0804,3.9,-6.1,290,16,25,,29.75,1008.7,,TRUE,TRUE,TRUE,,,,,,CLR,,,,,,,,,,,,,,,,,,,,METAR,312
KRVS 272153Z 20005KT 10SM CLR 09/M10 A3018 RMK AO2 SLP226 T00941100,KRVS,2025-01-27T21:53:00Z,36.0424,-95.9902,9.4,-10,200,5,,10+,30.18,1022.6,,,TRUE,,,,,,,CLR,,,,,,,,VFR,,,,,,,,,,,,METAR,191
KRUE 272153Z AUTO VRB03KT 10SM CLR 11/M04 A3016 RMK AO2 SLP209 T01111044,KRUE,2025-01-27T21:53:00Z,35.2573,-93.095,11.1,-4.4,VRB,3,,10+,30.16,1020.9,,TRUE,TRUE,,,,,,,CLR,,,,,,,,VFR,,,,,,,,,,,,METAR,119
KRTN 272153Z AUTO 21009KT 10SM CLR 09/M07 A3002 RMK AO2 SLP172 T00891067,KRTN,2025-01-27T21:53:00Z,36.7418,-104.508,8.9,-6.7,210,9,,10+,30.02,1017.2,,TRUE,TRUE,,,,,,,CLR,,,,,,,,VFR,,,,,,,,,,,,METAR,1939
KRSW 272153Z 27005KT 10SM CLR 23/12 A3010 RMK AO1 SLP190 T02280117,KRSW,2025-01-27T21:53:00Z,26.538,-81.7567,22.8,11.7,270,5,,10+,30.10,1019,,,TRUE,,,,,,,CLR,,,,,,,,VFR,,,,,,,,,,,,METAR,8
KRSL 272153Z AUTO 23013KT 10SM CLR 07/M02 A2999 RMK AO2 SLP174 T00721022,KRSL,2025-01-27T21:53:00Z,38.8725,-98.8093,7.2,-2.2,230,13,,10+,29.99,1017.4,,TRUE,TRUE,,,,,,,CLR,,,,,,,,VFR,,,,,,,,,,,,METAR,569
KRQE 272153Z AUTO 19013G19KT 10SM CLR 09/M16 A2995 RMK AO2 SLP135 T00891161,KRQE,2025-01-27T21:53:00Z,35.6571,-109.06,8.9,-16.1,190,13,19,10+,29.95,1013.5,,TRUE,TRUE,,,,,,,CLR,,,,,,,,VFR,,,,,,,,,,,,METAR,2056
KRNM 272153Z VRB06KT 8SM BKN036 BKN046 11/04 A3006 RMK AO2 SLP177 T01060039,KRNM,2025-01-27T21:53:00Z,33.038,-116.916,10.6,3.9,VRB,6,,8,30.06,1017.7,,,TRUE,,,,,,,BKN,3600,BKN,4600,,,,,VFR,,,,,,,,,,,,METAR,423
KRME 272153Z AUTO 23010G20KT 10SM CLR 02/M13 A2958 RMK AO2 SLP021 T00171133,KRME,2025-01-27T21:53:00Z,43.2242,-75.3956,1.7,-13.3,230,10,20,10+,29.58,1002.1,,TRUE,TRUE,,,,,,,CLR,,,,,,,,VFR,,,,,,,,,,,,METAR,146
KRKP 272153Z AUTO 03008KT 4SM BR OVC005 13/12 A3013 RMK AO2 SLP206 T01330117,KRKP,2025-01-27T21:53:00Z,28.0837,-97.0467,13.3,11.7,30,8,,4,30.13,1020.6,,TRUE,TRUE,,,,,,BR,OVC,500,,,,,,,IFR,,,,,,,,,,,,METAR,8
KRIW 272153Z AUTO 11004KT 10SM BKN100 M12/M17 A3015 RMK AO2 SLP314 T11221167,KRIW,2025-01-27T21:53:00Z,43.0622,-108.447,-12.2,-16.7,110,4,,10+,30.15,1031.4,,TRUE,TRUE,,,,,,,BKN,10000,,,,,,,VFR,,,,,,,,,,,,METAR,1662
KRIL 272153Z AUTO 00000KT 10SM CLR 05/M12 A3005 RMK AO2 SLP203 T00501117,KRIL,2025-01-27T21:53:00Z,39.5279,-107.72,5,-11.7,0,0,,10+,30.05,1020.3,,TRUE,TRUE,,,,,,,CLR,,,,,,,,VFR,,,,,,,,,,,,METAR,1683
KRHI 272153Z AUTO 29014G25KT 10SM OVC032 M02/M09 A2948 RMK AO2 PK WND 27026/2121 SLP007 T10171094 $,KRHI,2025-01-27T21:53:00Z,45.6315,-89.4822,-1.7,-9.4,290,14,25,10+,29.48,1000.7,,TRUE,TRUE,TRUE,,,,,,OVC,3200,,,,,,,VFR,,,,,,,,,,,,METAR,493
KRDD 272153Z 36008KT 10SM CLR 18/M08 A3014 RMK AO2 SLP202 T01781083,KRDD,2025-01-27T21:53:00Z,40.5146,-122.298,17.8,-8.3,360,8,,10+,30.14,1020.2,,,TRUE,,,,,,,CLR,,,,,,,,VFR,,,,,,,,,,,,METAR,152
KRBG 272153Z AUTO 28003KT 10SM CLR 09/M04 A3024 RMK AO2 SLP244 T00941039,KRBG,2025-01-27T21:53:00Z,43.2337,-123.358,9.4,-3.9,280,3,,10+,30.24,1024.4,,TRUE,TRUE,,,,,,,CLR,,,,,,,,VFR,,,,,,,,,,,,METAR,152
KRBD 272153Z 03006KT 10SM CLR 11/M03 A3018 RMK AO2 SLP219 T01111033,KRBD,2025-01-27T21:53:00Z,32.6782,-96.8677,11.1,-3.3,30,6,,10+,30.18,1021.9,,,TRUE,,,,,,,CLR,,,,,,,,VFR,,,,,,,,,,,,METAR,200
KRAL 272153Z 36010G16KT 10SM FEW070 14/00 A3006 RMK AO2 SLP170 T01440000,KRAL,2025-01-27T21:53:00Z,33.9528,-117.435,14.4,0,360,10,16,10+,30.06,1017,,,TRUE,,,,,,,FEW,7000,,,,,,,VFR,,,,,,,,,,,,METAR,254
KRAC 272153Z AUTO 25017G29KT 10SM FEW060 OVC085 05/M12 A2964 RMK AO2 PK WND 26034/2129 SLP043 T00501117,KRAC,2025-01-27T21:53:00Z,42.7586,-87.8178,5,-11.7,250,17,29,10+,29.64,1004.3,,TRUE,TRUE,,,,,,,FEW,6000,OVC,8500,,,,,VFR,,,,,,,,,,,,METAR,203
KPWA 272153Z 21006KT 10SM CLR 09/M08 A3017 RMK AO2 SLP223 T00941078,KPWA,2025-01-27T21:53:00Z,35.5411,-97.6472,9.4,-7.8,210,6,,10+,30.17,1022.3,,,TRUE,,,,,,,CLR,,,,,,,,VFR,,,,,,,,,,,,METAR,390
KPUW 272153Z AUTO 00000KT 10SM CLR 03/M13 A3036 RMK AO2 SLP312 T00281128,KPUW,2025-01-27T21:53:00Z,46.7438,-117.116,2.8,-12.8,0,0,,10+,30.36,1031.2,,TRUE,TRUE,,,,,,,CLR,,,,,,,,VFR,,,,,,,,,,,,METAR,774
KPUC 272153Z AUTO 03012G17KT 10SM CLR 09/M13 A3002 RMK AO2 SLP170 T00941133 $,KPUC,2025-01-27T21:53:00Z,39.6089,-110.755,9.4,-13.3,30,12,17,10+,30.02,1017,,TRUE,TRUE,TRUE,,,,,,CLR,,,,,,,,VFR,,,,,,,,,,,,METAR,1777
KPUB 272153Z 08004KT 10SM CLR 09/M04 A3001 RMK AO2 SLP177 T00941044 $,KPUB,2025-01-27T21:53:00Z,38.2887,-104.506,9.4,-4.4,80,4,,10+,30.01,1017.7,,,TRUE,TRUE,,,,,,CLR,,,,,,,,VFR,,,,,,,,,,,,METAR,1441
KPTK 272153Z 24014G26KT 10SM SCT150 OVC230 02/M10 A2957 RMK AO2 PK WND 23034/2107 SLP022 T00221100,KPTK,2025-01-27T21:53:00Z,42.6632,-83.41,2.2,-10,240,14,26,10+,29.57,1002.2,,,TRUE,,,,,,,SCT,15000,OVC,23000,,,,,VFR,,,,,,,,,,,,METAR,295
KPSX 272153Z AUTO 01009KT 6SM BR OVC007 13/12 A3014 RMK AO2 SLP207 T01330117 $,KPSX,2025-01-27T21:53:00Z,28.7248,-96.2535,13.3,11.7,10,9,,6,30.14,1020.7,,TRUE,TRUE,TRUE,,,,,BR,OVC,700,,,,,,,IFR,,,,,,,,,,,,METAR,4
KPSP 272153Z 03005KT 10SM SCT060 OVC070 15/03 A3007 RMK AO2 SLP184 T01500028,KPSP,2025-01-27T21:53:00Z,33.8222,-116.504,15,2.8,30,5,,10+,30.07,1018.4,,,TRUE,,,,,,,SCT,6000,OVC,7000,,,,,VFR,,,,,,,,,,,,METAR,123
KPSC 272153Z 00000KT 10SM CLR 04/M05 A3048 RMK AO2 SLP325 T00391050,KPSC,2025-01-27T21:53:00Z,46.2695,-119.118,3.9,-5,0,0,,10+,30.48,1032.5,,,TRUE,,,,,,,CLR,,,,,,,,VFR,,,,,,,,,,,,METAR,121
KPRC 272153Z 04006KT 10SM BKN005 BKN014 OVC065 03/02 A3001 RMK AO2 UPB02E03SNE02B03E06 SLP158 P0000 T00280017,KPRC,2025-01-27T21:53:00Z,34.6491,-112.422,2.8,1.7,40,6,,10+,30.01,1015.8,,,TRUE,,,,,,,BKN,500,BKN,1400,OVC,6500,,,IFR,,,,,,0.005,,,,,,METAR,1528
KPRB 272153Z AUTO 10SM CLR 13/02 A3011 RMK AO2 SLP197 T01330017 $,KPRB,2025-01-27T21:53:00Z,35.6693,-120.629,13.3,1.7,,,,10+,30.11,1019.7,,TRUE,TRUE,TRUE,,,,,,CLR,,,,,,,,VFR,,,,,,,,,,,,METAR,249
KPQL 272153Z 10SM OVC020 20/14 A3009 RMK AO2 SLP192 T02000139 $,KPQL,2025-01-27T21:53:00Z,30.4631,-88.5316,20,13.9,,,,10+,30.09,1019.2,,,TRUE,TRUE,,,,,,OVC,2000,,,,,,,MVFR,,,,,,,,,,,,METAR,4
KPOU 272153Z 21011G22KT 10SM CLR 03/M12 A2974 RMK AO2 SLP070 T00281122,KPOU,2025-01-27T21:53:00Z,41.6257,-73.8816,2.8,-12.2,210,11,22,10+,29.74,1007,,,TRUE,,,,,,,CLR,,,,,,,,VFR,,,,,,,,,,,,METAR,45
KPOF 272153Z AUTO 20011KT 10SM CLR 07/M06 A3011 RMK AO2 SLP200 T00671061,KPOF,2025-01-27T21:53:00Z,36.7697,-90.3224,6.7,-6.1,200,11,,10+,30.11,1020,,TRUE,TRUE,,,,,,,CLR,,,,,,,,VFR,,,,,,,,,,,,METAR,99
KPNS 272153Z 25010KT 10SM BKN022 BKN027 OVC090 20/14 A3007 RMK AO2 RAE20 SLP184 P0000 T02000139,KPNS,2025-01-27T21:53:00Z,30.478,-87.1869,20,13.9,250,10,,10+,30.07,1018.4,,,TRUE,,,,,,,BKN,2200,BKN,2700,OVC,9000,,,MVFR,,,,,,0.005,,,,,,METAR,34
KPNC 272153Z AUTO 24007KT 200V270 10SM CLR 09/M08 A3015 RMK AO2 SLP213 T00941083,KPNC,2025-01-27T21:53:00Z,36.7369,-97.1024,9.4,-8.3,240,7,,10+,30.15,1021.3,,TRUE,TRUE,,,,,,,CLR,,,,,,,,VFR,,,,,,,,,,,,METAR,304
KPMP 272153Z 10009KT 10SM SCT055 22/15 A3010 RMK AO2 SLP194 T02220150,KPMP,2025-01-27T21:53:00Z,26.2464,-80.111,22.2,15,100,9,,10+,30.10,1019.4,,,TRUE,,,,,,,SCT,5500,,,,,,,VFR,,,,,,,,,,,,METAR,4
KPMD 272153Z VRB03KT 10SM OVC100 08/01 A3009 RMK AO2 RAB33E46 SLP194 P0000 T00780006 $,KPMD,2025-01-27T21:53:00Z,34.6295,-118.083,7.8,0.6,VRB,3,,10+,30.09,1019.4,,,TRUE,TRUE,,,,,,OVC,10000,,,,,,,VFR,,,,,,0.005,,,,,,METAR,764
KPKB 272153Z 22007KT 10SM CLR 03/M12 A2992 RMK AO2 SLP139 T00331117,KPKB,2025-01-27T21:53:00Z,39.3395,-81.4438,3.3,-11.7,220,7,,10+,29.92,1013.9,,,TRUE,,,,,,,CLR,,,,,,,,VFR,,,,,,,,,,,,METAR,245
KPIR 272153Z AUTO 31014G24KT 10SM CLR 06/M04 A2990 RMK AO2 PK WND 33026/2119 SLP142 T00611044,KPIR,2025-01-27T21:53:00Z,44.3819,-100.286,6.1,-4.4,310,14,24,10+,29.90,1014.2,,TRUE,TRUE,,,,,,,CLR,,,,,,,,VFR,,,,,,,,,,,,METAR,524
KPIL 272153Z AUTO 06011KT 10SM CLR 22/18 A3006 RMK AO2 SLP177 T02220183,KPIL,2025-01-27T21:53:00Z,26.1597,-97.3378,22.2,18.3,60,11,,10+,30.06,1017.7,,TRUE,TRUE,,,,,,,CLR,,,,,,,,VFR,,,,,,,,,,,,METAR,5
KPIH 272153Z 25005KT 10SM CLR M05/M13 A3025 RMK AO2 SLP312 T10501133,KPIH,2025-01-27T21:53:00Z,42.9197,-112.572,-5,-13.3,250,5,,10+,30.25,1031.2,,,TRUE,,,,,,,CLR,,,,,,,,VFR,,,,,,,,,,,,METAR,1357
KPIE 272153Z 30007KT 10SM CLR 22/11 A3013 RMK AO2 SLP201 T02170106,KPIE,2025-01-27T21:53:00Z,27.9126,-82.6855,21.7,10.6,300,7,,10+,30.13,1020.1,,,TRUE,,,,,,,CLR,,,,,,,,VFR,,,,,,,,,,,,METAR,1
KPHD 272153Z AUTO 22009G17KT 140V260 10SM CLR 00/M13 A2986 RMK AO2 SLP126 T00001128 PWINO FZRANO,KPHD,2025-01-27T21:53:00Z,40.4703,-81.4218,0,-12.8,220,9,17,10+,29.86,1012.6,,TRUE,TRUE,,,,TRUE,TRUE,,CLR,,,,,,,,VFR,,,,,,,,,,,,METAR,272
KPGD 272153Z 27006KT 10SM CLR 23/11 A3012 RMK AO2 SLP199 T02330106 $,KPGD,2025-01-27T21:53:00Z,26.9185,-81.9939,23.3,10.6,270,6,,10+,30.12,1019.9,,,TRUE,TRUE,,,,,,CLR,,,,,,,,VFR,,,,,,,,,,,,METAR,7
KPGA 272153Z AUTO 34006KT 10SM CLR 08/M11 A2997 RMK AO2 SLP148 T00781106,KPGA,2025-01-27T21:53:00Z,36.9211,-111.449,7.8,-10.6,340,6,,10+,29.97,1014.8,,TRUE,TRUE,,,,,,,CLR,,,,,,,,VFR,,,,,,,,,,,,METAR,1310
KPEO 272153Z AUTO 22018G33KT 10SM CLR 01/M16 A2958 RMK AO2 PK WND 21036/2128 SLP028 T00111156,KPEO,2025-01-27T21:53:00Z,42.6441,-77.0528,1.1,-15.6,220,18,33,10+,29.58,1002.8,,TRUE,TRUE,,,,,,,CLR,,,,,,,,VFR,,,,,,,,,,,,METAR,268
KPDX 272153Z 00000KT 10SM CLR 09/M04 A3030 RMK AO2 SLP261 T00941044,KPDX,2025-01-27T21:53:00Z,45.5958,-122.609,9.4,-4.4,0,0,,10+,30.30,1026.1,,,TRUE,,,,,,,CLR,,,,,,,,VFR,,,,,,,,,,,,METAR,7
KPDT 272153Z 29004KT 10SM CLR 04/M04 A3039 RMK AO2 SLP301 T00441044,KPDT,2025-01-27T21:53:00Z,45.6975,-118.834,4.4,-4.4,290,4,,10+,30.39,1030.1,,,TRUE,,,,,,,CLR,,,,,,,,VFR,,,,,,,,,,,,METAR,453
KPDK 272153Z AUTO 27005KT 4SM BR OVC005 09/08 A3004 RMK AO2 SLP177 T00940083,KPDK,2025-01-27T21:53:00Z,33.8783,-84.298,9.4,8.3,270,5,,4,30.04,1017.7,,TRUE,TRUE,,,,,,BR,OVC,500,,,,,,,IFR,,,,,,,,,,,,METAR,299
KPBI 272153Z 07007KT 10SM SCT046 21/14 A3011 RMK AO2 SLP195 T02110139,KPBI,2025-01-27T21:53:00Z,26.6851,-80.0992,21.1,13.9,70,7,,10+,30.11,1019.5,,,TRUE,,,,,,,SCT,4600,,,,,,,VFR,,,,,,,,,,,,METAR,4
KPBG 272153Z AUTO 19008G17KT 10SM CLR 04/M14 A2939 RMK AO2 PK WND 18028/2058 SLP954 T00391139,KPBG,2025-01-27T21:53:00Z,44.6392,-73.4631,3.9,-13.9,190,8,17,10+,29.39,995.4,,TRUE,TRUE,,,,,,,CLR,,,,,,,,VFR,,,,,,,,,,,,METAR,61
KPBF 272153Z AUTO 00000KT 10SM CLR 11/M01 A3019 RMK AO2 SLP222 T01111006,KPBF,2025-01-27T21:53:00Z,34.1798,-91.9344,11.1,-0.6,0,0,,10+,30.19,1022.2,,TRUE,TRUE,,,,,,,CLR,,,,,,,,VFR,,,,,,,,,,,,METAR,63
KPAH 272153Z 28008KT 230V300 10SM CLR 06/M09 A3010 RMK AO2 SLP197 T00611094,KPAH,2025-01-27T21:53:00Z,37.0652,-88.7793,6.1,-9.4,280,8,,10+,30.10,1019.7,,,TRUE,,,,,,,CLR,,,,,,,,VFR,,,,,,,,,,,,METAR,125
KPAE 272153Z 36005KT 10SM CLR 06/M03 A3033 RMK AO2 SLP277 T00611033,KPAE,2025-01-27T21:53:00Z,47.9232,-122.283,6.1,-3.3,360,5,,10+,30.33,1027.7,,,TRUE,,,,,,,CLR,,,,,,,,VFR,,,,,,,,,,,,METAR,166
KOXB 272153Z AUTO 10SM CLR 04/M03 A2993 RMK AO2 SLP136 T00391028,KOXB,2025-01-27T21:53:00Z,38.3091,-75.1234,3.9,-2.8,,,,10+,29.93,1013.6,,TRUE,TRUE,,,,,,,CLR,,,,,,,,VFR,,,,,,,,,,,,METAR,2
KOWD 272153Z 21011G21KT 10SM CLR 03/M09 A2971 RMK AO2 SLP060 T00281094,KOWD,2025-01-27T21:53:00Z,42.1912,-71.1732,2.8,-9.4,210,11,21,10+,29.71,1006,,,TRUE,,,,,,,CLR,,,,,,,,VFR,,,,,,,,,,,,METAR,14
KOVS 272153Z AUTO 25014G27KT 8SM -RA OVC032 04/M06 A2972 RMK AO2 PK WND 27040/2126 RAB20 SLP072 P0000 T00441056,KOVS,2025-01-27T21:53:00Z,43.1561,-90.6775,4.4,-5.6,250,14,27,8,29.72,1007.2,,TRUE,TRUE,,,,,,-RA,OVC,3200,,,,,,,VFR,,,,,,0.005,,,,,,METAR,205
KOVE 272153Z AUTO 31014G23KT 10SM CLR 17/M03 A3011 RMK AO2 SLP198 T01721033,KOVE,2025-01-27T21:53:00Z,39.4943,-121.622,17.2,-3.3,310,14,23,10+,30.11,1019.8,,TRUE,TRUE,,,,,,,CLR,,,,,,,,VFR,,,,,,,,,,,,METAR,56
KOTM 272153Z AUTO 25017G28KT 10SM CLR 08/M12 A2983 RMK AO2 PK WND 24033/2117 SLP110 T00831117,KOTM,2025-01-27T21:53:00Z,41.1008,-92.4445,8.3,-11.7,250,17,28,10+,29.83,1011,,TRUE,TRUE,,,,,,,CLR,,,,,,,,VFR,,,,,,,,,,,,METAR,254
KOSU 272153Z 21013G21KT 10SM CLR 01/M12 A2989 RMK AO2 PK WND 22026/2101 SLP133 T00111117,KOSU,2025-01-27T21:53:00Z,40.0784,-83.0782,1.1,-11.7,210,13,21,10+,29.89,1013.3,,,TRUE,,,,,,,CLR,,,,,,,,VFR,,,,,,,,,,,,METAR,276
KOSH 272153Z 27015G32KT 10SM BKN055 OVC075 04/M08 A2952 RMK AO2 PK WND 25032/2144 SLPNO T00391083,KOSH,2025-01-27T21:53:00Z,43.9669,-88.5582,3.9,-8.3,270,15,32,10+,29.52,,,,TRUE,,,,,,,BKN,5500,OVC,7500,,,,,VFR,,,,,,,,,,,,METAR,239
KORL 272153Z 25005KT 10SM CLR 22/10 A3011 RMK AO2 SLP199 T02170100,KORL,2025-01-27T21:53:00Z,28.5465,-81.3354,21.7,10,250,5,,10+,30.11,1019.9,,,TRUE,,,,,,,CLR,,,,,,,,VFR,,,,,,,,,,,,METAR,32
KOQT 272153Z AUTO VRB03KT 10SM CLR 08/01 A3004 RMK AO2 SLP179 T00830011,KOQT,2025-01-27T21:53:00Z,36.023,-84.2336,8.3,1.1,VRB,3,,10+,30.04,1017.9,,TRUE,TRUE,,,,,,,CLR,,,,,,,,VFR,,,,,,,,,,,,METAR,276
KOPF 272153Z 10009KT 10SM SCT055 SCT065 23/14 A3010 RMK AO2 SLP194 T02280144,KOPF,2025-01-27T21:53:00Z,25.9102,-80.2828,22.8,14.4,100,9,,10+,30.10,1019.4,,,TRUE,,,,,,,SCT,5500,SCT,6500,,,,,VFR,,,,,,,,,,,,METAR,1
KONT 272153Z 32009KT 10SM SCT060 BKN080 BKN100 13/02 A3006 RMK AO2 SLP180 T01330022,KONT,2025-01-27T21:53:00Z,34.0531,-117.577,13.3,2.2,320,9,,10+,30.06,1018,,,TRUE,,,,,,,SCT,6000,BKN,8000,BKN,10000,,,VFR,,,,,,,,,,,,METAR,279
KONO 272153Z AUTO 06003KT 10SM CLR 03/M11 A3037 RMK AO2 SLP311 T00281106,KONO,2025-01-27T21:53:00Z,44.0143,-117.008,2.8,-10.6,60,3,,10+,30.37,1031.1,,TRUE,TRUE,,,,,,,CLR,,,,,,,,VFR,,,,,,,,,,,,METAR,668
KOMK 272153Z AUTO 35008KT 10SM CLR M01/M06 A3045 RMK AO2 SLP334 T10061056 $,KOMK,2025-01-27T21:53:00Z,48.4611,-119.521,-0.6,-5.6,350,8,,10+,30.45,1033.4,,TRUE,TRUE,TRUE,,,,,,CLR,,,,,,,,VFR,,,,,,,,,,,,METAR,395
KOLF 272153Z AUTO 27013KT 10SM CLR 04/M03 A2998 RMK AO2 SLP178 T00391033,KOLF,2025-01-27T21:53:00Z,48.0942,-105.578,3.9,-3.3,270,13,,10+,29.98,1017.8,,TRUE,TRUE,,,,,,,CLR,,,,,,,,VFR,,,,,,,,,,,,METAR,605
KOJC 272153Z 24013G24KT 10SM CLR 07/M06 A3004 RMK AO2 PK WND 25028/2131 SLP181 T00721056,KOJC,2025-01-27T21:53:00Z,38.85,-94.7395,7.2,-5.6,240,13,24,10+,30.04,1018.1,,,TRUE,,,,,,,CLR,,,,,,,,VFR,,,,,,,,,,,,METAR,328
KOGD 272153Z 32006KT 10SM CLR 04/M10 A3014 RMK AO2 SLP216 T00441100,KOGD,2025-01-27T21:53:00Z,41.1941,-112.017,4.4,-10,320,6,,10+,30.14,1021.6,,,TRUE,,,,,,,CLR,,,,,,,,VFR,,,,,,,,,,,,METAR,1356
KOGB 272153Z AUTO 21008KT 6SM BR OVC009 09/09 A3004 RMK AO2 CIG 006V012 SLP174 T00940089,KOGB,2025-01-27T21:53:00Z,33.4637,-80.8534,9.4,8.9,210,8,,6,30.04,1017.4,,TRUE,TRUE,,,,,,BR,OVC,900,,,,,,,IFR,,,,,,,,,,,,METAR,59
KODX 272153Z AUTO 31012G23KT 10SM CLR 13/M12 A2989 RMK AO2 SLP140 T01331117,KODX,2025-01-27T21:53:00Z,41.6234,-98.9489,13.3,-11.7,310,12,23,10+,29.89,1014,,TRUE,TRUE,,,,,,,CLR,,,,,,,,VFR,,,,,,,,,,,,METAR,628
KODO 272153Z AUTO 13006KT 10SM OVC029 07/M07 A3015 RMK AO2 SLP206 T00721072,KODO,2025-01-27T21:53:00Z,31.925,-102.387,7.2,-7.2,130,6,,10+,30.15,1020.6,,TRUE,TRUE,,,,,,,OVC,2900,,,,,,,MVFR,,,,,,,,,,,,METAR,912
KOAK 272153Z 21004KT 10SM CLR 14/M01 A3015 RMK AO2 SLP208 T01441006,KOAK,2025-01-27T21:53:00Z,37.7178,-122.233,14.4,-0.6,210,4,,10+,30.15,1020.8,,,TRUE,,,,,,,CLR,,,,,,,,VFR,,,,,,,,,,,,METAR,3
KNUW 272153Z 32007KT 10SM CLR 07/00 A3035 RMK AO2 SLP282 T00720000 $,KNUW,2025-01-27T21:53:00Z,48.355,-122.664,7.2,0,320,7,,10+,30.35,1028.2,,,TRUE,TRUE,,,,,,CLR,,,,,,,,VFR,,,,,,,,,,,,METAR,14
KNUI 272153Z AUTO 11004KT 10SM CLR 07/M03 A2989 RMK AO2 SLP122 T00671033,KNUI,2025-01-27T21:53:00Z,38.152,-76.432,6.7,-3.3,110,4,,10+,29.89,1012.2,,TRUE,TRUE,,,,,,,CLR,,,,,,,,VFR,,,,,,,,,,,,METAR,4
KNRS 272153Z 28008KT 10SM SCT032 BKN070 13/07 A3010 RMK AO2 SLP191 T01330072 $,KNRS,2025-01-27T21:53:00Z,32.563,-117.111,13.3,7.2,280,8,,10+,30.10,1019.1,,,TRUE,TRUE,,,,,,SCT,3200,BKN,7000,,,,,VFR,,,,,,,,,,,,METAR,15
KNQX 272153Z 10011KT 10SM FEW020 24/18 A3008 RMK AO2 SLP185 T02390183 $,KNQX,2025-01-27T21:53:00Z,24.5801,-81.6829,23.9,18.3,100,11,,10+,30.08,1018.5,,,TRUE,TRUE,,,,,,FEW,2000,,,,,,,VFR,,,,,,,,,,,,METAR,2
KNIP 272153Z 26010KT 10SM SCT050 SCT110 BKN250 22/09 A3009 RMK AO2 SLP186 T02220089,KNIP,2025-01-27T21:53:00Z,30.2346,-81.6746,22.2,8.9,260,10,,10+,30.09,1018.6,,,TRUE,,,,,,,SCT,5000,SCT,11000,BKN,25000,,,VFR,,,,,,,,,,,,METAR,3
KNEW 272153Z 29008KT 10SM OVC010 12/11 A3014 RMK AO2 SLP199 T01220106,KNEW,2025-01-27T21:53:00Z,30.0494,-90.029,12.2,10.6,290,8,,10+,30.14,1019.9,,,TRUE,,,,,,,OVC,1000,,,,,,,MVFR,,,,,,,,,,,,METAR,1
KMYV 272153Z AUTO 34013G24KT 10SM CLR 17/M03 A3010 RMK AO2 SLP196 T01721033,KMYV,2025-01-27T21:53:00Z,39.102,-121.569,17.2,-3.3,340,13,24,10+,30.10,1019.6,,TRUE,TRUE,,,,,,,CLR,,,,,,,,VFR,,,,,,,,,,,,METAR,18
KMYF 272153Z COR 26007KT 10SM FEW035 FEW050 FEW075 13/05 A3008 RMK AO2 SLP185 T01330050,KMYF,2025-01-27T21:53:00Z,32.8145,-117.137,13.3,5,260,7,,10+,30.08,1018.5,TRUE,,TRUE,,,,,,,FEW,3500,FEW,5000,FEW,7500,,,VFR,,,,,,,,,,,,METAR,128
KMWT 272153Z AUTO 00000KT 10SM CLR 13/M02 A3014 RMK AO2 SLP210 T01281017,KMWT,2025-01-27T21:53:00Z,34.5466,-93.5779,12.8,-1.7,0,0,,10+,30.14,1021,,TRUE,TRUE,,,,,,,CLR,,,,,,,,VFR,,,,,,,,,,,,METAR,220
KMWL 272153Z AUTO 35004KT 10SM CLR 12/M08 A3017 RMK AO2 SLP217 T01221083,KMWL,2025-01-27T21:53:00Z,32.7816,-98.0602,12.2,-8.3,350,4,,10+,30.17,1021.7,,TRUE,TRUE,,,,,,,CLR,,,,,,,,VFR,,,,,,,,,,,,METAR,288
KMVY 272153Z 23011G21KT 10SM CLR 02/M07 A2979 RMK AO2 SLP088 T00221067,KMVY,2025-01-27T21:53:00Z,41.393,-70.6159,2.2,-6.7,230,11,21,10+,29.79,1008.8,,,TRUE,,,,,,,CLR,,,,,,,,VFR,,,,,,,,,,,,METAR,18
KMTO 272153Z AUTO 22008G18KT 10SM CLR 02/M06 A2995 RMK AO2 SLP151 T00221056 $,KMTO,2025-01-27T21:53:00Z,39.4744,-88.2724,2.2,-5.6,220,8,18,10+,29.95,1015.1,,TRUE,TRUE,TRUE,,,,,,CLR,,,,,,,,VFR,,,,,,,,,,,,METAR,216
KMTJ 272153Z AUTO 31007KT 10SM CLR 07/M14 A3001 RMK AO2 SLP168 T00671144,KMTJ,2025-01-27T21:53:00Z,38.5054,-107.898,6.7,-14.4,310,7,,10+,30.01,1016.8,,TRUE,TRUE,,,,,,,CLR,,,,,,,,VFR,,,,,,,,,,,,METAR,1755
KMTH 272153Z AUTO 06006KT 10SM FEW075 22/18 A3009 RMK AO2 SLP189 T02220178 $,KMTH,2025-01-27T21:53:00Z,24.7262,-81.0477,22.2,17.8,60,6,,10+,30.09,1018.9,,TRUE,TRUE,TRUE,,,,,,FEW,7500,,,,,,,VFR,,,,,,,,,,,,METAR,1
KMSY 272153Z 31009KT 10SM OVC009 16/14 A3014 RMK AO2 SLP210 T01560144,KMSY,2025-01-27T21:53:00Z,29.9974,-90.2777,15.6,14.4,310,9,,10+,30.14,1021,,,TRUE,,,,,,,OVC,900,,,,,,,IFR,,,,,,,,,,,,METAR,
KMSS 272153Z AUTO 22029G39KT 10SM SCT110 01/M11 A2934 RMK AO2 PK WND 24049/2132 SLP941 T00111106,KMSS,2025-01-27T21:53:00Z,44.9334,-74.8484,1.1,-10.6,220,29,39,10+,29.34,994.1,,TRUE,TRUE,,,,,,,SCT,11000,,,,,,,VFR,,,,,,,,,,,,METAR,60
KMSP 272153Z 28014G21KT 10SM SCT085 03/M07 A2967 RMK AO2 SLP058 T00281067,KMSP,2025-01-27T21:53:00Z,44.8852,-93.2313,2.8,-6.7,280,14,21,10+,29.67,1005.8,,,TRUE,,,,,,,SCT,8500,,,,,,,VFR,,,,,,,,,,,,METAR,255
KMSO 272153Z 00000KT 10SM CLR M07/M13 A3034 RMK AO2 SLP335 T10721133,KMSO,2025-01-27T21:53:00Z,46.9208,-114.094,-7.2,-13.3,0,0,,10+,30.34,1033.5,,,TRUE,,,,,,,CLR,,,,,,,,VFR,,,,,,,,,,,,METAR,974
KMSN 272153Z 28008G28KT 10SM OVC070 06/M12 A2963 RMK AO2 PK WND 28028/2147 SLP043 T00561117,KMSN,2025-01-27T21:53:00Z,43.1407,-89.3452,5.6,-11.7,280,8,28,10+,29.63,1004.3,,,TRUE,,,,,,,OVC,7000,,,,,,,VFR,,,,,,,,,,,,METAR,262
KMSL 272153Z AUTO 31010KT 10SM CLR 11/M05 A3011 RMK AO2 SLP197 T01061050,KMSL,2025-01-27T21:53:00Z,34.7439,-87.5997,10.6,-5,310,10,,10+,30.11,1019.7,,TRUE,TRUE,,,,,,,CLR,,,,,,,,VFR,,,,,,,,,,,,METAR,170
KMRB 272153Z 23006KT 10SM CLR 08/M09 A2984 RMK AO2 SLP107 T00781094,KMRB,2025-01-27T21:53:00Z,39.4037,-77.975,7.8,-9.4,230,6,,10+,29.84,1010.7,,,TRUE,,,,,,,CLR,,,,,,,,VFR,,,,,,,,,,,,METAR,165
KMPO 272153Z AUTO 22010G19KT 10SM CLR M02/M14 A2969 RMK AO2 PK WND 22026/2142 SLP080 T10171144,KMPO,2025-01-27T21:53:00Z,41.1368,-75.3771,-1.7,-14.4,220,10,19,10+,29.69,1008,,TRUE,TRUE,,,,,,,CLR,,,,,,,,VFR,,,,,,,,,,,,METAR,576
KMOD 272153Z 36006KT 10SM CLR 14/M02 A3012 RMK AO2 SLP200 T01441017,KMOD,2025-01-27T21:53:00Z,37.6254,-120.955,14.4,-1.7,360,6,,10+,30.12,1020,,,TRUE,,,,,,,CLR,,,,,,,,VFR,,,,,,,,,,,,METAR,25
KMNN 272153Z AUTO 23018G28KT 10SM CLR M01/M12 A2983 RMK AO2 PK WND 22029/2100 SLP115 T10061117,KMNN,2025-01-27T21:53:00Z,40.6158,-83.0673,-0.6,-11.7,230,18,28,10+,29.83,1011.5,,TRUE,TRUE,,,,,,,CLR,,,,,,,,VFR,,,,,,,,,,,,METAR,301
KMMV 272153Z AUTO VRB03KT 10SM CLR 10/M05 A3028 RMK AO2 SLP253 T01001050,KMMV,2025-01-27T21:53:00Z,45.1957,-123.134,10,-5,VRB,3,,10+,30.28,1025.3,,TRUE,TRUE,,,,,,,CLR,,,,,,,,VFR,,,,,,,,,,,,METAR,48
KMMK 272153Z AUTO 20009G15KT 10SM CLR 03/M12 A2975 RMK AO2 SLP076 T00331117,KMMK,2025-01-27T21:53:00Z,41.5097,-72.8278,3.3,-11.7,200,9,15,10+,29.75,1007.6,,TRUE,TRUE,,,,,,,CLR,,,,,,,,VFR,,,,,,,,,,,,METAR,30
KMLU 272153Z 00000KT 10SM CLR 14/05 A3019 RMK AO2 SLP221 T01440050,KMLU,2025-01-27T21:53:00Z,32.5155,-92.03,14.4,5,0,0,,10+,30.19,1022.1,,,TRUE,,,,,,,CLR,,,,,,,,VFR,,,,,,,,,,,,METAR,22
KMLT 272153Z AUTO 21008KT 140V260 10SM FEW120 M01/M11 A2940 RMK AO2 SLP967 T10111111,KMLT,2025-01-27T21:53:00Z,45.6478,-68.6925,-1.1,-11.1,210,8,,10+,29.40,996.7,,TRUE,TRUE,,,,,,,FEW,12000,,,,,,,VFR,,,,,,,,,,,,METAR,121
KMLS 272153Z AUTO 23007KT 10SM CLR 03/M04 A3002 RMK AO2 SLP190 T00331039,KMLS,2025-01-27T21:53:00Z,46.4265,-105.883,3.3,-3.9,230,7,,10+,30.02,1019,,TRUE,TRUE,,,,,,,CLR,,,,,,,,VFR,,,,,,,,,,,,METAR,800
KMLP 272153Z AUTO 00000KT 10SM CLR M03/M13 A3020 RMK AO2 SLP283 T10281133,KMLP,2025-01-27T21:53:00Z,47.4548,-115.671,-2.8,-13.3,0,0,,10+,30.20,1028.3,,TRUE,TRUE,,,,,,,CLR,,,,,,,,VFR,,,,,,,,,,,,METAR,1837
KMLC 272153Z AUTO 10SM CLR 11/M12 A3018 RMK AO2 SLP220 T01061117 $,KMLC,2025-01-27T21:53:00Z,34.8824,-95.7815,10.6,-11.7,,,,10+,30.18,1022,,TRUE,TRUE,TRUE,,,,,,CLR,,,,,,,,VFR,,,,,,,,,,,,METAR,231
KMLB 272153Z 12008KT 10SM CLR 20/11 A3011 RMK AO2 SLP194 T02000111,KMLB,2025-01-27T21:53:00Z,28.0997,-80.6356,20,11.1,120,8,,10+,30.11,1019.4,,,TRUE,,,,,,,CLR,,,,,,,,VFR,,,,,,,,,,,,METAR,7
KMKO 272153Z AUTO 21007KT 10SM CLR 10/M09 A3021 RMK AO2 SLP231 T01001089,KMKO,2025-01-27T21:53:00Z,35.6576,-95.3658,10,-8.9,210,7,,10+,30.21,1023.1,,TRUE,TRUE,,,,,,,CLR,,,,,,,,VFR,,,,,,,,,,,,METAR,184
KMKL 272153Z 27005KT 10SM CLR 08/M07 A3015 RMK AO2 SLP209 T00831072 $,KMKL,2025-01-27T21:53:00Z,35.5933,-88.917,8.3,-7.2,270,5,,10+,30.15,1020.9,,,TRUE,TRUE,,,,,,CLR,,,,,,,,VFR,,,,,,,,,,,,METAR,130
KMIW 272153Z AUTO 26023G33KT 10SM SCT110 09/M13 A2977 RMK AO2 PK WND 26033/2124 SLP091 T00891128,KMIW,2025-01-27T21:53:00Z,42.1106,-92.9163,8.9,-12.8,260,23,33,10+,29.77,1009.1,,TRUE,TRUE,,,,,,,SCT,11000,,,,,,,VFR,,,,,,,,,,,,METAR,296
KMIE 272153Z 25012G25KT 10SM CLR 03/M10 A2987 RMK AO2 PK WND 24031/2116 SLP120 T00281100,KMIE,2025-01-27T21:53:00Z,40.2345,-85.3936,2.8,-10,250,12,25,10+,29.87,1012,,,TRUE,,,,,,,CLR,,,,,,,,VFR,,,,,,,,,,,,METAR,286
KMIC 272153Z AUTO 27013G26KT 10SM FEW085 03/M06 A2967 RMK AO2 PK WND 26026/2151 SLP057 T00281056,KMIC,2025-01-27T21:53:00Z,45.0623,-93.3511,2.8,-5.6,270,13,26,10+,29.67,1005.7,,TRUE,TRUE,,,,,,,FEW,8500,,,,,,,VFR,,,,,,,,,,,,METAR,263
KMIA 272153Z 12007KT 10SM SCT060 SCT250 23/15 A3010 RMK AO2 SLP191 T02330150,KMIA,2025-01-27T21:53:00Z,25.7881,-80.3169,23.3,15,120,7,,10+,30.10,1019.1,,,TRUE,,,,,,,SCT,6000,SCT,25000,,,,,VFR,,,,,,,,,,,,METAR,1
KMHT 272153Z 20011G20KT 10SM BKN250 02/M11 A2961 RMK AO2 SLP044 T00221106,KMHT,2025-01-27T21:53:00Z,42.9245,-71.4377,2.2,-10.6,200,11,20,10+,29.61,1004.4,,,TRUE,,,,,,,BKN,25000,,,,,,,VFR,,,,,,,,,,,,METAR,68
KMHE 272153Z AUTO 30015KT 10SM CLR 07/M07 A2986 RMK AO2 SLP125 T00721072,KMHE,2025-01-27T21:53:00Z,43.7743,-98.0384,7.2,-7.2,300,15,,10+,29.86,1012.5,,TRUE,TRUE,,,,,,,CLR,,,,,,,,VFR,,,,,,,,,,,,METAR,397
KMGY 272153Z AUTO 24012G22KT 10SM CLR 02/M13 A2991 RMK AO2 SLP140 T00221128,KMGY,2025-01-27T21:53:00Z,39.5918,-84.2263,2.2,-12.8,240,12,22,10+,29.91,1014,,TRUE,TRUE,,,,,,,CLR,,,,,,,,VFR,,,,,,,,,,,,METAR,290
KMGW 272153Z 23010G16KT 10SM CLR 04/M12 A2988 RMK AO2 PK WND 20026/2105 SLP127 T00391117,KMGW,2025-01-27T21:53:00Z,39.6498,-79.9206,3.9,-11.7,230,10,16,10+,29.88,1012.7,,,TRUE,,,,,,,CLR,,,,,,,,VFR,,,,,,,,,,,,METAR,375
KMFR 272153Z 00000KT 10SM CLR 09/M11 A3023 RMK AO2 SLP245 T00941111,KMFR,2025-01-27T21:53:00Z,42.375,-122.877,9.4,-11.1,0,0,,10+,30.23,1024.5,,,TRUE,,,,,,,CLR,,,,,,,,VFR,,,,,,,,,,,,METAR,397
KMDW 272153Z 24015G30KT 10SM BKN150 BKN250 07/M11 A2972 RMK AO2 PK WND 25033/2138 SLP076 T00671111,KMDW,2025-01-27T21:53:00Z,41.7841,-87.7551,6.7,-11.1,240,15,30,10+,29.72,1007.6,,,TRUE,,,,,,,BKN,15000,BKN,25000,,,,,VFR,,,,,,,,,,,,METAR,186
KMCW 272153Z AUTO 28018G28KT 10SM OVC055 05/M11 A2974 RMK AO2 PK WND 29028/2144 SLP080 T00501111,KMCW,2025-01-27T21:53:00Z,43.1543,-93.3262,5,-11.1,280,18,28,10+,29.74,1008,,TRUE,TRUE,,,,,,,OVC,5500,,,,,,,VFR,,,,,,,,,,,,METAR,363
KMCO 272153Z 00000KT 10SM FEW050 FEW250 BKN300 22/11 A3011,KMCO,2025-01-27T21:53:00Z,28.4182,-81.3241,22,11,0,0,,10+,30.11,,,,,,,,,,,FEW,5000,FEW,25000,BKN,30000,,,VFR,,,,,,,,,,,,METAR,27
KMCN 272153Z 23004KT 10SM OVC006 10/09 A3006 RMK AO2 SLP178 T01000094,KMCN,2025-01-27T21:53:00Z,32.6889,-83.6529,10,9.4,230,4,,10+,30.06,1017.8,,,TRUE,,,,,,,OVC,600,,,,,,,IFR,,,,,,,,,,,,METAR,104
KMCK 272153Z AUTO 29012G19KT 10SM CLR 14/M13 A2997 RMK AO2 SLP166 T01441128,KMCK,2025-01-27T21:53:00Z,40.204,-100.59,14.4,-12.8,290,12,19,10+,29.97,1016.6,,TRUE,TRUE,,,,,,,CLR,,,,,,,,VFR,,,,,,,,,,,,METAR,780
KMCI 272153Z 24017G29KT 10SM CLR 06/M04 A3000 RMK AO2 PK WND 23029/2148 SLP167 T00611044,KMCI,2025-01-27T21:53:00Z,39.2975,-94.7309,6.1,-4.4,240,17,29,10+,30.00,1016.7,,,TRUE,,,,,,,CLR,,,,,,,,VFR,,,,,,,,,,,,METAR,308
KMCE 272153Z AUTO 24003KT 10SM CLR 13/M01 A3013 RMK AO2 SLP204 T01281011,KMCE,2025-01-27T21:53:00Z,37.286,-120.518,12.8,-1.1,240,3,,10+,30.13,1020.4,,TRUE,TRUE,,,,,,,CLR,,,,,,,,VFR,,,,,,,,,,,,METAR,49
KMBS 272153Z AUTO 24021G35KT 10SM SCT060 01/M07 A2950 RMK AO2 PK WND 24035/2150 SLP996 T00111072,KMBS,2025-01-27T21:53:00Z,43.5281,-84.0813,1.1,-7.2,240,21,35,10+,29.50,999.6,,TRUE,TRUE,,,,,,,SCT,6000,,,,,,,VFR,,,,,,,,,,,,METAR,201
KMAI 272153Z AUTO 19004KT 10SM OVC037 15/14 A3007 RMK AO2 RAE02 SLP181 P0000 T01500139,KMAI,2025-01-27T21:53:00Z,30.837,-85.1835,15,13.9,190,4,,10+,30.07,1018.1,,TRUE,TRUE,,,,,,,OVC,3700,,,,,,,VFR,,,,,,0.005,,,,,,METAR,33
KMAF 272153Z 11005KT 10SM FEW025 OVC031 06/M06 A3015 RMK AO2 SLP206 T00611061,KMAF,2025-01-27T21:53:00Z,31.9475,-102.209,6.1,-6.1,110,5,,10+,30.15,1020.6,,,TRUE,,,,,,,FEW,2500,OVC,3100,,,,,VFR,,,,,,,,,,,,METAR,874
KMAE 272153Z AUTO 34004KT 10SM CLR 13/M01 A3015 RMK AO2 SLP210 T01331006,KMAE,2025-01-27T21:53:00Z,36.9851,-120.111,13.3,-0.6,340,4,,10+,30.15,1021,,TRUE,TRUE,,,,,,,CLR,,,,,,,,VFR,,,,,,,,,,,,METAR,77
KLXV 272153Z AUTO 17007KT 10SM CLR M01/M19 A3008 RMK AO2 SLP188 T10061194,KLXV,2025-01-27T21:53:00Z,39.228,-106.316,-0.6,-19.4,170,7,,10+,30.08,1018.8,,TRUE,TRUE,,,,,,,CLR,,,,,,,,VFR,,,,,,,,,,,,METAR,3027
KLXT 272153Z AUTO 24019G26KT 10SM CLR 08/M07 A3003 RMK AO2 PK WND 27034/2141 SLP179 T00781067,KLXT,2025-01-27T21:53:00Z,38.9577,-94.3712,7.8,-6.7,240,19,26,10+,30.03,1017.9,,TRUE,TRUE,,,,,,,CLR,,,,,,,,VFR,,,,,,,,,,,,METAR,306
KLWV 272153Z AUTO 20013KT 10SM CLR 02/M05 A3004 RMK AO2 SLP176 T00171050 FZRANO $,KLWV,2025-01-27T21:53:00Z,38.7604,-87.599,1.7,-5,200,13,,10+,30.04,1017.6,,TRUE,TRUE,TRUE,,,TRUE,,,CLR,,,,,,,,VFR,,,,,,,,,,,,METAR,128
KLWD 272153Z AUTO 23018G27KT 10SM CLR 05/M08 A2988 RMK AO2 PK WND 24027/2130 SLP130 T00501078,KLWD,2025-01-27T21:53:00Z,40.6306,-93.9005,5,-7.8,230,18,27,10+,29.88,1013,,TRUE,TRUE,,,,,,,CLR,,,,,,,,VFR,,,,,,,,,,,,METAR,345
KLVS 272153Z AUTO 18014KT CLR A3005 RMK AO2 SLPNO PWINO FZRANO $,KLVS,2025-01-27T21:53:00Z,35.6558,-105.139,,,180,14,,,30.05,,,TRUE,TRUE,TRUE,,,TRUE,TRUE,,CLR,,,,,,,,,,,,,,,,,,,,METAR,2095
KLVM 272153Z AUTO 27012KT 10SM CLR M01/M09 A3015 RMK AO2 SLP250 T10061094,KLVM,2025-01-27T21:53:00Z,45.6984,-110.442,-0.6,-9.4,270,12,,10+,30.15,1025,,TRUE,TRUE,,,,,,,CLR,,,,,,,,VFR,,,,,,,,,,,,METAR,1418
KLVK 272153Z 00000KT 10SM CLR 15/M05 A3012 RMK AO2 SLP201 T01501050,KLVK,2025-01-27T21:53:00Z,37.6931,-121.815,15,-5,0,0,,10+,30.12,1020.1,,,TRUE,,,,,,,CLR,,,,,,,,VFR,,,,,,,,,,,,METAR,120
KLUK 272153Z 24011G19KT 10SM CLR 03/M10 A2999 RMK AO2 SLP161 T00331100,KLUK,2025-01-27T21:53:00Z,39.106,-84.4161,3.3,-10,240,11,19,10+,29.99,1016.1,,,TRUE,,,,,,,CLR,,,,,,,,VFR,,,,,,,,,,,,METAR,144
KLSE 272153Z 29009KT 10SM FEW039 BKN080 03/M06 A2968 RMK AO2 PK WND 30030/2110 SLP064 T00281061,KLSE,2025-01-27T21:53:00Z,43.8792,-91.253,2.8,-6.1,290,9,,10+,29.68,1006.4,,,TRUE,,,,,,,FEW,3900,BKN,8000,,,,,VFR,,,,,,,,,,,,METAR,198
KLPR 272153Z AUTO 23018G29KT 10SM CLR M01/M11 A2976 RMK AO2 PK WND 23032/2123 SLP087 T10111111 PWINO FZRANO $,KLPR,2025-01-27T21:53:00Z,41.3463,-82.1788,-1.1,-11.1,230,18,29,10+,29.76,1008.7,,TRUE,TRUE,TRUE,,,TRUE,TRUE,,CLR,,,,,,,,VFR,,,,,,,,,,,,METAR,241
KLOZ 272153Z AUTO 29009KT 10SM CLR 07/M11 A3001 RMK AO2 SLP166 T00721111,KLOZ,2025-01-27T21:53:00Z,37.0896,-84.0688,7.2,-11.1,290,9,,10+,30.01,1016.6,,TRUE,TRUE,,,,,,,CLR,,,,,,,,VFR,,,,,,,,,,,,METAR,361
KLOU 272153Z 23010KT 10SM CLR 04/M11 A3002 RMK AO2 SLP170 T00391106,KLOU,2025-01-27T21:53:00Z,38.2302,-85.6629,3.9,-10.6,230,10,,10+,30.02,1017,,,TRUE,,,,,,,CLR,,,,,,,,VFR,,,,,,,,,,,,METAR,165
KLOL 272153Z AUTO 00000KT 10SM CLR 04/M12 A3023 RMK AO2 SLP259 T00391122,KLOL,2025-01-27T21:53:00Z,40.0685,-118.57,3.9,-12.2,0,0,,10+,30.23,1025.9,,TRUE,TRUE,,,,,,,CLR,,,,,,,,VFR,,,,,,,,,,,,METAR,1191
KLNS 272153Z 24010KT 10SM CLR 05/M10 A2982 RMK AO2 SLP103 T00501100,KLNS,2025-01-27T21:53:00Z,40.1206,-76.2944,5,-10,240,10,,10+,29.82,1010.3,,,TRUE,,,,,,,CLR,,,,,,,,VFR,,,,,,,,,,,,METAR,122
KLND 272153Z AUTO 19003KT 10SM CLR M11/M15 A3014 RMK AO2 SLP301 T11111150,KLND,2025-01-27T21:53:00Z,42.8154,-108.726,-11.1,-15,190,3,,10+,30.14,1030.1,,TRUE,TRUE,,,,,,,CLR,,,,,,,,VFR,,,,,,,,,,,,METAR,1700
KLMT 272153Z 00000KT 10SM CLR 07/M13 A3023 RMK AO2 SLP250 T00671133,KLMT,2025-01-27T21:53:00Z,42.147,-121.726,6.7,-13.3,0,0,,10+,30.23,1025,,,TRUE,,,,,,,CLR,,,,,,,,VFR,,,,,,,,,,,,METAR,1246
KLLQ 272153Z AUTO 00000KT 10SM CLR 12/M01 A3018 RMK AO2 SLP219 T01171006,KLLQ,2025-01-27T21:53:00Z,33.636,-91.7555,11.7,-0.6,0,0,,10+,30.18,1021.9,,TRUE,TRUE,,,,,,,CLR,,,,,,,,VFR,,,,,,,,,,,,METAR,86
KLKV 272153Z AUTO 34005KT 10SM CLR 08/M18 A3022 RMK AO2 SLP256 T00781178,KLKV,2025-01-27T21:53:00Z,42.1538,-120.403,7.8,-17.8,340,5,,10+,30.22,1025.6,,TRUE,TRUE,,,,,,,CLR,,,,,,,,VFR,,,,,,,,,,,,METAR,1440
KLIT 272153Z 00000KT 10SM CLR 12/M04 A3018 RMK AO2 SLP221 T01171039,KLIT,2025-01-27T21:53:00Z,34.7273,-92.2358,11.7,-3.9,0,0,,10+,30.18,1022.1,,,TRUE,,,,,,,CLR,,,,,,,,VFR,,,,,,,,,,,,METAR,77
KLHX 272153Z AUTO 20004KT 10SM CLR 06/M03 A3003 RMK AO2 SLP183 T00561033 $,KLHX,2025-01-27T21:53:00Z,38.0495,-103.513,5.6,-3.3,200,4,,10+,30.03,1018.3,,TRUE,TRUE,TRUE,,,,,,CLR,,,,,,,,VFR,,,,,,,,,,,,METAR,1289
KLHQ 272153Z AUTO 23007KT 10SM CLR 01/M10 A2993 RMK AO2 SLP145 T00111100,KLHQ,2025-01-27T21:53:00Z,39.7573,-82.6633,1.1,-10,230,7,,10+,29.93,1014.5,,TRUE,TRUE,,,,,,,CLR,,,,,,,,VFR,,,,,,,,,,,,METAR,259
KLGB 272153Z VRB03KT 10SM SCT040 14/05 A3007 RMK AO2 SLP180 T01440050 $,KLGB,2025-01-27T21:53:00Z,33.8118,-118.147,14.4,5,VRB,3,,10+,30.07,1018,,,TRUE,TRUE,,,,,,SCT,4000,,,,,,,VFR,,,,,,,,,,,,METAR,10
KLFT 272153Z 01010KT 10SM SCT055 14/10 A3014 RMK AO2 SLP205 T01390100,KLFT,2025-01-27T21:53:00Z,30.1986,-91.9896,13.9,10,10,10,,10+,30.14,1020.5,,,TRUE,,,,,,,SCT,5500,,,,,,,VFR,,,,,,,,,,,,METAR,9
KLFK 272153Z AUTO 02004KT 10SM OVC010 11/08 A3019 RMK AO2 SLP221 T01110083,KLFK,2025-01-27T21:53:00Z,31.2359,-94.7546,11.1,8.3,20,4,,10+,30.19,1022.1,,TRUE,TRUE,,,,,,,OVC,1000,,,,,,,MVFR,,,,,,,,,,,,METAR,87
KLEE 272153Z 00000KT 10SM FEW055 21/11 A3012 RMK AO2 SLP198 T02110106,KLEE,2025-01-27T21:53:00Z,28.8214,-81.8006,21.1,10.6,0,0,,10+,30.12,1019.8,,,TRUE,,,,,,,FEW,5500,,,,,,,VFR,,,,,,,,,,,,METAR,21
KLEB 272153Z 21009KT 10SM CLR 03/M11 A2952 RMK AO2 SLP005 T00281106,KLEB,2025-01-27T21:53:00Z,43.6271,-72.3054,2.8,-10.6,210,9,,10+,29.52,1000.5,,,TRUE,,,,,,,CLR,,,,,,,,VFR,,,,,,,,,,,,METAR,169
KLBF 272153Z AUTO 30013KT 10SM CLR 13/M12 A2995 RMK AO2 SLP165 T01331117,KLBF,2025-01-27T21:53:00Z,41.122,-100.669,13.3,-11.7,300,13,,10+,29.95,1016.5,,TRUE,TRUE,,,,,,,CLR,,,,,,,,VFR,,,,,,,,,,,,METAR,843
KLBB 272153Z 17007KT 10SM FEW070 FEW250 10/M07 A3012 RMK AO2 SLP201 T01001067,KLBB,2025-01-27T21:53:00Z,33.6658,-101.823,10,-6.7,170,7,,10+,30.12,1020.1,,,TRUE,,,,,,,FEW,7000,FEW,25000,,,,,VFR,,,,,,,,,,,,METAR,996
KLAX 272153Z 26008KT 10SM FEW025 FEW060 SCT160 SCT250 14/07 A3008 RMK AO2 SLP187 T01390067,KLAX,2025-01-27T21:53:00Z,33.9382,-118.387,13.9,6.7,260,8,,10+,30.08,1018.7,,,TRUE,,,,,,,FEW,2500,FEW,6000,SCT,16000,SCT,25000,VFR,,,,,,,,,,,,METAR,30
KLAW 272153Z 21005KT 10SM CLR 10/M10 A3018 RMK AO2 SLP227 T01001100,KLAW,2025-01-27T21:53:00Z,34.5577,-98.4172,10,-10,210,5,,10+,30.18,1022.7,,,TRUE,,,,,,,CLR,,,,,,,,VFR,,,,,,,,,,,,METAR,328
KLAR 272153Z AUTO 01006KT 10SM CLR M09/M14 A3008 RMK AO2 SLP277 T10891144,KLAR,2025-01-27T21:53:00Z,41.3165,-105.673,-8.9,-14.4,10,6,,10+,30.08,1027.7,,TRUE,TRUE,,,,,,,CLR,,,,,,,,VFR,,,,,,,,,,,,METAR,2217
KLAN 272153Z COR 23023G35KT 7SM CLR 02/M11 A2960 RMK AO2 PK WND 23036/2115 SLP034 T00171111,KLAN,2025-01-27T21:53:00Z,42.7761,-84.5997,1.7,-11.1,230,23,35,7,29.60,1003.4,TRUE,,TRUE,,,,,,,CLR,,,,,,,,VFR,,,,,,,,,,,,METAR,261
KLAA 272153Z AUTO 23008KT 10SM CLR 08/M04 A3003 RMK AO2 SLP181 T00781044 $,KLAA,2025-01-27T21:53:00Z,38.0718,-102.687,7.8,-4.4,230,8,,10+,30.03,1018.1,,TRUE,TRUE,TRUE,,,,,,CLR,,,,,,,,VFR,,,,,,,,,,,,METAR,1129
KJLN 272153Z 23014KT 10SM CLR 07/M09 A3014 RMK AO2 SLP214 T00721089,KJLN,2025-01-27T21:53:00Z,37.1522,-94.4952,7.2,-8.9,230,14,,10+,30.14,1021.4,,,TRUE,,,,,,,CLR,,,,,,,,VFR,,,,,,,,,,,,METAR,297
KJKL 272153Z AUTO VRB06KT 10SM CLR 07/M11 A2998 RMK AO2 SLP157 T00721111,KJKL,2025-01-27T21:53:00Z,37.5913,-83.3137,7.2,-11.1,VRB,6,,10+,29.98,1015.7,,TRUE,TRUE,,,,,,,CLR,,,,,,,,VFR,,,,,,,,,,,,METAR,414
KJER 272153Z AUTO 32003KT 10SM CLR 00/M14 A3026 RMK AO2 SLP286 T00001144,KJER,2025-01-27T21:53:00Z,42.7274,-114.455,0,-14.4,320,3,,10+,30.26,1028.6,,TRUE,TRUE,,,,,,,CLR,,,,,,,,VFR,,,,,,,,,,,,METAR,1226
KJEF 272153Z 27013G23KT 10SM CLR 08/M07 A3005 RMK AO2 PK WND 24027/2123 SLP171 T00831072,KJEF,2025-01-27T21:53:00Z,38.5945,-92.1567,8.3,-7.2,270,13,23,10+,30.05,1017.1,,,TRUE,,,,,,,CLR,,,,,,,,VFR,,,,,,,,,,,,METAR,167
KJBR 272153Z AUTO 21008KT 10SM CLR 08/M06 A3015 RMK AO2 SLP212 T00781061 $,KJBR,2025-01-27T21:53:00Z,35.8357,-90.6442,7.8,-6.1,210,8,,10+,30.15,1021.2,,TRUE,TRUE,TRUE,,,,,,CLR,,,,,,,,VFR,,,,,,,,,,,,METAR,79
KIXD 272153Z 22017G24KT 10SM CLR 07/M05 A3006 RMK AO2 PK WND 23027/2137 SLP186 T00721050,KIXD,2025-01-27T21:53:00Z,38.8221,-94.8902,7.2,-5,220,17,24,10+,30.06,1018.6,,,TRUE,,,,,,,CLR,,,,,,,,VFR,,,,,,,,,,,,METAR,322
KIWI 272153Z AUTO 21014G23KT 10SM CLR 02/M08 A2956 RMK AO2 SLP012 T00221078,KIWI,2025-01-27T21:53:00Z,43.9639,-69.7114,2.2,-7.8,210,14,23,10+,29.56,1001.2,,TRUE,TRUE,,,,,,,CLR,,,,,,,,VFR,,,,,,,,,,,,METAR,16
KITR 272153Z AUTO 29005KT 10SM CLR 13/M18 A3002 RMK AO2 SLP174 T01281178,KITR,2025-01-27T21:53:00Z,39.2415,-102.282,12.8,-17.8,290,5,,10+,30.02,1017.4,,TRUE,TRUE,,,,,,,CLR,,,,,,,,VFR,,,,,,,,,,,,METAR,1285
KIPL 272153Z AUTO VRB04KT 10SM SCT065 BKN090 17/02 A3003 RMK AO2 SLP169 T01670017,KIPL,2025-01-27T21:53:00Z,32.8346,-115.577,16.7,1.7,VRB,4,,10+,30.03,1016.9,,TRUE,TRUE,,,,,,,SCT,6500,BKN,9000,,,,,VFR,,,,,,,,,,,,METAR,-16
KINK 272153Z AUTO 14007KT 10SM OVC027 08/M03 A3013 RMK AO2 SLP201 T00781028,KINK,2025-01-27T21:53:00Z,31.7801,-103.202,7.8,-2.8,140,7,,10+,30.13,1020.1,,TRUE,TRUE,,,,,,,OVC,2700,,,,,,,MVFR,,,,,,,,,,,,METAR,857
KIML 272153Z AUTO 31012G20KT 10SM CLR 12/M12 A2999 RMK AO2 SLP177 T01171117 TSNO,KIML,2025-01-27T21:53:00Z,40.5106,-101.624,11.7,-11.7,310,12,20,10+,29.99,1017.7,,TRUE,TRUE,,,TRUE,,,,CLR,,,,,,,,VFR,,,,,,,,,,,,METAR,997
KIDA 272153Z 33003KT 10SM CLR M08/M14 A3024 RMK AO2 SLP322 T10781139,KIDA,2025-01-27T21:53:00Z,43.5204,-112.068,-7.8,-13.9,330,3,,10+,30.24,1032.2,,,TRUE,,,,,,,CLR,,,,,,,,VFR,,,,,,,,,,,,METAR,1444
KICT 272153Z 22013KT 10SM CLR 09/M05 A3010 RMK AO2 SLP203 T00891050,KICT,2025-01-27T21:53:00Z,37.6475,-97.43,8.9,-5,220,13,,10+,30.10,1020.3,,,TRUE,,,,,,,CLR,,,,,,,,VFR,,,,,,,,,,,,METAR,428
KICR 272153Z AUTO 31014G21KT 10SM CLR 08/M04 A2989 RMK AO2 PK WND 30027/2056 SLP141 T00781044,KICR,2025-01-27T21:53:00Z,43.391,-99.8462,7.8,-4.4,310,14,21,10+,29.89,1014.1,,TRUE,TRUE,,,,,,,CLR,,,,,,,,VFR,,,,,,,,,,,,METAR,618
KIAH 272153Z 02009KT 10SM BKN012 OVC034 13/10 A3016 RMK AO2 SLP213 T01330100 $,KIAH,2025-01-27T21:53:00Z,29.9844,-95.3607,13.3,10,20,9,,10+,30.16,1021.3,,,TRUE,TRUE,,,,,,BKN,1200,OVC,3400,,,,,MVFR,,,,,,,,,,,,METAR,27
KIAG 272153Z 23028G40KT 10SM BLSN CLR 00/M11 A2954 RMK AO2 PK WND 23053/2107 SLP019 T00001106,KIAG,2025-01-27T21:53:00Z,43.1083,-78.9382,0,-10.6,230,28,40,10+,29.54,1001.9,,,TRUE,,,,,,BLSN,CLR,,,,,,,,VFR,,,,,,,,,,,,METAR,179
KHZY 272153Z AUTO 21014G25KT 10SM CLR 00/M13 A2969 RMK AO2 PK WND 20030/2111 SLP065 T00001133,KHZY,2025-01-27T21:53:00Z,41.7794,-80.6968,0,-13.3,210,14,25,10+,29.69,1006.5,,TRUE,TRUE,,,,,,,CLR,,,,,,,,VFR,,,,,,,,,,,,METAR,279
KHYR 272153Z AUTO VRB04KT 10SM OVC038 01/M08 A2956 RMK AO2 SLP028 T00061078,KHYR,2025-01-27T21:53:00Z,46.0303,-91.4426,0.6,-7.8,VRB,4,,10+,29.56,1002.8,,TRUE,TRUE,,,,,,,OVC,3800,,,,,,,VFR,,,,,,,,,,,,METAR,369
KHWO 272153Z 10009KT 10SM SCT055 23/14 A3010 RMK AO2 SLP193 T02330144,KHWO,2025-01-27T21:53:00Z,25.9996,-80.2412,23.3,14.4,100,9,,10+,30.10,1019.3,,,TRUE,,,,,,,SCT,5500,,,,,,,VFR,,,,,,,,,,,,METAR,2
KHVR 272153Z AUTO 22020KT 10SM CLR 02/M04 A3006 RMK AO2 PK WND 22026/2112 SLP203 T00221044,KHVR,2025-01-27T21:53:00Z,48.5425,-109.764,2.2,-4.4,220,20,,10+,30.06,1020.3,,TRUE,TRUE,,,,,,,CLR,,,,,,,,VFR,,,,,,,,,,,,METAR,789
KHVN 272153Z 23008G15KT 10SM CLR 03/M06 A2978 RMK AO2 SLP083 T00331056,KHVN,2025-01-27T21:53:00Z,41.259,-72.8891,3.3,-5.6,230,8,15,10+,29.78,1008.3,,,TRUE,,,,,,,CLR,,,,,,,,VFR,,,,,,,,,,,,METAR,4
KHUL 272153Z AUTO 20011G24KT 10SM BKN090 BKN110 M02/M12 A2935 RMK AO2 PK WND 20032/2107 SLP947 T10171122,KHUL,2025-01-27T21:53:00Z,46.1185,-67.7929,-1.7,-12.2,200,11,24,10+,29.35,994.7,,TRUE,TRUE,,,,,,,BKN,9000,BKN,11000,,,,,VFR,,,,,,,,,,,,METAR,148
KHUF 272153Z 22012KT 10SM CLR 03/M07 A2997 RMK AO2 SLP156 T00331067,KHUF,2025-01-27T21:53:00Z,39.4429,-87.3221,3.3,-6.7,220,12,,10+,29.97,1015.6,,,TRUE,,,,,,,CLR,,,,,,,,VFR,,,,,,,,,,,,METAR,174
KHSV 272153Z 30007KT 10SM FEW029 FEW035 10/03 A3011 RMK AO2 SLP194 T01000033,KHSV,2025-01-27T21:53:00Z,34.6441,-86.7861,10,3.3,300,7,,10+,30.11,1019.4,,,TRUE,,,,,,,FEW,2900,FEW,3500,,,,,VFR,,,,,,,,,,,,METAR,190
KHSI 272153Z AUTO 27017G24KT 10SM CLR 13/M12 A2992 RMK AO2 PK WND 26026/2059 SLP146 T01281122,KHSI,2025-01-27T21:53:00Z,40.6002,-98.4264,12.8,-12.2,270,17,24,10+,29.92,1014.6,,TRUE,TRUE,,,,,,,CLR,,,,,,,,VFR,,,,,,,,,,,,METAR,592
KHRO 272153Z AUTO 26009KT 10SM CLR 10/M09 A3012 RMK AO2 SLP207 T01001094,KHRO,2025-01-27T21:53:00Z,36.2673,-93.1566,10,-9.4,260,9,,10+,30.12,1020.7,,TRUE,TRUE,,,,,,,CLR,,,,,,,,VFR,,,,,,,,,,,,METAR,417
KHRI 272153Z AUTO VRB04KT 10SM CLR 05/M05 A3045 RMK AO2 SLP317 T00501050,KHRI,2025-01-27T21:53:00Z,45.8259,-119.261,5,-5,VRB,4,,10+,30.45,1031.7,,TRUE,TRUE,,,,,,,CLR,,,,,,,,VFR,,,,,,,,,,,,METAR,194
KHQM 272153Z AUTO 12010KT 10SM CLR 08/02 A3030 RMK AO2 SLP264 T00830017,KHQM,2025-01-27T21:53:00Z,46.9729,-123.931,8.3,1.7,120,10,,10+,30.30,1026.4,,TRUE,TRUE,,,,,,,CLR,,,,,,,,VFR,,,,,,,,,,,,METAR,4
KHOU 272153Z 02006KT 10SM SCT014 BKN028 OVC036 16/11 A3015 RMK AO2 SLP214 T01560106,KHOU,2025-01-27T21:53:00Z,29.6458,-95.2821,15.6,10.6,20,6,,10+,30.15,1021.4,,,TRUE,,,,,,,SCT,1400,BKN,2800,OVC,3600,,,MVFR,,,,,,,,,,,,METAR,13
KHOT 272153Z AUTO 00000KT 10SM CLR 12/M01 A3017 RMK AO2 SLP217 T01221011,KHOT,2025-01-27T21:53:00Z,34.4755,-93.1041,12.2,-1.1,0,0,,10+,30.17,1021.7,,TRUE,TRUE,,,,,,,CLR,,,,,,,,VFR,,,,,,,,,,,,METAR,153
KHLN 272153Z AUTO 00000KT 10SM CLR M07/M15 A3026 RMK AO2 SLP335 T10721150,KHLN,2025-01-27T21:53:00Z,46.6045,-111.989,-7.2,-15,0,0,,10+,30.26,1033.5,,TRUE,TRUE,,,,,,,CLR,,,,,,,,VFR,,,,,,,,,,,,METAR,1178
KHLC 272153Z AUTO 26009KT CLR 14/M05 A2999 RMK AO2 SLP167 T01441050 $,KHLC,2025-01-27T21:53:00Z,39.3741,-99.8299,14.4,-5,260,9,,,29.99,1016.7,,TRUE,TRUE,TRUE,,,,,,CLR,,,,,,,,,,,,,,,,,,,,METAR,667
KHKY 272153Z VRB04KT 10SM BKN045 OVC055 09/M01 A2994 RMK AO2 SLP132 T00941006,KHKY,2025-01-27T21:53:00Z,35.742,-81.3822,9.4,-0.6,VRB,4,,10+,29.94,1013.2,,,TRUE,,,,,,,BKN,4500,OVC,5500,,,,,VFR,,,,,,,,,,,,METAR,357
KHKS 272153Z 01003KT 10SM OVC007 08/06 A3019 RMK AO2 SLP218 T00830061,KHKS,2025-01-27T21:53:00Z,32.3376,-90.2214,8.3,6.1,10,3,,10+,30.19,1021.8,,,TRUE,,,,,,,OVC,700,,,,,,,IFR,,,,,,,,,,,,METAR,103
KHKA 272153Z AUTO 24007KT 10SM CLR 07/M08 A3014 RMK AO2 SLP207 T00721078,KHKA,2025-01-27T21:53:00Z,35.9378,-89.8332,7.2,-7.8,240,7,,10+,30.14,1020.7,,TRUE,TRUE,,,,,,,CLR,,,,,,,,VFR,,,,,,,,,,,,METAR,78
KHJO 272153Z AUTO 00000KT 10SM CLR 13/01 A3017 RMK AO2 SLP218 T01280011,KHJO,2025-01-27T21:53:00Z,36.3114,-119.623,12.8,1.1,0,0,,10+,30.17,1021.8,,TRUE,TRUE,,,,,,,CLR,,,,,,,,VFR,,,,,,,,,,,,METAR,73
KHIO 272153Z 00000KT 10SM CLR 10/M06 A3029 RMK AO2 SLP259 T01001056,KHIO,2025-01-27T21:53:00Z,45.5476,-122.956,10,-5.6,0,0,,10+,30.29,1025.9,,,TRUE,,,,,,,CLR,,,,,,,,VFR,,,,,,,,,,,,METAR,62
KHIB 272153Z AUTO 31022G33KT 8SM BKN050 M01/M12 A2958 RMK AO2 PK WND 31033/2144 SLP037 T10111122,KHIB,2025-01-27T21:53:00Z,47.3804,-92.8325,-1.1,-12.2,310,22,33,8,29.58,1003.7,,TRUE,TRUE,,,,,,,BKN,5000,,,,,,,VFR,,,,,,,,,,,,METAR,409
KHHR 272153Z 25008KT 10SM SCT034 14/06 A3008 RMK AO2 SLP187 T01440056,KHHR,2025-01-27T21:53:00Z,33.9235,-118.333,14.4,5.6,250,8,,10+,30.08,1018.7,,,TRUE,,,,,,,SCT,3400,,,,,,,VFR,,,,,,,,,,,,METAR,21
KHGR 272153Z 25005KT 10SM CLR 07/M13 A2983 RMK AO2 SLP117 T00721128,KHGR,2025-01-27T21:53:00Z,39.7062,-77.7304,7.2,-12.8,250,5,,10+,29.83,1011.7,,,TRUE,,,,,,,CLR,,,,,,,,VFR,,,,,,,,,,,,METAR,206
KHFD 272153Z 18010G21KT 10SM CLR 03/M09 A2973 RMK AO2 SLP066 T00281094,KHFD,2025-01-27T21:53:00Z,41.7352,-72.6512,2.8,-9.4,180,10,21,10+,29.73,1006.6,,,TRUE,,,,,,,CLR,,,,,,,,VFR,,,,,,,,,,,,METAR,3
KHEI 272153Z AUTO 31017G26KT CLR 02/M03 A2994 RMK AO2 PK WND 30027/2115 SLP169 T00221033,KHEI,2025-01-27T21:53:00Z,46.0108,-102.652,2.2,-3.3,310,17,26,,29.94,1016.9,,TRUE,TRUE,,,,,,,CLR,,,,,,,,,,,,,,,,,,,,METAR,824
KHBR 272153Z AUTO 21007KT 180V240 10SM CLR 10/M09 A3016 RMK AO2 SLP224 T01001089,KHBR,2025-01-27T21:53:00Z,34.9891,-99.0528,10,-8.9,210,7,,10+,30.16,1022.4,,TRUE,TRUE,,,,,,,CLR,,,,,,,,VFR,,,,,,,,,,,,METAR,475
KHBG 272153Z AUTO 31008KT 10SM OVC011 13/09 A3014 RMK AO2 SLP206 T01280094,KHBG,2025-01-27T21:53:00Z,31.2648,-89.2561,12.8,9.4,310,8,,10+,30.14,1020.6,,TRUE,TRUE,,,,,,,OVC,1100,,,,,,,MVFR,,,,,,,,,,,,METAR,45
KHAO 272153Z AUTO 24009KT 10SM CLR 03/M12 A2996 RMK AO2 SLP155 T00281122,KHAO,2025-01-27T21:53:00Z,39.3612,-84.5206,2.8,-12.2,240,9,,10+,29.96,1015.5,,TRUE,TRUE,,,,,,,CLR,,,,,,,,VFR,,,,,,,,,,,,METAR,185
KGVL 272153Z AUTO 27010G18KT 4SM BR OVC004 08/07 A3002 RMK AO2 SLP166 T00830072,KGVL,2025-01-27T21:53:00Z,34.2721,-83.8305,8.3,7.2,270,10,18,4,30.02,1016.6,,TRUE,TRUE,,,,,,BR,OVC,400,,,,,,,LIFR,,,,,,,,,,,,METAR,387
KGUY 272153Z AUTO 23012G19KT 10SM CLR 13/M07 A3003 RMK AO2 SLP172 T01331072 $,KGUY,2025-01-27T21:53:00Z,36.6819,-101.505,13.3,-7.2,230,12,19,10+,30.03,1017.2,,TRUE,TRUE,TRUE,,,,,,CLR,,,,,,,,VFR,,,,,,,,,,,,METAR,950
KGUP 272153Z AUTO 24012KT 10SM CLR 11/M15 A2994 RMK AO2 SLP148 T01061150,KGUP,2025-01-27T21:53:00Z,35.5086,-108.793,10.6,-15,240,12,,10+,29.94,1014.8,,TRUE,TRUE,,,,,,,CLR,,,,,,,,VFR,,,,,,,,,,,,METAR,1972
KGTF 272153Z 22017KT 10SM CLR 02/M07 A3011 RMK AO2 SLP238 T00171067 $,KGTF,2025-01-27T21:53:00Z,47.4733,-111.383,1.7,-6.7,220,17,,10+,30.11,1023.8,,,TRUE,TRUE,,,,,,CLR,,,,,,,,VFR,,,,,,,,,,,,METAR,1117
KGSH 272153Z AUTO 24019G38KT 10SM CLR 04/M08 A2973 RMK AO2 PK WND 23038/2149 SLP077 T00391083,KGSH,2025-01-27T21:53:00Z,41.5265,-85.7872,3.9,-8.3,240,19,38,10+,29.73,1007.7,,TRUE,TRUE,,,,,,,CLR,,,,,,,,VFR,,,,,,,,,,,,METAR,252
KGRR 272153Z 24022G32KT 10SM BKN100 BKN140 OVC250 01/M08 A2960 RMK AO2 PK WND 24033/2132 SLP034 T00111078,KGRR,2025-01-27T21:53:00Z,42.8821,-85.523,1.1,-7.8,240,22,32,10+,29.60,1003.4,,,TRUE,,,,,,,BKN,10000,BKN,14000,OVC,25000,,,VFR,,,,,,,,,,,,METAR,239
KGRI 272153Z 27015KT 10SM CLR 12/M12 A2992 RMK AO2 SLP149 T01221122,KGRI,2025-01-27T21:53:00Z,40.9615,-98.313,12.2,-12.2,270,15,,10+,29.92,1014.9,,,TRUE,,,,,,,CLR,,,,,,,,VFR,,,,,,,,,,,,METAR,562
KGRB 272153Z 26021G32KT 10SM OVC033 03/M04 A2949 RMK AO2 PK WND 25037/2138 SLP995 T00331044,KGRB,2025-01-27T21:53:00Z,44.4796,-88.137,3.3,-4.4,260,21,32,10+,29.49,999.5,,,TRUE,,,,,,,OVC,3300,,,,,,,VFR,,,,,,,,,,,,METAR,209
KGPT 272153Z AUTO 33010KT 10SM OVC017 18/14 A3010 RMK AO2 SLP191 T01780144,KGPT,2025-01-27T21:53:00Z,30.4121,-89.0809,17.8,14.4,330,10,,10+,30.10,1019.1,,TRUE,TRUE,,,,,,,OVC,1700,,,,,,,MVFR,,,,,,,,,,,,METAR,5
KGOK 272153Z AUTO 23005KT 10SM CLR 09/M08 A3016 RMK AO2 SLP223 T00941083,KGOK,2025-01-27T21:53:00Z,35.8517,-97.4142,9.4,-8.3,230,5,,10+,30.16,1022.3,,TRUE,TRUE,,,,,,,CLR,,,,,,,,VFR,,,,,,,,,,,,METAR,326
KGNV 272153Z 22010KT 10SM SCT043 20/11 A3013 RMK AO2 SLP201 T02000111,KGNV,2025-01-27T21:53:00Z,29.6917,-82.276,20,11.1,220,10,,10+,30.13,1020.1,,,TRUE,,,,,,,SCT,4300,,,,,,,VFR,,,,,,,,,,,,METAR,41
KGMU 272153Z 25010KT 10SM OVC010 10/08 A2998 RMK AO2 CIG 009V013 SLP152 T01000078,KGMU,2025-01-27T21:53:00Z,34.8487,-82.3501,10,7.8,250,10,,10+,29.98,1015.2,,,TRUE,,,,,,,OVC,1000,,,,,,,MVFR,,,,,,,,,,,,METAR,309
KGLH 272153Z 01004KT 10SM CLR 11/01 A3018 RMK AO2 SLP228 T01060011 $,KGLH,2025-01-27T21:53:00Z,33.4772,-90.9847,10.6,1.1,10,4,,10+,30.18,1022.8,,,TRUE,TRUE,,,,,,CLR,,,,,,,,VFR,,,,,,,,,,,,METAR,40
KGLD 272153Z AUTO 31007KT 10SM CLR 14/M12 A3000 RMK AO2 SLP169 T01441117,KGLD,2025-01-27T21:53:00Z,39.3673,-101.693,14.4,-11.7,310,7,,10+,30.00,1016.9,,TRUE,TRUE,,,,,,,CLR,,,,,,,,VFR,,,,,,,,,,,,METAR,1111
KGKY 272153Z 33004KT 10SM CLR 11/M05 A3020 RMK AO2 SLP226 T01111050,KGKY,2025-01-27T21:53:00Z,32.6583,-97.0951,11.1,-5,330,4,,10+,30.20,1022.6,,,TRUE,,,,,,,CLR,,,,,,,,VFR,,,,,,,,,,,,METAR,189
KGKJ 272153Z AUTO 21010G20KT 10SM CLR M02/M07 A2970 RMK AO2 PK WND 21039/2140 SLP077 T10171067 $,KGKJ,2025-01-27T21:53:00Z,41.6258,-80.2123,-1.7,-6.7,210,10,20,10+,29.70,1007.7,,TRUE,TRUE,TRUE,,,,,,CLR,,,,,,,,VFR,,,,,,,,,,,,METAR,428
KGJT 272153Z 21004KT 10SM CLR 10/M13 A3001 RMK AO2 SLP162 T01001128,KGJT,2025-01-27T21:53:00Z,39.1344,-108.541,10,-12.8,210,4,,10+,30.01,1016.2,,,TRUE,,,,,,,CLR,,,,,,,,VFR,,,,,,,,,,,,METAR,1475
KGIF 272153Z AUTO 07004KT 10SM CLR 23/10 A3012 RMK AO2 SLP198 T02280100 $,KGIF,2025-01-27T21:53:00Z,28.0614,-81.7568,22.8,10,70,4,,10+,30.12,1019.8,,TRUE,TRUE,TRUE,,,,,,CLR,,,,,,,,VFR,,,,,,,,,,,,METAR,44
KGGW 272153Z AUTO 29012KT 10SM CLR 06/M04 A2997 RMK AO2 SLP177 T00561039,KGGW,2025-01-27T21:53:00Z,48.2142,-106.621,5.6,-3.9,290,12,,10+,29.97,1017.7,,TRUE,TRUE,,,,,,,CLR,,,,,,,,VFR,,,,,,,,,,,,METAR,698
KGGG 272153Z 32005KT 10SM CLR 12/06 A3019 RMK AO2 SLP223 T01220056,KGGG,2025-01-27T21:53:00Z,32.3909,-94.714,12.2,5.6,320,5,,10+,30.19,1022.3,,,TRUE,,,,,,,CLR,,,,,,,,VFR,,,,,,,,,,,,METAR,107
KGFL 272153Z AUTO 21013G21KT 10SM CLR 03/M11 A2956 RMK AO2 PK WND 21026/2138 SLP017 T00281111,KGFL,2025-01-27T21:53:00Z,43.3385,-73.6102,2.8,-11.1,210,13,21,10+,29.56,1001.7,,TRUE,TRUE,,,,,,,CLR,,,,,,,,VFR,,,,,,,,,,,,METAR,99
KGFK 272153Z 31011KT 10SM SCT042 SCT250 03/M03 A2979 RMK AO2 SLP098 T00281033,KGFK,2025-01-27T21:53:00Z,47.9428,-97.1829,2.8,-3.3,310,11,,10+,29.79,1009.8,,,TRUE,,,,,,,SCT,4200,SCT,25000,,,,,VFR,,,,,,,,,,,,METAR,256
KGEZ 272153Z AUTO 23014KT 10SM CLR 03/M08 A2993 RMK AO2 SLP145 T00281083,KGEZ,2025-01-27T21:53:00Z,39.5854,-85.7998,2.8,-8.3,230,14,,10+,29.93,1014.5,,TRUE,TRUE,,,,,,,CLR,,,,,,,,VFR,,,,,,,,,,,,METAR,245
KGEY 272153Z AUTO 02003KT 10SM CLR M02/M13 A3014 RMK AO2 SLP267 T10171133,KGEY,2025-01-27T21:53:00Z,44.5173,-108.075,-1.7,-13.3,20,3,,10+,30.14,1026.7,,TRUE,TRUE,,,,,,,CLR,,,,,,,,VFR,,,,,,,,,,,,METAR,1191
KGEG 272153Z 07005KT 10SM CLR 00/M08 A3037 RMK AO2 SLP312 T00001078,KGEG,2025-01-27T21:53:00Z,47.6217,-117.528,0,-7.8,70,5,,10+,30.37,1031.2,,,TRUE,,,,,,,CLR,,,,,,,,VFR,,,,,,,,,,,,METAR,718
KGCC 272153Z AUTO 30010KT 10SM CLR 02/M07 A3004 RMK AO2 SLP202 T00221072,KGCC,2025-01-27T21:53:00Z,44.3398,-105.542,2.2,-7.2,300,10,,10+,30.04,1020.2,,TRUE,TRUE,,,,,,,CLR,,,,,,,,VFR,,,,,,,,,,,,METAR,1328
KGAG 272153Z AUTO 22009G19KT 10SM CLR 11/M07 A3010 RMK AO2 SLP207 T01111067,KGAG,2025-01-27T21:53:00Z,36.2966,-99.7686,11.1,-6.7,220,9,19,10+,30.10,1020.7,,TRUE,TRUE,,,,,,,CLR,,,,,,,,VFR,,,,,,,,,,,,METAR,670
KFYV 272153Z 26008KT 10SM CLR 10/M08 A3015 RMK AO2 SLP216 T01001083,KFYV,2025-01-27T21:53:00Z,36.0103,-94.1624,10,-8.3,260,8,,10+,30.15,1021.6,,,TRUE,,,,,,,CLR,,,,,,,,VFR,,,,,,,,,,,,METAR,377
KFXE 272153Z 08009KT 10SM CLR 23/15 A3009 RMK AO2 SLP193 T02280150,KFXE,2025-01-27T21:53:00Z,26.199,-80.1776,22.8,15,80,9,,10+,30.09,1019.3,,,TRUE,,,,,,,CLR,,,,,,,,VFR,,,,,,,,,,,,METAR,3
KFWN 272153Z AUTO 22009G18KT 10SM CLR 02/M12 A2976 RMK AO2 SLP082 T00171122,KFWN,2025-01-27T21:53:00Z,41.1993,-74.6259,1.7,-12.2,220,9,18,10+,29.76,1008.2,,TRUE,TRUE,,,,,,,CLR,,,,,,,,VFR,,,,,,,,,,,,METAR,129
KFUL 272153Z VRB03KT 10SM FEW044 15/M02 A3007 RMK AO2 SLP182 T01501022,KFUL,2025-01-27T21:53:00Z,33.8715,-117.986,15,-2.2,VRB,3,,10+,30.07,1018.2,,,TRUE,,,,,,,FEW,4400,,,,,,,VFR,,,,,,,,,,,,METAR,23
KFTY 272153Z 26006KT 7SM BKN008 BKN014 OVC020 10/09 A3005 RMK AO2 CIG 007V012 SLP175 T01000089,KFTY,2025-01-27T21:53:00Z,33.7776,-84.5247,10,8.9,260,6,,7,30.05,1017.5,,,TRUE,,,,,,,BKN,800,BKN,1400,OVC,2000,,,IFR,,,,,,,,,,,,METAR,245
KFTW 272153Z 36004KT 10SM CLR 12/M06 A3018 RMK AO2 SLP222 T01171056,KFTW,2025-01-27T21:53:00Z,32.8248,-97.364,11.7,-5.6,360,4,,10+,30.18,1022.2,,,TRUE,,,,,,,CLR,,,,,,,,VFR,,,,,,,,,,,,METAR,213
KFST 272153Z AUTO 07006KT 10SM CLR 08/01 A3014 RMK AO2 SLP193 T00830006,KFST,2025-01-27T21:53:00Z,30.9119,-102.917,8.3,0.6,70,6,,10+,30.14,1019.3,,TRUE,TRUE,,,,,,,CLR,,,,,,,,VFR,,,,,,,,,,,,METAR,917
KFSM 272153Z 24004KT 10SM CLR 11/M08 A3019 RMK AO2 SLP224 T01111078,KFSM,2025-01-27T21:53:00Z,35.3335,-94.3653,11.1,-7.8,240,4,,10+,30.19,1022.4,,,TRUE,,,,,,,CLR,,,,,,,,VFR,,,,,,,,,,,,METAR,136
KFRG 272153Z AUTO 24013KT 10SM CLR 03/M12 A2981 RMK AO2 SLP094 T00331122,KFRG,2025-01-27T21:53:00Z,40.7344,-73.4164,3.3,-12.2,240,13,,10+,29.81,1009.4,,TRUE,TRUE,,,,,,,CLR,,,,,,,,VFR,,,,,,,,,,,,METAR,23
KFPR 272153Z 12006KT 10SM CLR 20/13 A3010 RMK AO2 SLP193 T02000128,KFPR,2025-01-27T21:53:00Z,27.4981,-80.3763,20,12.8,120,6,,10+,30.10,1019.3,,,TRUE,,,,,,,CLR,,,,,,,,VFR,,,,,,,,,,,,METAR,7
KFOK 272153Z 24013G20KT 10SM CLR 02/M08 A2982 RMK AO2 SLP096 T00221078,KFOK,2025-01-27T21:53:00Z,40.8506,-72.6193,2.2,-7.8,240,13,20,10+,29.82,1009.6,,,TRUE,,,,,,,CLR,,,,,,,,VFR,,,,,,,,,,,,METAR,13
KFOE 272153Z 23018G24KT 10SM CLR 06/M04 A3004 RMK AO2 SLP185 T00561044,KFOE,2025-01-27T21:53:00Z,38.9414,-95.6513,5.6,-4.4,230,18,24,10+,30.04,1018.5,,,TRUE,,,,,,,CLR,,,,,,,,VFR,,,,,,,,,,,,METAR,315
KFNT 272153Z 24016G28KT 10SM CLR 02/M09 A2956 RMK AO2 PK WND 24028/2126 SLP018 T00171094,KFNT,2025-01-27T21:53:00Z,42.9669,-83.75,1.7,-9.4,240,16,28,10+,29.56,1001.8,,,TRUE,,,,,,,CLR,,,,,,,,VFR,,,,,,,,,,,,METAR,235
KFNB 272153Z AUTO 23014KT 10SM CLR 04/M04 A2996 RMK AO2 SLP156 T00391039,KFNB,2025-01-27T21:53:00Z,40.0791,-95.5893,3.9,-3.9,230,14,,10+,29.96,1015.6,,TRUE,TRUE,,,,,,,CLR,,,,,,,,VFR,,,,,,,,,,,,METAR,301
KFMY 272153Z 32006KT 10SM CLR 23/08 A3010 RMK AO2 SLP195 T02280078 $,KFMY,2025-01-27T21:53:00Z,26.584,-81.8615,22.8,7.8,320,6,,10+,30.10,1019.5,,,TRUE,TRUE,,,,,,CLR,,,,,,,,VFR,,,,,,,,,,,,METAR,4
KFMN 272153Z VRB06KT 10SM CLR 12/M21 A2994 RMK AO2 SLP141 T01221206,KFMN,2025-01-27T21:53:00Z,36.7435,-108.229,12.2,-20.6,VRB,6,,10+,29.94,1014.1,,,TRUE,,,,,,,CLR,,,,,,,,VFR,,,,,,,,,,,,METAR,1677
KFLO 272153Z AUTO 21008KT 10SM OVC007 10/08 A3002 RMK AO2 SLP164 T01000083,KFLO,2025-01-27T21:53:00Z,34.1877,-79.7308,10,8.3,210,8,,10+,30.02,1016.4,,TRUE,TRUE,,,,,,,OVC,700,,,,,,,IFR,,,,,,,,,,,,METAR,43
KFLL 272153Z COR 09008KT 10SM FEW050 FEW060 23/14 A3009 RMK AO2 SLP189 T02280144,KFLL,2025-01-27T21:53:00Z,26.0787,-80.1622,22.8,14.4,90,8,,10+,30.09,1018.9,TRUE,,TRUE,,,,,,,FEW,5000,FEW,6000,,,,,VFR,,,,,,,,,,,,METAR,1
KFLD 272153Z AUTO 25018G30KT 10SM BKN055 OVC070 05/M09 A2954 RMK AO2 PK WND 24033/2134 SLP013 T00501094,KFLD,2025-01-27T21:53:00Z,43.7695,-88.4907,5,-9.4,250,18,30,10+,29.54,1001.3,,TRUE,TRUE,,,,,,,BKN,5500,OVC,7000,,,,,VFR,,,,,,,,,,,,METAR,242
KFHR 272153Z AUTO 01006KT 10SM CLR 07/02 A3035 RMK AO2 SLP280 T00720017,KFHR,2025-01-27T21:53:00Z,48.52,-123.026,7.2,1.7,10,6,,10+,30.35,1028,,TRUE,TRUE,,,,,,,CLR,,,,,,,,VFR,,,,,,,,,,,,METAR,34
KFFT 272153Z AUTO 24008G16KT 10SM CLR 04/M12 A3000 RMK AO2 SLP165 T00391117,KFFT,2025-01-27T21:53:00Z,38.1846,-84.9039,3.9,-11.7,240,8,16,10+,30.00,1016.5,,TRUE,TRUE,,,,,,,CLR,,,,,,,,VFR,,,,,,,,,,,,METAR,235
KFDY 272153Z AUTO 21019G29KT 10SM CLR M01/M09 A2978 RMK AO2 PK WND 21029/2147 SLP091 T10061089 $,KFDY,2025-01-27T21:53:00Z,41.0137,-83.6681,-0.6,-8.9,210,19,29,10+,29.78,1009.1,,TRUE,TRUE,TRUE,,,,,,CLR,,,,,,,,VFR,,,,,,,,,,,,METAR,247
KFDR 272153Z AUTO 10SM CLR 09/M11 A3016 RMK AO2 SLP216 T00941106,KFDR,2025-01-27T21:53:00Z,34.3531,-98.9876,9.4,-10.6,,,,10+,30.16,1021.6,,TRUE,TRUE,,,,,,,CLR,,,,,,,,VFR,,,,,,,,,,,,METAR,378
KFCM 272153Z 27011G19KT 10SM CLR 04/M06 A2967 RMK AO2 SLP059 T00391061,KFCM,2025-01-27T21:53:00Z,44.8321,-93.4705,3.9,-6.1,270,11,19,10+,29.67,1005.9,,,TRUE,,,,,,,CLR,,,,,,,,VFR,,,,,,,,,,,,METAR,276
KFAY 272153Z 20009KT 10SM OVC006 09/08 A2999 RMK AO2 RAE09 CIG 004V009 SLP150 P0001 T00890078,KFAY,2025-01-27T21:53:00Z,34.9895,-78.8801,8.9,7.8,200,9,,10+,29.99,1015,,,TRUE,,,,,,,OVC,600,,,,,,,IFR,,,,,,0.01,,,,,,METAR,57
KFAT 272153Z 00000KT 10SM FEW028 12/00 A3015 RMK AO2 SLP211 T01170000,KFAT,2025-01-27T21:53:00Z,36.78,-119.72,11.7,0,0,0,,10+,30.15,1021.1,,,TRUE,,,,,,,FEW,2800,,,,,,,VFR,,,,,,,,,,,,METAR,102
KFAR 272153Z 33011KT 10SM FEW025 01/M03 A2980 RMK AO2 SLP105 T00111028,KFAR,2025-01-27T21:53:00Z,46.9242,-96.8119,1.1,-2.8,330,11,,10+,29.80,1010.5,,,TRUE,,,,,,,FEW,2500,,,,,,,VFR,,,,,,,,,,,,METAR,276
KEYW 272153Z 10009KT 10SM CLR 22/19 A3009 RMK AO2 SLP193 T02170189,KEYW,2025-01-27T21:53:00Z,24.5571,-81.7554,21.7,18.9,100,9,,10+,30.09,1019.3,,,TRUE,,,,,,,CLR,,,,,,,,VFR,,,,,,,,,,,,METAR,1
KEYE 272153Z AUTO 24012G21KT 10SM CLR 03/M09 A2991 RMK AO2 SLP139 T00281094,KEYE,2025-01-27T21:53:00Z,39.8248,-86.2958,2.8,-9.4,240,12,21,10+,29.91,1013.9,,TRUE,TRUE,,,,,,,CLR,,,,,,,,VFR,,,,,,,,,,,,METAR,248
KEWB 272153Z 23012G20KT 10SM CLR 02/M07 A2976 RMK AO2 PK WND 23026/2138 SLP077 T00221067,KEWB,2025-01-27T21:53:00Z,41.6791,-70.9591,2.2,-6.7,230,12,20,10+,29.76,1007.7,,,TRUE,,,,,,,CLR,,,,,,,,VFR,,,,,,,,,,,,METAR,22
KEVW 272153Z AUTO 00000KT 10SM CLR M05/M12 A3012 RMK AO2 SLP258 T10501122,KEVW,2025-01-27T21:53:00Z,41.2727,-111.031,-5,-12.2,0,0,,10+,30.12,1025.8,,TRUE,TRUE,,,,,,,CLR,,,,,,,,VFR,,,,,,,,,,,,METAR,2178
KESF 272153Z AUTO VRB04KT 10SM OVC017 11/08 A3019 RMK AO2 SLP222 T01110078,KESF,2025-01-27T21:53:00Z,31.3963,-92.2828,11.1,7.8,VRB,4,,10+,30.19,1022.2,,TRUE,TRUE,,,,,,,OVC,1700,,,,,,,MVFR,,,,,,,,,,,,METAR,27
KEPH 272153Z AUTO 33008KT 10SM CLR 01/M06 A3042 RMK AO2 SLP318 T00111061,KEPH,2025-01-27T21:53:00Z,47.3078,-119.516,1.1,-6.1,330,8,,10+,30.42,1031.8,,TRUE,TRUE,,,,,,,CLR,,,,,,,,VFR,,,,,,,,,,,,METAR,382
KENW 272153Z 26019G38KT 10SM OVC085 07/M12 A2963 RMK AO2 PK WND 25039/2115 SLP043 T00671117,KENW,2025-01-27T21:53:00Z,42.5953,-87.9383,6.7,-11.7,260,19,38,10+,29.63,1004.3,,,TRUE,,,,,,,OVC,8500,,,,,,,VFR,,,,,,,,,,,,METAR,222
KEMP 272153Z AUTO 24016G22KT 10SM CLR 07/M04 A3007 RMK AO2 SLP195 T00721039,KEMP,2025-01-27T21:53:00Z,38.3291,-96.1945,7.2,-3.9,240,16,22,10+,30.07,1019.5,,TRUE,TRUE,,,,,,,CLR,,,,,,,,VFR,,,,,,,,,,,,METAR,366
KELY 272153Z AUTO 01020G27KT 10SM CLR 00/M08 A3007 RMK AO2 PK WND 01029/2125 SLP220 T00001083,KELY,2025-01-27T21:53:00Z,39.2954,-114.847,0,-8.3,10,20,27,10+,30.07,1022,,TRUE,TRUE,,,,,,,CLR,,,,,,,,VFR,,,,,,,,,,,,METAR,1906
KELN 272153Z AUTO 19003KT 10SM CLR 02/M08 A3038 RMK AO2 SLP312 T00221078,KELN,2025-01-27T21:53:00Z,47.0338,-120.531,2.2,-7.8,190,3,,10+,30.38,1031.2,,TRUE,TRUE,,,,,,,CLR,,,,,,,,VFR,,,,,,,,,,,,METAR,532
KELM 272153Z 22016G24KT 10SM CLR 03/M15 A2964 RMK AO2 PK WND 25030/2123 SLP048 T00281150,KELM,2025-01-27T21:53:00Z,42.1601,-76.89,2.8,-15,220,16,24,10+,29.64,1004.8,,,TRUE,,,,,,,CLR,,,,,,,,VFR,,,,,,,,,,,,METAR,287
KELD 272153Z AUTO 00000KT 10SM CLR 13/02 A3018 RMK AO2 SLP220 T01280022,KELD,2025-01-27T21:53:00Z,33.2207,-92.814,12.8,2.2,0,0,,10+,30.18,1022,,TRUE,TRUE,,,,,,,CLR,,,,,,,,VFR,,,,,,,,,,,,METAR,76
KEEO 272153Z AUTO 00000KT 10SM CLR M02/M11 A3011 RMK AO2 SLP262 T10221106,KEEO,2025-01-27T21:53:00Z,40.0444,-107.888,-2.2,-10.6,0,0,,10+,30.11,1026.2,,TRUE,TRUE,,,,,,,CLR,,,,,,,,VFR,,,,,,,,,,,,METAR,1957
KECP 272153Z 13005KT 10SM BKN020 OVC038 17/14 A3008 RMK AO1 SLP197 T01670144,KECP,2025-01-27T21:53:00Z,30.3487,-85.7884,16.7,14.4,130,5,,10+,30.08,1019.7,,,TRUE,,,,,,,BKN,2000,OVC,3800,,,,,MVFR,,,,,,,,,,,,METAR,17
KDXR 272153Z 22011G19KT 10SM CLR 02/M12 A2976 RMK AO2 PK WND 24026/2131 SLP081 T00221117,KDXR,2025-01-27T21:53:00Z,41.3722,-73.4834,2.2,-11.7,220,11,19,10+,29.76,1008.1,,,TRUE,,,,,,,CLR,,,,,,,,VFR,,,,,,,,,,,,METAR,138
KDWH 272153Z 36006KT 9SM OVC011 12/09 A3017 RMK AO2 SLP214 T01220094 $,KDWH,2025-01-27T21:53:00Z,30.068,-95.5563,12.2,9.4,360,6,,9,30.17,1021.4,,,TRUE,TRUE,,,,,,OVC,1100,,,,,,,MVFR,,,,,,,,,,,,METAR,46
KDVT 272153Z VRB05KT 10SM BKN085 13/04 A3003 RMK AO2 SLP163 T01330044,KDVT,2025-01-27T21:53:00Z,33.6902,-112.066,13.3,4.4,VRB,5,,10+,30.03,1016.3,,,TRUE,,,,,,,BKN,8500,,,,,,,VFR,,,,,,,,,,,,METAR,454
KDUJ 272153Z AUTO 23016G26KT 10SM CLR M01/M13 A2972 RMK AO2 PK WND 23034/2111 SLP086 T10061133,KDUJ,2025-01-27T21:53:00Z,41.1795,-78.8933,-0.6,-13.3,230,16,26,10+,29.72,1008.6,,TRUE,TRUE,,,,,,,CLR,,,,,,,,VFR,,,,,,,,,,,,METAR,552
KDTW 272153Z 23026G39KT 10SM FEW180 BKN250 02/M10 A2963 RMK AO2 PK WND 23039/2153 SLP042 T00221100,KDTW,2025-01-27T21:53:00Z,42.2311,-83.3312,2.2,-10,230,26,39,10+,29.63,1004.2,,,TRUE,,,,,,,FEW,18000,BKN,25000,,,,,VFR,,,,,,,,,,,,METAR,192
KDTS 272153Z VRB05KT 10SM BKN028 OVC036 19/16 A3007 RMK AO2 RAB19E28 SLP181 P0000 T01940156,KDTS,2025-01-27T21:53:00Z,30.3933,-86.4674,19.4,15.6,VRB,5,,10+,30.07,1018.1,,,TRUE,,,,,,,BKN,2800,OVC,3600,,,,,MVFR,,,,,,0.005,,,,,,METAR,5
KDTO 272153Z 35003KT 10SM CLR A3019 RMK AO2 SLPNO,KDTO,2025-01-27T21:53:00Z,33.2088,-97.1992,,,350,3,,10+,30.19,,,,TRUE,,,,,,,CLR,,,,,,,,VFR,,,,,,,,,,,,METAR,199
KDTN 272153Z 28003KT 10SM CLR 14/04 A3019 RMK AO2 SLP222 T01390039,KDTN,2025-01-27T21:53:00Z,32.5429,-93.745,13.9,3.9,280,3,,10+,30.19,1022.2,,,TRUE,,,,,,,CLR,,,,,,,,VFR,,,,,,,,,,,,METAR,53
KDRT 272153Z AUTO 03005KT 10SM OVC022 12/06 A3017 RMK AO2 SLP216 T01220056,KDRT,2025-01-27T21:53:00Z,29.3784,-100.927,12.2,5.6,30,5,,10+,30.17,1021.6,,TRUE,TRUE,,,,,,,OVC,2200,,,,,,,MVFR,,,,,,,,,,,,METAR,303
KDRO 272153Z AUTO 17010G15KT 10SM CLR 11/M18 A2997 RMK AO2 SLP155 T01061178,KDRO,2025-01-27T21:53:00Z,37.1431,-107.76,10.6,-17.8,170,10,15,10+,29.97,1015.5,,TRUE,TRUE,,,,,,,CLR,,,,,,,,VFR,,,,,,,,,,,,METAR,2021
KDRA 272153Z AUTO 04008G14KT 10SM FEW090 12/M09 A3000 RMK AO2 SLP145 T01221094,KDRA,2025-01-27T21:53:00Z,36.621,-116.029,12.2,-9.4,40,8,14,10+,30.00,1014.5,,TRUE,TRUE,,,,,,,FEW,9000,,,,,,,VFR,,,,,,,,,,,,METAR,988
KDMO 272153Z AUTO 25013G24KT 10SM CLR 07/M06 A3005 RMK AO2 SLP183 T00721061,KDMO,2025-01-27T21:53:00Z,38.712,-93.1747,7.2,-6.1,250,13,24,10+,30.05,1018.3,,TRUE,TRUE,,,,,,,CLR,,,,,,,,VFR,,,,,,,,,,,,METAR,271
KDMN 272153Z AUTO 20010KT 10SM CLR 18/M06 A2997 RMK AO2 SLP119 T01831056,KDMN,2025-01-27T21:53:00Z,32.2592,-107.721,18.3,-5.6,200,10,,10+,29.97,1011.9,,TRUE,TRUE,,,,,,,CLR,,,,,,,,VFR,,,,,,,,,,,,METAR,1310
KDMH 272153Z AUTO 09/M07 A2983 RMK AO1 SLP102 T00941072,KDMH,2025-01-27T21:53:00Z,39.281,-76.611,9.4,-7.2,,,,,29.83,1010.2,,TRUE,TRUE,,,,,,,,,,,,,,,,,,,,,,,,,,,METAR,4
KDLS 272153Z AUTO 00000KT 10SM CLR 04/M05 A3044 RMK AO2 SLP310 T00391050,KDLS,2025-01-27T21:53:00Z,45.619,-121.166,3.9,-5,0,0,,10+,30.44,1031,,TRUE,TRUE,,,,,,,CLR,,,,,,,,VFR,,,,,,,,,,,,METAR,71
KDLN 272153Z AUTO 00000KT 10SM CLR M04/M13 A3018 RMK AO2 SLP294 T10391128,KDLN,2025-01-27T21:53:00Z,45.2584,-112.555,-3.9,-12.8,0,0,,10+,30.18,1029.4,,TRUE,TRUE,,,,,,,CLR,,,,,,,,VFR,,,,,,,,,,,,METAR,1586
KDKK 272153Z AUTO 20025G34KT 9SM CLR 00/M12 A2960 RMK AO2 PK WND 21035/2108 SNE01B51E52 SLP033 P0000 T00001122,KDKK,2025-01-27T21:53:00Z,42.4932,-79.2762,0,-12.2,200,25,34,9,29.60,1003.3,,TRUE,TRUE,,,,,,,CLR,,,,,,,,VFR,,,,,,0.005,,,,,,METAR,205
KDHT 272153Z AUTO 22014G23KT 10SM CLR 12/M07 A3006 RMK AO2 SLP186 T01171067,KDHT,2025-01-27T21:53:00Z,36.0252,-102.549,11.7,-6.7,220,14,23,10+,30.06,1018.6,,TRUE,TRUE,,,,,,,CLR,,,,,,,,VFR,,,,,,,,,,,,METAR,1217
KDGW 272153Z AUTO 33014KT 10SM CLR 05/M08 A3005 RMK AO2 SLP228 T00501083,KDGW,2025-01-27T21:53:00Z,42.796,-105.38,5,-8.3,330,14,,10+,30.05,1022.8,,TRUE,TRUE,,,,,,,CLR,,,,,,,,VFR,,,,,,,,,,,,METAR,1503
KDFW 272153Z 01004KT 10SM FEW150 BKN250 11/M06 A3018 RMK AO2 SLP221 T01111056,KDFW,2025-01-27T21:53:00Z,32.8974,-97.0219,11.1,-5.6,10,4,,10+,30.18,1022.1,,,TRUE,,,,,,,FEW,15000,BKN,25000,,,,,VFR,,,,,,,,,,,,METAR,168
KDFI 272153Z AUTO 22015G25KT 10SM CLR 03/M08 A2975 RMK AO2 PK WND 21031/2058 SLP083 T00281083,KDFI,2025-01-27T21:53:00Z,41.3357,-84.4285,2.8,-8.3,220,15,25,10+,29.75,1008.3,,TRUE,TRUE,,,,,,,CLR,,,,,,,,VFR,,,,,,,,,,,,METAR,215
KDEW 272153Z AUTO 00000KT 10SM CLR 02/M07 A3038 RMK AO2 SLP320 T00171072,KDEW,2025-01-27T21:53:00Z,47.9742,-117.429,1.7,-7.2,0,0,,10+,30.38,1032,,TRUE,TRUE,,,,,,,CLR,,,,,,,,VFR,,,,,,,,,,,,METAR,672
KDET 272153Z 23023G32KT 10SM CLR 03/M11 A2960 RMK AO2 PK WND 23043/2058 SLP029 T00331106,KDET,2025-01-27T21:53:00Z,42.4072,-83.009,3.3,-10.6,230,23,32,10+,29.60,1002.9,,,TRUE,,,,,,,CLR,,,,,,,,VFR,,,,,,,,,,,,METAR,190
KDEQ 272153Z AUTO 27003KT 10SM CLR 12/03 A3017 RMK AO2 SLP214 T01220028,KDEQ,2025-01-27T21:53:00Z,34.048,-94.4016,12.2,2.8,270,3,,10+,30.17,1021.4,,TRUE,TRUE,,,,,,,CLR,,,,,,,,VFR,,,,,,,,,,,,METAR,107
KDEN 272153Z 04005KT 10SM CLR 09/M02 A3003 RMK AO2 SLP183 T00891017,KDEN,2025-01-27T21:53:00Z,39.8466,-104.656,8.9,-1.7,40,5,,10+,30.03,1018.3,,,TRUE,,,,,,,CLR,,,,,,,,VFR,,,,,,,,,,,,METAR,1656
KDCU 272153Z AUTO 26006KT 10SM CLR 10/02 A3011 RMK AO2 SLP197 T01000022 $,KDCU,2025-01-27T21:53:00Z,34.658,-86.9434,10,2.2,260,6,,10+,30.11,1019.7,,TRUE,TRUE,TRUE,,,,,,CLR,,,,,,,,VFR,,,,,,,,,,,,METAR,180
KDBQ 272153Z 25019G27KT 10SM BKN095 06/M08 A2971 RMK AO2 PK WND 24032/2058 SLP072 T00561078,KDBQ,2025-01-27T21:53:00Z,42.3984,-90.7092,5.6,-7.8,250,19,27,10+,29.71,1007.2,,,TRUE,,,,,,,BKN,9500,,,,,,,VFR,,,,,,,,,,,,METAR,317
KDAN 272153Z AUTO VRB04KT 10SM OVC085 11/M01 A2993 RMK AO2 SLP133 T01061011,KDAN,2025-01-27T21:53:00Z,36.5729,-79.335,10.6,-1.1,VRB,4,,10+,29.93,1013.3,,TRUE,TRUE,,,,,,,OVC,8500,,,,,,,VFR,,,,,,,,,,,,METAR,170
KDAL 272153Z VRB04KT 10SM FEW080 FEW120 BKN250 12/M03 A3019 RMK AO2 SLP222 T01171033,KDAL,2025-01-27T21:53:00Z,32.8384,-96.8358,11.7,-3.3,VRB,4,,10+,30.19,1022.2,,,TRUE,,,,,,,FEW,8000,FEW,12000,BKN,25000,,,VFR,,,,,,,,,,,,METAR,148
KDAB 272153Z 26009KT 10SM FEW055 SCT250 22/08 A3011 RMK AO2 SLP194 T02220083,KDAB,2025-01-27T21:53:00Z,29.1735,-81.0719,22.2,8.3,260,9,,10+,30.11,1019.4,,,TRUE,,,,,,,FEW,5500,SCT,25000,,,,,VFR,,,,,,,,,,,,METAR,8
KCYS 272153Z 33010G20KT 10SM CLR 04/M09 A3005 RMK AO2 SLP218 T00391094,KCYS,2025-01-27T21:53:00Z,41.1579,-104.808,3.9,-9.4,330,10,20,10+,30.05,1021.8,,,TRUE,,,,,,,CLR,,,,,,,,VFR,,,,,,,,,,,,METAR,1868
KCXO 272153Z 03005KT 10SM OVC012 12/09 A3018 RMK AO2 SLP219 T01170094,KCXO,2025-01-27T21:53:00Z,30.3611,-95.4176,11.7,9.4,30,5,,10+,30.18,1021.9,,,TRUE,,,,,,,OVC,1200,,,,,,,MVFR,,,,,,,,,,,,METAR,69
KCUT 272153Z AUTO 35011G19KT 10SM CLR 08/M06 A2995 RMK AO2 SLP147 T00831061 $,KCUT,2025-01-27T21:53:00Z,43.7331,-103.615,8.3,-6.1,350,11,19,10+,29.95,1014.7,,TRUE,TRUE,TRUE,,,,,,CLR,,,,,,,,VFR,,,,,,,,,,,,METAR,1700
KCSV 272153Z AUTO 28009KT 10SM CLR 05/M02 A3003 RMK AO2 SLP175 T00501022,KCSV,2025-01-27T21:53:00Z,35.951,-85.0814,5,-2.2,280,9,,10+,30.03,1017.5,,TRUE,TRUE,,,,,,,CLR,,,,,,,,VFR,,,,,,,,,,,,METAR,569
KCSM 272153Z 22009KT 10SM CLR 09/M09 A3015 RMK AO2 SLP219 T00941089,KCSM,2025-01-27T21:53:00Z,35.3568,-99.2041,9.4,-8.9,220,9,,10+,30.15,1021.9,,,TRUE,,,,,,,CLR,,,,,,,,VFR,,,,,,,,,,,,METAR,586
KCRS 272153Z AUTO 01005KT 10SM CLR 10/03 A3021 RMK AO2 SLP231 T01000033,KCRS,2025-01-27T21:53:00Z,32.0316,-96.3994,10,3.3,10,5,,10+,30.21,1023.1,,TRUE,TRUE,,,,,,,CLR,,,,,,,,VFR,,,,,,,,,,,,METAR,136
KCRQ 272153Z 25009KT 10SM CLR 13/03 A3007 RMK AO2 SLP181 T01330028,KCRQ,2025-01-27T21:53:00Z,33.1299,-117.277,13.3,2.8,250,9,,10+,30.07,1018.1,,,TRUE,,,,,,,CLR,,,,,,,,VFR,,,,,,,,,,,,METAR,96
KCRG 272153Z 24006KT 10SM OVC110 22/09 A3008 RMK AO2 SLP187 T02170094 $,KCRG,2025-01-27T21:53:00Z,30.3371,-81.5128,21.7,9.4,240,6,,10+,30.08,1018.7,,,TRUE,TRUE,,,,,,OVC,11000,,,,,,,VFR,,,,,,,,,,,,METAR,12
KCRE 272153Z 21008KT 10SM BKN027 OVC037 08/07 A3004 RMK AO1 SLP173 T00780072,KCRE,2025-01-27T21:53:00Z,33.8162,-78.7204,7.8,7.2,210,8,,10+,30.04,1017.3,,,TRUE,,,,,,,BKN,2700,OVC,3700,,,,,MVFR,,,,,,,,,,,,METAR,9
KCQC 272153Z AUTO 12008KT 10SM CLR 07/M07 RMK AO2 SLPNO T00671067 $,KCQC,2025-01-27T21:53:00Z,35.003,-105.663,6.7,-6.7,120,8,,10+,0.00,,,TRUE,TRUE,TRUE,,,,,,CLR,,,,,,,,VFR,,,,,,,,,,,,METAR,2163
KCPS 272153Z 24007KT 10SM CLR 07/M06 A3002 RMK AO2 SLP169 T00721061,KCPS,2025-01-27T21:53:00Z,38.57,-90.156,7.2,-6.1,240,7,,10+,30.02,1016.9,,,TRUE,,,,,,,CLR,,,,,,,,VFR,,,,,,,,,,,,METAR,125
KCPR 272153Z 22018KT 10SM CLR 01/M09 A3008 RMK AO2 PK WND 22027/2107 SLP223 T00061089,KCPR,2025-01-27T21:53:00Z,42.8978,-106.474,0.6,-8.9,220,18,,10+,30.08,1022.3,,,TRUE,,,,,,,CLR,,,,,,,,VFR,,,,,,,,,,,,METAR,1623
KCOT 272153Z AUTO 04005KT 8SM OVC010 12/08 A3017 RMK AO2 SLP212 T01170083,KCOT,2025-01-27T21:53:00Z,28.4585,-99.2228,11.7,8.3,40,5,,8,30.17,1021.2,,TRUE,TRUE,,,,,,,OVC,1000,,,,,,,MVFR,,,,,,,,,,,,METAR,144
KCNY 272153Z AUTO 31011KT CLR 07/M11 A2999 RMK AO2 SLP174 T00671106 $,KCNY,2025-01-27T21:53:00Z,38.7501,-109.763,6.7,-10.6,310,11,,,29.99,1017.4,,TRUE,TRUE,TRUE,,,,,,CLR,,,,,,,,,,,,,,,,,,,,METAR,1392
KCNO 272153Z 24006KT 10SM BKN080 14/04 A3007 RMK AO2 SLP183 T01390044,KCNO,2025-01-27T21:53:00Z,33.9756,-117.625,13.9,4.4,240,6,,10+,30.07,1018.3,,,TRUE,,,,,,,BKN,8000,,,,,,,VFR,,,,,,,,,,,,METAR,191
KCNM 272153Z AUTO 16010KT CLR 09/M04 A3011 RMK AO2 SLP193 T00891044,KCNM,2025-01-27T21:53:00Z,32.3335,-104.258,8.9,-4.4,160,10,,,30.11,1019.3,,TRUE,TRUE,,,,,,,CLR,,,,,,,,,,,,,,,,,,,,METAR,993
KCMI 272153Z 22021G28KT 10SM CLR 03/M04 A2991 RMK AO2 PK WND 23031/2103 SLP138 T00281044,KCMI,2025-01-27T21:53:00Z,40.0324,-88.2755,2.8,-4.4,220,21,28,10+,29.91,1013.8,,,TRUE,,,,,,,CLR,,,,,,,,VFR,,,,,,,,,,,,METAR,227
KCLM 272153Z AUTO 08005KT 10SM CLR 07/02 A3035 RMK AO2 SLP280 T00720017,KCLM,2025-01-27T21:53:00Z,48.1219,-123.507,7.2,1.7,80,5,,10+,30.35,1028,,TRUE,TRUE,,,,,,,CLR,,,,,,,,VFR,,,,,,,,,,,,METAR,81
KCLL 272153Z 03006KT 10SM FEW038 SCT050 OVC075 14/08 A3017 RMK AO2 SLP215 T01440078,KCLL,2025-01-27T21:53:00Z,30.5912,-96.3631,14.4,7.8,30,6,,10+,30.17,1021.5,,,TRUE,,,,,,,FEW,3800,SCT,5000,OVC,7500,,,VFR,,,,,,,,,,,,METAR,96
KCKB 272153Z 23013G20KT 10SM CLR 03/M12 A2989 RMK AO2 SLP129 T00331117,KCKB,2025-01-27T21:53:00Z,39.3022,-80.2239,3.3,-11.7,230,13,20,10+,29.89,1012.9,,,TRUE,,,,,,,CLR,,,,,,,,VFR,,,,,,,,,,,,METAR,368
KCIC 272153Z 29012KT 10SM CLR 16/M04 A3014,KCIC,2025-01-27T21:53:00Z,39.7988,-121.858,16,-4,290,12,,10+,30.14,,,,,,,,,,,CLR,,,,,,,,VFR,,,,,,,,,,,,METAR,72
KCHO 272153Z VRB03KT 10SM CLR 09/M09 A2988 RMK AO2 SLP118 T00941094,KCHO,2025-01-27T21:53:00Z,38.1374,-78.4551,9.4,-9.4,VRB,3,,10+,29.88,1011.8,,,TRUE,,,,,,,CLR,,,,,,,,VFR,,,,,,,,,,,,METAR,193
KCHA 272153Z 31009KT 10SM SCT015 BKN022 BKN030 08/04 A3008 RMK AO2 SLP185 T00830039,KCHA,2025-01-27T21:53:00Z,35.0336,-85.2004,8.3,3.9,310,9,,10+,30.08,1018.5,,,TRUE,,,,,,,SCT,1500,BKN,2200,BKN,3000,,,MVFR,,,,,,,,,,,,METAR,203
KCGI 272153Z 19007KT 10SM CLR 07/M06 A3010 RMK AO2 SLP194 T00671061,KCGI,2025-01-27T21:53:00Z,37.2254,-89.5785,6.7,-6.1,190,7,,10+,30.10,1019.4,,,TRUE,,,,,,,CLR,,,,,,,,VFR,,,,,,,,,,,,METAR,103
KCEZ 272153Z AUTO 19012G20KT 10SM CLR 11/M16 A2996 RMK AO2 SLP144 T01111156,KCEZ,2025-01-27T21:53:00Z,37.3071,-108.626,11.1,-15.6,190,12,20,10+,29.96,1014.4,,TRUE,TRUE,,,,,,,CLR,,,,,,,,VFR,,,,,,,,,,,,METAR,1801
KCDW 272153Z VRB05KT 10SM CLR 03/M13 A2980 RMK AO2 SLP098 T00331133,KCDW,2025-01-27T21:53:00Z,40.8764,-74.2829,3.3,-13.3,VRB,5,,10+,29.80,1009.8,,,TRUE,,,,,,,CLR,,,,,,,,VFR,,,,,,,,,,,,METAR,52
KCDS 272153Z AUTO 22007KT 10SM CLR 09/M08 A3016 RMK AO2 SLP220 T00941083,KCDS,2025-01-27T21:53:00Z,34.4275,-100.284,9.4,-8.3,220,7,,10+,30.16,1022,,TRUE,TRUE,,,,,,,CLR,,,,,,,,VFR,,,,,,,,,,,,METAR,595
KCDR 272153Z AUTO 28019G27KT 10SM CLR 08/M06 A2997 RMK AO2 PK WND 27031/2133 SLP190 T00781061,KCDR,2025-01-27T21:53:00Z,42.8374,-103.098,7.8,-6.1,280,19,27,10+,29.97,1019,,TRUE,TRUE,,,,,,,CLR,,,,,,,,VFR,,,,,,,,,,,,METAR,1002
KCDC 272153Z AUTO 00000KT 10SM OVC075 00/M08 A3005 RMK AO2 SLP201 T00001083,KCDC,2025-01-27T21:53:00Z,37.7067,-113.097,0,-8.3,0,0,,10+,30.05,1020.1,,TRUE,TRUE,,,,,,,OVC,7500,,,,,,,VFR,,,,,,,,,,,,METAR,1703
KCCR 272153Z 00000KT 10SM CLR 17/M04 A3013 RMK AO2 SLP190 T01671044,KCCR,2025-01-27T21:53:00Z,37.9916,-122.053,16.7,-4.4,0,0,,10+,30.13,1019,,,TRUE,,,,,,,CLR,,,,,,,,VFR,,,,,,,,,,,,METAR,6
KCAG 272153Z AUTO 00000KT 10SM CLR M11/M14 A3017 RMK AO2 SLP319 T11061139,KCAG,2025-01-27T21:53:00Z,40.493,-107.524,-10.6,-13.9,0,0,,10+,30.17,1031.9,,TRUE,TRUE,,,,,,,CLR,,,,,,,,VFR,,,,,,,,,,,,METAR,1888
KBYI 272153Z AUTO 00000KT 10SM CLR M01/M14 A3024 RMK AO2 SLP287 T10111144,KBYI,2025-01-27T21:53:00Z,42.5452,-113.769,-1.1,-14.4,0,0,,10+,30.24,1028.7,,TRUE,TRUE,,,,,,,CLR,,,,,,,,VFR,,,,,,,,,,,,METAR,1263
KBYG 272153Z AUTO 00000KT 10SM CLR 04/M07 A3004 RMK AO2 SLP191 T00441072,KBYG,2025-01-27T21:53:00Z,44.3812,-106.719,4.4,-7.2,0,0,,10+,30.04,1019.1,,TRUE,TRUE,,,,,,,CLR,,,,,,,,VFR,,,,,,,,,,,,METAR,1503
KBWG 272153Z AUTO 25007KT 10SM CLR 07/M12 A3007 RMK AO2 SLP186 T00721117,KBWG,2025-01-27T21:53:00Z,36.9647,-86.4238,7.2,-11.7,250,7,,10+,30.07,1018.6,,TRUE,TRUE,,,,,,,CLR,,,,,,,,VFR,,,,,,,,,,,,METAR,159
KBVY 272153Z 22012G24KT 10SM CLR 02/M10 A2966 RMK AO2 PK WND 21027/2101 SLP042 T00221100,KBVY,2025-01-27T21:53:00Z,42.5841,-70.9153,2.2,-10,220,12,24,10+,29.66,1004.2,,,TRUE,,,,,,,CLR,,,,,,,,VFR,,,,,,,,,,,,METAR,28
KBVO 272153Z AUTO 24007KT 10SM CLR 09/M08 A3018 RMK AO2 SLP221 T00891078,KBVO,2025-01-27T21:53:00Z,36.7664,-96.0129,8.9,-7.8,240,7,,10+,30.18,1022.1,,TRUE,TRUE,,,,,,,CLR,,,,,,,,VFR,,,,,,,,,,,,METAR,210
KBUR 272153Z 17004KT 10SM BKN085 13/03 A3006 RMK AO2 SLP174 T01330028,KBUR,2025-01-27T21:53:00Z,34.1996,-118.365,13.3,2.8,170,4,,10+,30.06,1017.4,,,TRUE,,,,,,,BKN,8500,,,,,,,VFR,,,,,,,,,,,,METAR,221
KBTM 272153Z AUTO 30005KT 10SM CLR M03/M14 A3020 RMK AO2 SLP315 T10331144,KBTM,2025-01-27T21:53:00Z,45.9644,-112.501,-3.3,-14.4,300,5,,10+,30.20,1031.5,,TRUE,TRUE,,,,,,,CLR,,,,,,,,VFR,,,,,,,,,,,,METAR,1680
KBTL 272153Z 24021G31KT 10SM CLR 01/M08 A2963 RMK AO2 PK WND 24033/2103 SLP046 T00111083,KBTL,2025-01-27T21:53:00Z,42.3119,-85.2415,1.1,-8.3,240,21,31,10+,29.63,1004.6,,,TRUE,,,,,,,CLR,,,,,,,,VFR,,,,,,,,,,,,METAR,282
KBRO 272153Z 12012KT 10SM FEW065 24/17 A3004 RMK AO2 SLP171 T02440172,KBRO,2025-01-27T21:53:00Z,25.9146,-97.4231,24.4,17.2,120,12,,10+,30.04,1017.1,,,TRUE,,,,,,,FEW,6500,,,,,,,VFR,,,,,,,,,,,,METAR,6
KBRL 272153Z AUTO 25018G26KT 9SM CLR 08/M09 A2984 RMK AO2 PK WND 26030/2122 SLP112 T00781089,KBRL,2025-01-27T21:53:00Z,40.7729,-91.1255,7.8,-8.9,250,18,26,9,29.84,1011.2,,TRUE,TRUE,,,,,,,CLR,,,,,,,,VFR,,,,,,,,,,,,METAR,208
KBRD 272153Z AUTO 30011G18KT 10SM CLR 03/M05 A2965 RMK AO2 PK WND 30026/2115 SLP057 T00331050,KBRD,2025-01-27T21:53:00Z,46.4021,-94.1273,3.3,-5,300,11,18,10+,29.65,1005.7,,TRUE,TRUE,,,,,,,CLR,,,,,,,,VFR,,,,,,,,,,,,METAR,372
KBPT 272153Z 03007KT 10SM SCT014 OVC060 15/11 A3015 RMK AO2 SLP209 T01500106,KBPT,2025-01-27T21:53:00Z,29.9521,-94.0262,15,10.6,30,7,,10+,30.15,1020.9,,,TRUE,,,,,,,SCT,1400,OVC,6000,,,,,VFR,,,,,,,,,,,,METAR,6
KBPK 272153Z AUTO 32004KT 10SM CLR 09/M11 A3012 RMK AO2 SLP206 T00891106,KBPK,2025-01-27T21:53:00Z,36.3705,-92.4719,8.9,-10.6,320,4,,10+,30.12,1020.6,,TRUE,TRUE,,,,,,,CLR,,,,,,,,VFR,,,,,,,,,,,,METAR,279
KBPI 272153Z AUTO 00000KT 10SM CLR M11/M17 A3015 RMK AO2 SLP323 T11061167,KBPI,2025-01-27T21:53:00Z,42.578,-110.11,-10.6,-16.7,0,0,,10+,30.15,1032.3,,TRUE,TRUE,,,,,,,CLR,,,,,,,,VFR,,,,,,,,,,,,METAR,2120
KBOI 272153Z 29004KT 10SM CLR 02/M13 A3032 RMK AO2 SLP293 T00171133,KBOI,2025-01-27T21:53:00Z,43.567,-116.241,1.7,-13.3,290,4,,10+,30.32,1029.3,,,TRUE,,,,,,,CLR,,,,,,,,VFR,,,,,,,,,,,,METAR,860
KBNO 272153Z AUTO 04003KT 10SM CLR 01/M12 A3026 RMK AO2 SLP290 T00111117,KBNO,2025-01-27T21:53:00Z,43.5949,-118.958,1.1,-11.7,40,3,,10+,30.26,1029,,TRUE,TRUE,,,,,,,CLR,,,,,,,,VFR,,,,,,,,,,,,METAR,1263
KBNA 272153Z 30006KT 10SM CLR 09/M11 A3008 RMK AO2 SLP189 T00941106 $,KBNA,2025-01-27T21:53:00Z,36.1105,-86.6881,9.4,-10.6,300,6,,10+,30.08,1018.9,,,TRUE,TRUE,,,,,,CLR,,,,,,,,VFR,,,,,,,,,,,,METAR,168
KBMQ 272153Z AUTO 05007KT 10SM OVC027 11/02 A3019 RMK AO2 SLP219 T01110022,KBMQ,2025-01-27T21:53:00Z,30.7407,-98.2354,11.1,2.2,50,7,,10+,30.19,1021.9,,TRUE,TRUE,,,,,,,OVC,2700,,,,,,,MVFR,,,,,,,,,,,,METAR,387
KBMG 272153Z 24012KT 10SM CLR A2997 RMK AO2 SLPNO,KBMG,2025-01-27T21:53:00Z,39.1432,-86.6168,,,240,12,,10+,29.97,,,,TRUE,,,,,,,CLR,,,,,,,,VFR,,,,,,,,,,,,METAR,254
KBLI 272153Z 29004KT 10SM CLR 06/M02 A3034 RMK AO2 SLP284 T00611022,KBLI,2025-01-27T21:53:00Z,48.7991,-122.541,6.1,-2.2,290,4,,10+,30.34,1028.4,,,TRUE,,,,,,,CLR,,,,,,,,VFR,,,,,,,,,,,,METAR,46
KBKV 272153Z 28009KT 10SM CLR 19/11 A3014 RMK AO2 SLP204 T01890106,KBKV,2025-01-27T21:53:00Z,28.4739,-82.4537,18.9,10.6,280,9,,10+,30.14,1020.4,,,TRUE,,,,,,,CLR,,,,,,,,VFR,,,,,,,,,,,,METAR,21
KBKL 272153Z 20021G32KT 10SM CLR 01/M14 A2974 RMK AO2 PK WND 19036/2131 SLP077 T00111139,KBKL,2025-01-27T21:53:00Z,41.5173,-81.6832,1.1,-13.9,200,21,32,10+,29.74,1007.7,,,TRUE,,,,,,,CLR,,,,,,,,VFR,,,,,,,,,,,,METAR,177
KBKE 272153Z AUTO 28005KT 10SM CLR 04/M12 A3029 RMK AO2 SLP293 T00391122,KBKE,2025-01-27T21:53:00Z,44.843,-117.81,3.9,-12.2,280,5,,10+,30.29,1029.3,,TRUE,TRUE,,,,,,,CLR,,,,,,,,VFR,,,,,,,,,,,,METAR,1025
KBIV 272153Z AUTO 24021G31KT 10SM OVC100 03/M06 A2963 RMK AO2 PK WND 25039/2102 SLP041 T00281056,KBIV,2025-01-27T21:53:00Z,42.7463,-86.0968,2.8,-5.6,240,21,31,10+,29.63,1004.1,,TRUE,TRUE,,,,,,,OVC,10000,,,,,,,VFR,,,,,,,,,,,,METAR,207
KBIL 272153Z 22016KT 10SM CLR 03/M09 A3009 RMK AO2 SLP220 T00281094,KBIL,2025-01-27T21:53:00Z,45.8072,-108.546,2.8,-9.4,220,16,,10+,30.09,1022,,,TRUE,,,,,,,CLR,,,,,,,,VFR,,,,,,,,,,,,METAR,1089
KBGR 272153Z COR 19011KT 10SM FEW120 SCT250 M01/M09 A2949 RMK AO2 SLP990 T10061094,KBGR,2025-01-27T21:53:00Z,44.7979,-68.8195,-0.6,-9.4,190,11,,10+,29.49,999,TRUE,,TRUE,,,,,,,FEW,12000,SCT,25000,,,,,VFR,,,,,,,,,,,,METAR,45
KBGM 272153Z AUTO 22015G23KT 10SM CLR 00/M14 A2961 RMK AO2 PK WND 21028/2055 SLP046 T00001139,KBGM,2025-01-27T21:53:00Z,42.2068,-75.9799,0,-13.9,220,15,23,10+,29.61,1004.6,,TRUE,TRUE,,,,,,,CLR,,,,,,,,VFR,,,,,,,,,,,,METAR,485
KBFM 272153Z 32010KT 10SM OVC015 19/12 A3011 RMK AO2 SLP195 T01890122,KBFM,2025-01-27T21:53:00Z,30.6147,-88.063,18.9,12.2,320,10,,10+,30.11,1019.5,,,TRUE,,,,,,,OVC,1500,,,,,,,MVFR,,,,,,,,,,,,METAR,7
KBFI 272153Z 27005KT 10SM CLR 08/M02 A3034 RMK AO2 SLP273 T00781017,KBFI,2025-01-27T21:53:00Z,47.5455,-122.315,7.8,-1.7,270,5,,10+,30.34,1027.3,,,TRUE,,,,,,,CLR,,,,,,,,VFR,,,,,,,,,,,,METAR,7
KBFF 272153Z AUTO 31016G24KT 10SM CLR 11/M11 A3002 RMK AO2 SLP193 T01061111,KBFF,2025-01-27T21:53:00Z,41.8747,-103.601,10.6,-11.1,310,16,24,10+,30.02,1019.3,,TRUE,TRUE,,,,,,,CLR,,,,,,,,VFR,,,,,,,,,,,,METAR,1204
KBFD 272153Z AUTO 23015G25KT 10SM CLR M01/M16 A2965 RMK AO2 PK WND 21030/2119 SLP063 T10111156,KBFD,2025-01-27T21:53:00Z,41.7984,-78.6354,-1.1,-15.6,230,15,25,10+,29.65,1006.3,,TRUE,TRUE,,,,,,,CLR,,,,,,,,VFR,,,,,,,,,,,,METAR,642
KBEH 272153Z AUTO 24022G35KT 10SM CLR 04/M06 A2969 RMK AO2 PK WND 23036/2054 SLP061 T00391061,KBEH,2025-01-27T21:53:00Z,42.129,-86.4152,3.9,-6.1,240,22,35,10+,29.69,1006.1,,TRUE,TRUE,,,,,,,CLR,,,,,,,,VFR,,,,,,,,,,,,METAR,196
KBDE 272153Z AUTO 32017G24KT 10SM CLR M01/M08 A2966 RMK AO2 PK WND 31034/2140 SLP059 T10061083,KBDE,2025-01-27T21:53:00Z,48.7261,-94.6122,-0.6,-8.3,320,17,24,10+,29.66,1005.9,,TRUE,TRUE,,,,,,,CLR,,,,,,,,VFR,,,,,,,,,,,,METAR,330
KBCT 272153Z 08010KT 10SM SCT035 21/15 A3011,KBCT,2025-01-27T21:53:00Z,26.379,-80.106,21,15,80,10,,10+,30.11,,,,,,,,,,,SCT,3500,,,,,,,VFR,,,,,,,,,,,,METAR,3
KBCE 272153Z AUTO 09009G16KT 10SM FEW070 FEW085 03/M14 A2998 RMK AO2 SLP155 T00331144,KBCE,2025-01-27T21:53:00Z,37.7013,-112.149,3.3,-14.4,90,9,16,10+,29.98,1015.5,,TRUE,TRUE,,,,,,,FEW,7000,FEW,8500,,,,,VFR,,,,,,,,,,,,METAR,2311
KBBW 272153Z AUTO 28016KT 10SM CLR 12/M08 A2991 RMK AO2 SLP147 T01221078,KBBW,2025-01-27T21:53:00Z,41.4365,-99.6385,12.2,-7.8,280,16,,10+,29.91,1014.7,,TRUE,TRUE,,,,,,,CLR,,,,,,,,VFR,,,,,,,,,,,,METAR,771
KBAF 272153Z 21015G24KT 10SM CLR 02/M09 A2967 RMK AO2 SLP056 T00221089,KBAF,2025-01-27T21:53:00Z,42.16,-72.7124,2.2,-8.9,210,15,24,10+,29.67,1005.6,,,TRUE,,,,,,,CLR,,,,,,,,VFR,,,,,,,,,,,,METAR,80
KAZO 272153Z 23015G23KT 10SM CLR 02/M10 A2965 RMK AO2 PK WND 20026/2055 SLP053 T00171100,KAZO,2025-01-27T21:53:00Z,42.2283,-85.546,1.7,-10,230,15,23,10+,29.65,1005.3,,,TRUE,,,,,,,CLR,,,,,,,,VFR,,,,,,,,,,,,METAR,264
KAXN 272153Z AUTO 30012KT 10SM CLR 01/M04 A2971 RMK AO2 SLP083 T00061039,KAXN,2025-01-27T21:53:00Z,45.868,-95.394,0.6,-3.9,300,12,,10+,29.71,1008.3,,TRUE,TRUE,,,,,,,CLR,,,,,,,,VFR,,,,,,,,,,,,METAR,433
KAWM 272153Z AUTO VRB03KT CLR 08/M07 A3016 RMK AO2 SLP213 T00781067 $,KAWM,2025-01-27T21:53:00Z,35.1401,-90.2359,7.8,-6.7,VRB,3,,,30.16,1021.3,,TRUE,TRUE,TRUE,,,,,,CLR,,,,,,,,,,,,,,,,,,,,METAR,64
KAUS 272153Z 36007KT 10SM OVC030 12/05 A3017 RMK AO2 SLP220 T01170050,KAUS,2025-01-27T21:53:00Z,30.2099,-97.6806,11.7,5,360,7,,10+,30.17,1022,,,TRUE,,,,,,,OVC,3000,,,,,,,MVFR,,,,,,,,,,,,METAR,148
KAUG 272153Z AUTO 20009G20KT 10SM CLR 01/M11 A2949 RMK AO2 SLP992 T00111106,KAUG,2025-01-27T21:53:00Z,44.3161,-69.797,1.1,-10.6,200,9,20,10+,29.49,999.2,,TRUE,TRUE,,,,,,,CLR,,,,,,,,VFR,,,,,,,,,,,,METAR,107
KATY 272153Z AUTO 31009KT 10SM OVC080 03/M04 A2979 RMK AO2 SLP109 T00281044,KATY,2025-01-27T21:53:00Z,44.9045,-97.1496,2.8,-4.4,310,9,,10+,29.79,1010.9,,TRUE,TRUE,,,,,,,OVC,8000,,,,,,,VFR,,,,,,,,,,,,METAR,531
KASX 272153Z AUTO 29008G16KT 10SM BKN034 OVC055 01/M06 A2956 RMK AO2 SLP020 T00111056,KASX,2025-01-27T21:53:00Z,46.5468,-90.9184,1.1,-5.6,290,8,16,10+,29.56,1002,,TRUE,TRUE,,,,,,,BKN,3400,OVC,5500,,,,,VFR,,,,,,,,,,,,METAR,249
KASE 272153Z 35005KT 10SM CLR 02/M13 A3005 RMK AO2 SLP188 T00171128,KASE,2025-01-27T21:53:00Z,39.2299,-106.871,1.7,-12.8,350,5,,10+,30.05,1018.8,,,TRUE,,,,,,,CLR,,,,,,,,VFR,,,,,,,,,,,,METAR,2384
KASD 272153Z AUTO 36008KT 10SM OVC011 17/13 A3012 RMK AO2 SLP198 T01720133,KASD,2025-01-27T21:53:00Z,30.3436,-89.8224,17.2,13.3,360,8,,10+,30.12,1019.8,,TRUE,TRUE,,,,,,,OVC,1100,,,,,,,MVFR,,,,,,,,,,,,METAR,8
KARB 272153Z 22014G23KT 10SM CLR 02/M11 A2962 RMK AO2 PK WND 22033/2133 SLP040 T00221106,KARB,2025-01-27T21:53:00Z,42.2239,-83.7398,2.2,-10.6,220,14,23,10+,29.62,1004,,,TRUE,,,,,,,CLR,,,,,,,,VFR,,,,,,,,,,,,METAR,251
KARA 272153Z 03010KT 10SM BKN050 14/10 A3013 RMK AO2 SLP204 T01440100,KARA,2025-01-27T21:53:00Z,30.0292,-91.8845,14.4,10,30,10,,10+,30.13,1020.4,,,TRUE,,,,,,,BKN,5000,,,,,,,VFR,,,,,,,,,,,,METAR,5
KAPF 272153Z 29007KT 10SM CLR 22/14 A3010 RMK AO2 SLP191 T02220144,KAPF,2025-01-27T21:53:00Z,26.155,-81.7751,22.2,14.4,290,7,,10+,30.10,1019.1,,,TRUE,,,,,,,CLR,,,,,,,,VFR,,,,,,,,,,,,METAR,2
KAPA 272153Z 14004KT 10SM CLR 10/M17 A3002 RMK AO2 SLP187 T01001167 $,KAPA,2025-01-27T21:53:00Z,39.5599,-104.848,10,-16.7,140,4,,10+,30.02,1018.7,,,TRUE,TRUE,,,,,,CLR,,,,,,,,VFR,,,,,,,,,,,,METAR,1791
KAOO 272153Z AUTO 23011KT 10SM CLR 01/M13 A2978 RMK AO2 SLP103 T00111128,KAOO,2025-01-27T21:53:00Z,40.2999,-78.3168,1.1,-12.8,230,11,,10+,29.78,1010.3,,TRUE,TRUE,,,,,,,CLR,,,,,,,,VFR,,,,,,,,,,,,METAR,450
KAOH 272153Z AUTO 21017G26KT 10SM CLR M01/M09 A2981 RMK AO2 PK WND 22031/2141 SLP107 T10061089,KAOH,2025-01-27T21:53:00Z,40.7081,-84.0214,-0.6,-8.9,210,17,26,10+,29.81,1010.7,,TRUE,TRUE,,,,,,,CLR,,,,,,,,VFR,,,,,,,,,,,,METAR,294
KANB 272153Z AUTO 24005KT 10SM BKN012 BKN017 OVC030 11/09 A3008 RMK AO2 SLP189 T01060089,KANB,2025-01-27T21:53:00Z,33.5904,-85.8479,10.6,8.9,240,5,,10+,30.08,1018.9,,TRUE,TRUE,,,,,,,BKN,1200,BKN,1700,OVC,3000,,,MVFR,,,,,,,,,,,,METAR,187
KAMW 272153Z AUTO 27017G28KT 10SM CLR 09/M13 A2980 RMK AO2 PK WND 25032/2107 SLP097 T00941128,KAMW,2025-01-27T21:53:00Z,41.9905,-93.6185,9.4,-12.8,270,17,28,10+,29.80,1009.7,,TRUE,TRUE,,,,,,,CLR,,,,,,,,VFR,,,,,,,,,,,,METAR,282
KAMG 272153Z AUTO 00000KT 9SM FEW040 SCT080 BKN120 12/11 A3007 RMK AO2 SLP184 T01220111,KAMG,2025-01-27T21:53:00Z,31.5401,-82.5074,12.2,11.1,0,0,,9,30.07,1018.4,,TRUE,TRUE,,,,,,,FEW,4000,SCT,8000,BKN,12000,,,VFR,,,,,,,,,,,,METAR,61
KAMA 272153Z 23009KT 10SM CLR 12/M06 A3010 RMK AO2 SLP199 T01171061,KAMA,2025-01-27T21:53:00Z,35.2203,-101.717,11.7,-6.1,230,9,,10+,30.10,1019.9,,,TRUE,,,,,,,CLR,,,,,,,,VFR,,,,,,,,,,,,METAR,1102
KALW 272153Z 00000KT 10SM CLR 02/M04 A3041 RMK AO2 SLP314 T00221044,KALW,2025-01-27T21:53:00Z,46.0946,-118.286,2.2,-4.4,0,0,,10+,30.41,1031.4,,,TRUE,,,,,,,CLR,,,,,,,,VFR,,,,,,,,,,,,METAR,355
KAKO 272153Z AUTO 29006KT 10SM CLR 06/M06 A3004 RMK AO2 SLP202 T00611061,KAKO,2025-01-27T21:53:00Z,40.1743,-103.215,6.1,-6.1,290,6,,10+,30.04,1020.2,,TRUE,TRUE,,,,,,,CLR,,,,,,,,VFR,,,,,,,,,,,,METAR,1431
KAIA 272153Z AUTO 31017KT 10SM CLR 09/M08 A2999 RMK AO2 PK WND 31026/2122 SLP189 T00891083,KAIA,2025-01-27T21:53:00Z,42.0573,-102.802,8.9,-8.3,310,17,,10+,29.99,1018.9,,TRUE,TRUE,,,,,,,CLR,,,,,,,,VFR,,,,,,,,,,,,METAR,1198
KAGS 272153Z 20005KT 10SM OVC008 09/08 A3003 RMK AO2 SLP168 T00940083,KAGS,2025-01-27T21:53:00Z,33.3652,-81.9635,9.4,8.3,200,5,,10+,30.03,1016.8,,,TRUE,,,,,,,OVC,800,,,,,,,IFR,,,,,,,,,,,,METAR,40
KAGC 272153Z 24018G23KT 10SM CLR 01/M11 A2982 RMK AO2 SLP117 T00111111,KAGC,2025-01-27T21:53:00Z,40.3551,-79.9215,1.1,-11.1,240,18,23,10+,29.82,1011.7,,,TRUE,,,,,,,CLR,,,,,,,,VFR,,,,,,,,,,,,METAR,380
KAFW 272153Z 36007KT 10SM SCT120 BKN250 12/M05 A3018 RMK AO2 SLP227 T01171050,KAFW,2025-01-27T21:53:00Z,32.99,-97.32,11.7,-5,360,7,,10+,30.18,1022.7,,,TRUE,,,,,,,SCT,12000,BKN,25000,,,,,VFR,,,,,,,,,,,,METAR,208
KADG 272153Z AUTO 23013G29KT 10SM CLR 03/M09 A2968 RMK AO2 PK WND 25035/2058 SLP060 T00281089,KADG,2025-01-27T21:53:00Z,41.8678,-84.0794,2.8,-8.9,230,13,29,10+,29.68,1006,,TRUE,TRUE,,,,,,,CLR,,,,,,,,VFR,,,,,,,,,,,,METAR,244
KACV 272153Z AUTO 31004KT 10SM CLR 13/00 A3017 RMK AO2 SLP222 T01330000,KACV,2025-01-27T21:53:00Z,40.9784,-124.105,13.3,0,310,4,,10+,30.17,1022.2,,TRUE,TRUE,,,,,,,CLR,,,,,,,,VFR,,,,,,,,,,,,METAR,63
KACK 272153Z 10SM CLR 02/M03 A2981 RMK AO2 SLP095 T00171033 $,KACK,2025-01-27T21:53:00Z,41.2541,-70.0589,1.7,-3.3,,,,10+,29.81,1009.5,,,TRUE,TRUE,,,,,,CLR,,,,,,,,VFR,,,,,,,,,,,,METAR,12
KABR 272153Z AUTO 34014KT 10SM CLR 07/M04 A2983 RMK AO2 SLP116 T00671044,KABR,2025-01-27T21:53:00Z,45.4436,-98.4138,6.7,-4.4,340,14,,10+,29.83,1011.6,,TRUE,TRUE,,,,,,,CLR,,,,,,,,VFR,,,,,,,,,,,,METAR,397
PALJ 272152Z 27012KT 25SM BKN060 BKN080 M08/M12 A2992 RMK EST PASS CLSD NOSPECI,PALJ,2025-01-27T21:52:00Z,60.204,-154.316,-8,-12,270,12,,25,29.92,,,,,,,,,,,BKN,6000,BKN,8000,,,,,VFR,,,,,,,,,,,,METAR,88
KVTN 272152Z AUTO 30015G24KT 10SM CLR 08/M07 A2992 RMK AO2 PK WND 30035/2058 SLP157 T00831072,KVTN,2025-01-27T21:52:00Z,42.8585,-100.551,8.3,-7.2,300,15,24,10+,29.92,1015.7,,TRUE,TRUE,,,,,,,CLR,,,,,,,,VFR,,,,,,,,,,,,METAR,790
KTOL 272152Z 22011G25KT 10SM CLR 03/M08 A2972 RMK AO2 PK WND 24036/2059 SLP071 T00281083 $,KTOL,2025-01-27T21:52:00Z,41.5871,-83.8054,2.8,-8.3,220,11,25,10+,29.72,1007.1,,,TRUE,TRUE,,,,,,CLR,,,,,,,,VFR,,,,,,,,,,,,METAR,206
KTAN 272152Z AUTO 22010G19KT 10SM CLR 02/M10 A2975 RMK AO2 SLP072 T00171100,KTAN,2025-01-27T21:52:00Z,41.8756,-71.0208,1.7,-10,220,10,19,10+,29.75,1007.2,,TRUE,TRUE,,,,,,,CLR,,,,,,,,VFR,,,,,,,,,,,,METAR,8
KSUX 272152Z 29008KT 10SM CLR 11/M10 A2981 RMK AO2 SLP109 T01111100,KSUX,2025-01-27T21:52:00Z,42.3917,-96.3795,11.1,-10,290,8,,10+,29.81,1010.9,,,TRUE,,,,,,,CLR,,,,,,,,VFR,,,,,,,,,,,,METAR,332
KSPS 272152Z 30004KT 10SM FEW120 09/M11 A3019 RMK AO2 SLP228 T00941111,KSPS,2025-01-27T21:52:00Z,33.9785,-98.493,9.4,-11.1,300,4,,10+,30.19,1022.8,,,TRUE,,,,,,,FEW,12000,,,,,,,VFR,,,,,,,,,,,,METAR,310
KSPI 272152Z 23013G23KT 10SM CLR 04/M05 A2992 RMK AO2 SLP140 T00441050 $,KSPI,2025-01-27T21:52:00Z,39.8453,-89.684,4.4,-5,230,13,23,10+,29.92,1014,,,TRUE,TRUE,,,,,,CLR,,,,,,,,VFR,,,,,,,,,,,,METAR,179
KSGF 272152Z 25011KT 10SM CLR 08/M08 A3010 RMK AO2 SLP201 T00831083,KSGF,2025-01-27T21:52:00Z,37.2398,-93.39,8.3,-8.3,250,11,,10+,30.10,1020.1,,,TRUE,,,,,,,CLR,,,,,,,,VFR,,,,,,,,,,,,METAR,387
KREO 272152Z AUTO 07003KT 01/M16 A3024 RMK AO1 SLP288 T00111156,KREO,2025-01-27T21:52:00Z,42.5902,-117.865,1.1,-15.6,70,3,,,30.24,1028.8,,TRUE,TRUE,,,,,,,,,,,,,,,,,,,,,,,,,,,METAR,1237
KRAP 272152Z 35023G33KT 10SM CLR 07/M05 A2995 RMK AO2 PK WND 34038/2118 SLP173 T00721050 $,KRAP,2025-01-27T21:52:00Z,44.0458,-103.054,7.2,-5,350,23,33,10+,29.95,1017.3,,,TRUE,TRUE,,,,,,CLR,,,,,,,,VFR,,,,,,,,,,,,METAR,965
KPYM 272152Z AUTO 22011KT 10SM CLR 02/M09 A2973 RMK AO2 PK WND 24029/2104 SLP073 T00171089,KPYM,2025-01-27T21:52:00Z,41.9085,-70.7278,1.7,-8.9,220,11,,10+,29.73,1007.3,,TRUE,TRUE,,,,,,,CLR,,,,,,,,VFR,,,,,,,,,,,,METAR,42
KPWK 272152Z 25011G25KT 10SM BKN110 07/M13 A2969 RMK AO2 PK WND 24031/2129 SLP060 T00671133 $,KPWK,2025-01-27T21:52:00Z,42.1208,-87.9048,6.7,-13.3,250,11,25,10+,29.69,1006,,,TRUE,TRUE,,,,,,BKN,11000,,,,,,,VFR,,,,,,,,,,,,METAR,194
KPPF 272152Z AUTO 24008KT 10SM CLR 09/M08 A3014 RMK AO2 SLP212 T00891078,KPPF,2025-01-27T21:52:00Z,37.3281,-95.5044,8.9,-7.8,240,8,,10+,30.14,1021.2,,TRUE,TRUE,,,,,,,CLR,,,,,,,,VFR,,,,,,,,,,,,METAR,265
KP69 2w2152Z AUTO 00000[T 02/M07 A3039 REK AO1 SLP321 U00221067 ,KP69,2025-01-27T21:52:00Z,46.144,-115.597,2,-7,2,210,,,30.39,,,TRUE,,,,,,,,,,,,,,,,,,,,,,,,,,,,METAR,447
KORE 272152Z AUTO 20011KT 10SM CLR 01/M11 A2964 RMK AO2 SLP046 T00111106,KORE,2025-01-27T21:52:00Z,42.57,-72.287,1.1,-10.6,200,11,,10+,29.64,1004.6,,TRUE,TRUE,,,,,,,CLR,,,,,,,,VFR,,,,,,,,,,,,METAR,165
KOMA 272152Z 25012KT 10SM FEW130 FEW250 11/M12 A2987 RMK AO2 SLP123 T01111122,KOMA,2025-01-27T21:52:00Z,41.3119,-95.9018,11.1,-12.2,250,12,,10+,29.87,1012.3,,,TRUE,,,,,,,FEW,13000,FEW,25000,,,,,VFR,,,,,,,,,,,,METAR,299
KOKC 272152Z 22006KT 10SM FEW200 09/M09 A3017 RMK AO2 SLP223 T00941094,KOKC,2025-01-27T21:52:00Z,35.3843,-97.6003,9.4,-9.4,220,6,,10+,30.17,1022.3,,,TRUE,,,,,,,FEW,20000,,,,,,,VFR,,,,,,,,,,,,METAR,391
KOKB 272152Z AUTO 23010KT 10SM CLR 14/ A3008 RMK AO2 SLP184 T0144,KOKB,2025-01-27T21:52:00Z,33.2195,-117.35,14.4,,230,10,,10+,30.08,1018.4,,TRUE,TRUE,,,,,,,CLR,,,,,,,,VFR,,,,,,,,,,,,METAR,7
KNZY 272152Z 26005KT 10SM FEW035 SCT060 14/07 A3008 RMK AO2 SLP186 T01390067 $,KNZY,2025-01-27T21:52:00Z,32.6922,-117.21,13.9,6.7,260,5,,10+,30.08,1018.6,,,TRUE,TRUE,,,,,,FEW,3500,SCT,6000,,,,,VFR,,,,,,,,,,,,METAR,4
KNRB 272152Z 06004KT 10SM FEW050 BKN110 BKN250 16/12 A3010 RMK AO2 SLP190 T01610122 $,KNRB,2025-01-27T21:52:00Z,30.396,-81.423,16.1,12.2,60,4,,10+,30.10,1019,,,TRUE,TRUE,,,,,,FEW,5000,BKN,11000,BKN,25000,,,VFR,,,,,,,,,,,,METAR,4
KNHK 272152Z 14006KT 10SM CLR 06/M06 A2990 RMK AO2 SLP125 T00561056,KNHK,2025-01-27T21:52:00Z,38.284,-76.408,5.6,-5.6,140,6,,10+,29.90,1012.5,,,TRUE,,,,,,,CLR,,,,,,,,VFR,,,,,,,,,,,,METAR,5
KNFW 272152Z 00000KT 10SM FEW050 SCT150 BKN250 12/M06 A3020 RMK AO2 SLP207 T01221061 $,KNFW,2025-01-27T21:52:00Z,32.781,-97.436,12.2,-6.1,0,0,,10+,30.20,1020.7,,,TRUE,TRUE,,,,,,FEW,5000,SCT,15000,BKN,25000,,,VFR,,,,,,,,,,,,METAR,188
KMWH 272152Z 32003KT 10SM CLR 03/M06 A3043 RMK AO2 SLP320 T00281061,KMWH,2025-01-27T21:52:00Z,47.193,-119.315,2.8,-6.1,320,3,,10+,30.43,1032,,,TRUE,,,,,,,CLR,,,,,,,,VFR,,,,,,,,,,,,METAR,355
KMLI 272152Z 25017G30KT 10SM CLR 08/M10 A2977 RMK AO2 PK WND 23033/2054 SLP087 T00831100,KMLI,2025-01-27T21:52:00Z,41.4482,-90.5237,8.3,-10,250,17,30,10+,29.77,1008.7,,,TRUE,,,,,,,CLR,,,,,,,,VFR,,,,,,,,,,,,METAR,174
KMLF 272152Z AUTO 36011G23KT 10SM CLR 03/M10 A3007 RMK AO2 SLP198 T00281100,KMLF,2025-01-27T21:52:00Z,38.4225,-113.011,2.8,-10,360,11,23,10+,30.07,1019.8,,TRUE,TRUE,,,,,,,CLR,,,,,,,,VFR,,,,,,,,,,,,METAR,1537
KMKE 272152Z 25018G30KT 10SM OVC085 04/M12 A2962 RMK AO2 PK WND 26034/2108 SLP038 T00391117,KMKE,2025-01-27T21:52:00Z,42.9549,-87.9045,3.9,-11.7,250,18,30,10+,29.62,1003.8,,,TRUE,,,,,,,OVC,8500,,,,,,,VFR,,,,,,,,,,,,METAR,203
KMHK 272152Z 22014KT 10SM CLR 06/M03 A3004 RMK AO2 SLP183 T00561028,KMHK,2025-01-27T21:52:00Z,39.1346,-96.6789,5.6,-2.8,220,14,,10+,30.04,1018.3,,,TRUE,,,,,,,CLR,,,,,,,,VFR,,,,,,,,,,,,METAR,320
KMFD 272152Z 21018G29KT 10SM CLR M01/M13 A2979 RMK AO2 PK WND 20031/2121 SLP105 T10111128,KMFD,2025-01-27T21:52:00Z,40.8204,-82.5177,-1.1,-12.8,210,18,29,10+,29.79,1010.5,,,TRUE,,,,,,,CLR,,,,,,,,VFR,,,,,,,,,,,,METAR,394
KMEB 272152Z AUTO 22009KT 10SM OVC006 09/08 A3000 RMK AO2 SLP160 T00890083 PNO $,KMEB,2025-01-27T21:52:00Z,34.7913,-79.3683,8.9,8.3,220,9,,10+,30.00,1016,,TRUE,TRUE,TRUE,,,,,,OVC,600,,,,,,,IFR,,,,,,,,,,,,METAR,65
KMBG 272152Z AUTO 33016G21KT 10SM CLR 07/M04 A2985 RMK AO2 SLP123 T00721044,KMBG,2025-01-27T21:52:00Z,45.543,-100.404,7.2,-4.4,330,16,21,10+,29.85,1012.3,,TRUE,TRUE,,,,,,,CLR,,,,,,,,VFR,,,,,,,,,,,,METAR,515
KLWC 272152Z AUTO 24017G23KT 10SM CLR 07/M05 A3005 RMK AO1 SLP186 T00671050,KLWC,2025-01-27T21:52:00Z,39.0078,-95.2115,6.7,-5,240,17,23,10+,30.05,1018.6,,TRUE,TRUE,,,,,,,CLR,,,,,,,,VFR,,,,,,,,,,,,METAR,252
KIOW 272152Z AUTO 24017G26KT 10SM CLR 08/M14 A2980 RMK AO2 PK WND 27030/2055 SLP096 T00831144,KIOW,2025-01-27T21:52:00Z,41.6394,-91.5445,8.3,-14.4,240,17,26,10+,29.80,1009.6,,TRUE,TRUE,,,,,,,CLR,,,,,,,,VFR,,,,,,,,,,,,METAR,199
KIJD 272152Z AUTO 22010G18KT 10SM CLR 02/M10 A2974 RMK AO2 SLP072 T00171100,KIJD,2025-01-27T21:52:00Z,41.7425,-72.1825,1.7,-10,220,10,18,10+,29.74,1007.2,,TRUE,TRUE,,,,,,,CLR,,,,,,,,VFR,,,,,,,,,,,,METAR,73
KIEN 272152Z AUTO 29009KT 10SM CLR 07/M08 A2997 RMK AO2 SLP176 T00721078,KIEN,2025-01-27T21:52:00Z,43.0261,-102.52,7.2,-7.8,290,9,,10+,29.97,1017.6,,TRUE,TRUE,,,,,,,CLR,,,,,,,,VFR,,,,,,,,,,,,METAR,1002
KIAD 272152Z 20009KT 10SM CLR 08/M07 A2986 RMK AO2 SLP115 T00831072,KIAD,2025-01-27T21:52:00Z,38.9348,-77.4473,8.3,-7.2,200,9,,10+,29.86,1011.5,,,TRUE,,,,,,,CLR,,,,,,,,VFR,,,,,,,,,,,,METAR,90
KHUT 272152Z 21014KT 10SM CLR 09/M03 A3006 RMK AO2 SLP186 T00891033,KHUT,2025-01-27T21:52:00Z,38.0682,-97.8607,8.9,-3.3,210,14,,10+,30.06,1018.6,,,TRUE,,,,,,,CLR,,,,,,,,VFR,,,,,,,,,,,,METAR,464
KHRL 272152Z 36009KT 6SM BR OVC009 17/16 A3007 RMK AO2 RAE04B22E35 SLP180 P0000 T01720161,KHRL,2025-01-27T21:52:00Z,26.2303,-97.6556,17.2,16.1,360,9,,6,30.07,1018,,,TRUE,,,,,,BR,OVC,900,,,,,,,IFR,,,,,,0.005,,,,,,METAR,9
KHIE 272152Z AUTO 23008G19KT 190V260 10SM FEW120 00/M12 A2944 RMK AO2 SLP986 T00001122,KHIE,2025-01-27T21:52:00Z,44.3659,-71.5522,0,-12.2,230,8,19,10+,29.44,998.6,,TRUE,TRUE,,,,,,,FEW,12000,,,,,,,VFR,,,,,,,,,,,,METAR,321
KFIT 272152Z AUTO 20008G17KT 10SM CLR 02/M11 A2965 RMK AO2 SLP044 T00221106,KFIT,2025-01-27T21:52:00Z,42.5549,-71.757,2.2,-10.6,200,8,17,10+,29.65,1004.4,,TRUE,TRUE,,,,,,,CLR,,,,,,,,VFR,,,,,,,,,,,,METAR,102
KEST 272152Z AUTO 30017KT 10SM OVC100 04/M11 A2977 RMK AO2 SLP097 T00391106,KEST,2025-01-27T21:52:00Z,43.4008,-94.7476,3.9,-10.6,300,17,,10+,29.77,1009.7,,TRUE,TRUE,,,,,,,OVC,10000,,,,,,,VFR,,,,,,,,,,,,METAR,401
KDVN 272152Z AUTO 24020G32KT 10SM CLR 08/M10 A2978 RMK AO2 PK WND 23032/2148 SLP089 T00781100,KDVN,2025-01-27T21:52:00Z,41.6133,-90.5948,7.8,-10,240,20,32,10+,29.78,1008.9,,TRUE,TRUE,,,,,,,CLR,,,,,,,,VFR,,,,,,,,,,,,METAR,227
KDPA 272152Z AUTO 24019G29KT 10SM CLR 07/M12 A2971 RMK AO2 PK WND 24031/2112 SLP069 T00671117,KDPA,2025-01-27T21:52:00Z,41.8964,-88.2512,6.7,-11.7,240,19,29,10+,29.71,1006.9,,TRUE,TRUE,,,,,,,CLR,,,,,,,,VFR,,,,,,,,,,,,METAR,228
KDDC 272152Z AUTO 22014G22KT 7SM CLR 12/M05 A3004 RMK AO2 SLP184 T01171050 $,KDDC,2025-01-27T21:52:00Z,37.7711,-99.9692,11.7,-5,220,14,22,7,30.04,1018.4,,TRUE,TRUE,TRUE,,,,,,CLR,,,,,,,,VFR,,,,,,,,,,,,METAR,786
KDCA 272152Z 19006KT 10SM CLR 09/M06 A2988 RMK AO2 SLP116 T00891061,KDCA,2025-01-27T21:52:00Z,38.8472,-77.0345,8.9,-6.1,190,6,,10+,29.88,1011.6,,,TRUE,,,,,,,CLR,,,,,,,,VFR,,,,,,,,,,,,METAR,4
KCVG 272152Z 23012G19KT 10SM CLR 02/M11 A2997 RMK AO2 SLP156 T00221106,KCVG,2025-01-27T21:52:00Z,39.0444,-84.6724,2.2,-10.6,230,12,19,10+,29.97,1015.6,,,TRUE,,,,,,,CLR,,,,,,,,VFR,,,,,,,,,,,,METAR,264
KCQX 272152Z AUTO 23009G22KT 10SM CLR 02/M06 A2979 RMK AO2 SLP088 T00171056 PWINO FZRANO $,KCQX,2025-01-27T21:52:00Z,41.6878,-69.9932,1.7,-5.6,230,9,22,10+,29.79,1008.8,,TRUE,TRUE,TRUE,,,TRUE,TRUE,,CLR,,,,,,,,VFR,,,,,,,,,,,,METAR,17
KCNU 272152Z AUTO 24014G22KT 10SM CLR 10/M07 A3012 RMK AO2 SLP205 T01001072,KCNU,2025-01-27T21:52:00Z,37.6705,-95.4846,10,-7.2,240,14,22,10+,30.12,1020.5,,TRUE,TRUE,,,,,,,CLR,,,,,,,,VFR,,,,,,,,,,,,METAR,301
KCLT 272152Z 21004KT 1/8SM R18C/5000V5500FT BR OVC002 08/07 A2996 RMK AO2 SFC VIS 3/4 SLP162 T00830072,KCLT,2025-01-27T21:52:00Z,35.2225,-80.9543,8.3,7.2,210,4,,0.13,29.96,1016.2,,,TRUE,,,,,,BR,OVC,200,,,,,,,LIFR,,,,,,,,,,,,METAR,223
KCKV 272152Z AUTO 28009KT 9SM CLR 08/M12 A3008 RMK AO2 SLP189 T00831117,KCKV,2025-01-27T21:52:00Z,36.6169,-87.4118,8.3,-11.7,280,9,,9,30.08,1018.9,,TRUE,TRUE,,,,,,,CLR,,,,,,,,VFR,,,,,,,,,,,,METAR,166
KCID 272152Z 24015KT 10SM FEW120 07/M08 A2975 RMK AO2 PK WND 24026/2110 SLP083 T00721083,KCID,2025-01-27T21:52:00Z,41.8829,-91.7246,7.2,-8.3,240,15,,10+,29.75,1008.3,,,TRUE,,,,,,,FEW,12000,,,,,,,VFR,,,,,,,,,,,,METAR,257
KCFV 272152Z AUTO 22012KT 10SM CLR 09/M08 A3014 RMK AO2 SLP213 T00941083,KCFV,2025-01-27T21:52:00Z,37.0912,-95.5726,9.4,-8.3,220,12,,10+,30.14,1021.3,,TRUE,TRUE,,,,,,,CLR,,,,,,,,VFR,,,,,,,,,,,,METAR,228
KBML 272152Z AUTO 18012G23KT 10SM FEW090 SCT110 00/M12 A2942 RMK AO2 PK WND 21035/2059 SLP977 T00001122 $,KBML,2025-01-27T21:52:00Z,44.576,-71.1782,0,-12.2,180,12,23,10+,29.42,997.7,,TRUE,TRUE,TRUE,,,,,,FEW,9000,SCT,11000,,,,,VFR,,,,,,,,,,,,METAR,344
KBLU 272152Z AUTO 10SM CLR 08/M11 A3013 RMK AO2 SLP193 T00781111,KBLU,2025-01-27T21:52:00Z,39.2762,-120.709,7.8,-11.1,,,,10+,30.13,1019.3,,TRUE,TRUE,,,,,,,CLR,,,,,,,,VFR,,,,,,,,,,,,METAR,1605
KBLH 272152Z AUTO 36005KT 10SM BKN070 BKN080 15/04 A3004 RMK AO2 SLP170 T01500044,KBLH,2025-01-27T21:52:00Z,33.6188,-114.715,15,4.4,360,5,,10+,30.04,1017,,TRUE,TRUE,,,,,,,BKN,7000,BKN,8000,,,,,VFR,,,,,,,,,,,,METAR,119
KBLF 272152Z AUTO 29007G16KT 10SM CLR 05/M06 A2990 RMK AO2 SLP134 T00501061,KBLF,2025-01-27T21:52:00Z,37.2978,-81.2036,5,-6.1,290,7,16,10+,29.90,1013.4,,TRUE,TRUE,,,,,,,CLR,,,,,,,,VFR,,,,,,,,,,,,METAR,871
KBIS 272152Z AUTO 32020KT 10SM CLR 03/M04 A2990 RMK AO2 PK WND 33026/2152 SLPNO T00331044,KBIS,2025-01-27T21:52:00Z,46.7823,-100.757,3.3,-4.4,320,20,,10+,29.90,,,TRUE,TRUE,,,,,,,CLR,,,,,,,,VFR,,,,,,,,,,,,METAR,506
KBDR 272152Z 23012KT 10SM CLR 03/M06 A2979 RMK AO2 SLP086 T00281056,KBDR,2025-01-27T21:52:00Z,41.1642,-73.1266,2.8,-5.6,230,12,,10+,29.79,1008.6,,,TRUE,,,,,,,CLR,,,,,,,,VFR,,,,,,,,,,,,METAR,5
KBAN 272152Z AUTO 10SM CLR M01/M07 A3011 RMK AO2 SLP223 T10061072 $,KBAN,2025-01-27T21:52:00Z,38.355,-119.522,-0.6,-7.2,,,,10+,30.11,1022.3,,TRUE,TRUE,TRUE,,,,,,CLR,,,,,,,,VFR,,,,,,,,,,,,METAR,2067
KARR 272152Z 22019G31KT 9SM CLR 07/M11 A2972 RMK AO2 PK WND 23035/2139 SLP073 T00671106,KARR,2025-01-27T21:52:00Z,41.7713,-88.4815,6.7,-10.6,220,19,31,9,29.72,1007.3,,,TRUE,,,,,,,CLR,,,,,,,,VFR,,,,,,,,,,,,METAR,213
KAQW 272152Z AUTO 23013G21KT 10SM CLR 02/M12 A2962 RMK AO2 SLP041 T00171117,KAQW,2025-01-27T21:52:00Z,42.6973,-73.1696,1.7,-11.7,230,13,21,10+,29.62,1004.1,,TRUE,TRUE,,,,,,,CLR,,,,,,,,VFR,,,,,,,,,,,,METAR,196
KALS 272152Z AUTO 00000KT 10SM CLR 07/M14 A3003 RMK AO2 SLP199 T00671144,KALS,2025-01-27T21:52:00Z,37.4393,-105.862,6.7,-14.4,0,0,,10+,30.03,1019.9,,TRUE,TRUE,,,,,,,CLR,,,,,,,,VFR,,,,,,,,,,,,METAR,2299
KAFN 272152Z AUTO 20010G19KT 10SM CLR 00/M11 A2958 RMK AO2 SLP035 T00001111,KAFN,2025-01-27T21:52:00Z,42.8067,-72.0013,0,-11.1,200,10,19,10+,29.58,1003.5,,TRUE,TRUE,,,,,,,CLR,,,,,,,,VFR,,,,,,,,,,,,METAR,308
KABQ 272152Z VRB03KT 10SM FEW080 12/M08 A2999 RMK AO2 SLP141 T01221078,KABQ,2025-01-27T21:52:00Z,35.0419,-106.615,12.2,-7.8,VRB,3,,10+,29.99,1014.1,,,TRUE,,,,,,,FEW,8000,,,,,,,VFR,,,,,,,,,,,,METAR,1620
ENMS 272152Z 18009KT CAVOK M01/M07 Q0991 RMK WIND 412FT 14007KT,ENMS,2025-01-27T21:52:00Z,65.784,13.218,-1,-7,180,9,,6+,29.26,,,,,,,,,,,CAVOK,,,,,,,,VFR,,,,,,,,,,,,METAR,44
PTKK 272151Z 06009G22KT 15SM FEW014 OVC280 29/24 A2981 RMK SLP098 T02870244,PTKK,2025-01-27T21:51:00Z,7.462,151.843,28.7,24.4,60,9,22,15,29.81,1009.8,,,,,,,,,,FEW,1400,OVC,28000,,,,,VFR,,,,,,,,,,,,METAR,3
PHBK 272151Z AUTO 01019G27KT 10SM CLR 26/15 A3006 RMK AO2 PK WND 02029/2118 SLP181 T02560150 $,PHBK,2025-01-27T21:51:00Z,22.034,-159.783,25.6,15,10,19,27,10+,30.06,1018.1,,TRUE,TRUE,TRUE,,,,,,CLR,,,,,,,,VFR,,,,,,,,,,,,METAR,5
MUGM 272151Z 08016KT 10SM FEW030 FEW120 29/22 A2994 RMK PK WND 09027/2058 SLP137 T02890217,MUGM,2025-01-27T21:51:00Z,19.909,-75.206,28.9,21.7,80,16,,10+,29.94,1013.7,,,,,,,,,,FEW,3000,FEW,12000,,,,,VFR,,,,,,,,,,,,METAR,21
KYNG 272151Z 22013G24KT 10SM FEW250 M01/M14 A2976 RMK AO2 PK WND 21027/2122 SLP094 T10061139,KYNG,2025-01-27T21:51:00Z,41.2548,-80.6736,-0.6,-13.9,220,13,24,10+,29.76,1009.4,,,TRUE,,,,,,,FEW,25000,,,,,,,VFR,,,,,,,,,,,,METAR,356
KXWA 272151Z AUTO 22007KT 10SM CLR 00/M04 A2992 RMK AO2 SLP170 T00001039,KXWA,2025-01-27T21:51:00Z,48.2542,-103.747,0,-3.9,220,7,,10+,29.92,1017,,TRUE,TRUE,,,,,,,CLR,,,,,,,,VFR,,,,,,,,,,,,METAR,717
KVNY 272151Z VRB05KT 10SM SCT055 BKN085 15/01 A3005 RMK AO2 SLP174 T01500006,KVNY,2025-01-27T21:51:00Z,34.2121,-118.491,15,0.6,VRB,5,,10+,30.05,1017.4,,,TRUE,,,,,,,SCT,5500,BKN,8500,,,,,VFR,,,,,,,,,,,,METAR,241
KVCT 272151Z 03007KT 6SM BR OVC009 12/09 A3016 RMK AO2 SLP211 T01220094,KVCT,2025-01-27T21:51:00Z,28.8624,-96.9301,12.2,9.4,30,7,,6,30.16,1021.1,,,TRUE,,,,,,BR,OVC,900,,,,,,,IFR,,,,,,,,,,,,METAR,33
KUGN 272151Z 24019G33KT 10SM OVC100 06/M13 A2964 RMK AO2 PK WND 22037/2114 SLP050 T00611128,KUGN,2025-01-27T21:51:00Z,42.4255,-87.8634,6.1,-12.8,240,19,33,10+,29.64,1005,,,TRUE,,,,,,,OVC,10000,,,,,,,VFR,,,,,,,,,,,,METAR,217
KTPL 272151Z AUTO 35006KT 10SM SCT065 OVC080 11/04 A3020 RMK AO2 SLP222 T01110039,KTPL,2025-01-27T21:51:00Z,31.157,-97.4094,11.1,3.9,350,6,,10+,30.20,1022.2,,TRUE,TRUE,,,,,,,SCT,6500,OVC,8000,,,,,VFR,,,,,,,,,,,,METAR,206
KTEB 272151Z 24009KT 10SM CLR 03/M13 A2980 RMK AO2 PK WND 27026/2108 SLP092 T00331133,KTEB,2025-01-27T21:51:00Z,40.859,-74.0562,3.3,-13.3,240,9,,10+,29.80,1009.2,,,TRUE,,,,,,,CLR,,,,,,,,VFR,,,,,,,,,,,,METAR,3
KSTL 272151Z 25017G23KT 10SM CLR 08/M07 A3001 RMK AO2 SLP173 T00781072 $,KSTL,2025-01-27T21:51:00Z,38.7524,-90.3734,7.8,-7.2,250,17,23,10+,30.01,1017.3,,,TRUE,TRUE,,,,,,CLR,,,,,,,,VFR,,,,,,,,,,,,METAR,163
KSNT 272151Z AUTO 00000KT M07/M21 A3018 RMK AO1 SLP291 T10721206,KSNT,2025-01-27T21:51:00Z,44.1708,-114.927,-7.2,-20.6,0,0,,,30.18,1029.1,,TRUE,TRUE,,,,,,,,,,,,,,,,,,,,,,,,,,,METAR,1980
KSMX 272151Z 31013G20KT 10SM FEW050 16/05 A3011 RMK AO2 SLP201 T01560050,KSMX,2025-01-27T21:51:00Z,34.894,-120.452,15.6,5,310,13,20,10+,30.11,1020.1,,,TRUE,,,,,,,FEW,5000,,,,,,,VFR,,,,,,,,,,,,METAR,73
KSMO 272151Z 24006KT 10SM FEW025 14/05 A3008 RMK AO2 SLP186 T01440050 $,KSMO,2025-01-27T21:51:00Z,34.021,-118.447,14.4,5,240,6,,10+,30.08,1018.6,,,TRUE,TRUE,,,,,,FEW,2500,,,,,,,VFR,,,,,,,,,,,,METAR,56
KSLK 272151Z AUTO 22019G32KT 9SM CLR M02/M12 A2935 RMK AO2 PK WND 20040/2056 SLP959 T10221122,KSLK,2025-01-27T21:51:00Z,44.3928,-74.2029,-2.2,-12.2,220,19,32,9,29.35,995.9,,TRUE,TRUE,,,,,,,CLR,,,,,,,,VFR,,,,,,,,,,,,METAR,502
KSJT 272151Z 00000KT 10SM OVC022 06/M06 A3020 RMK AO2 SLP230 T00611061,KSJT,2025-01-27T21:51:00Z,31.3517,-100.495,6.1,-6.1,0,0,,10+,30.20,1023,,,TRUE,,,,,,,OVC,2200,,,,,,,MVFR,,,,,,,,,,,,METAR,582
KSBD 272151Z 12003KT 10SM SCT050 13/02 A3006,KSBD,2025-01-27T21:51:00Z,34.09,-117.247,13,2,120,3,,10+,30.06,,,,,,,,,,,SCT,5000,,,,,,,VFR,,,,,,,,,,,,METAR,353
KSAT 272151Z 04006KT 10SM OVC020 12/06 A3016 RMK AO2 SLP203 VCSH E-S MOV N T01170061,KSAT,2025-01-27T21:51:00Z,29.5443,-98.4839,11.7,6.1,40,6,,10+,30.16,1020.3,,,TRUE,,,,,,,OVC,2000,,,,,,,MVFR,,,,,,,,,,,,METAR,246
KSAN 272151Z 23008KT 10SM SCT030 SCT080 BKN200 16/06 A3010 RMK AO2 SLP193 T01560061,KSAN,2025-01-27T21:51:00Z,32.7365,-117.197,15.6,6.1,230,8,,10+,30.10,1019.3,,,TRUE,,,,,,,SCT,3000,SCT,8000,BKN,20000,,,VFR,,,,,,,,,,,,METAR,3
KSAD 272151Z AUTO 30011G19KT 10SM CLR 18/M10 A2994 RMK AO2 SLP114 T01781100,KSAD,2025-01-27T21:51:00Z,32.8565,-109.636,17.8,-10,300,11,19,10+,29.94,1011.4,,TRUE,TRUE,,,,,,,CLR,,,,,,,,VFR,,,,,,,,,,,,METAR,937
KROW 272151Z AUTO 18009KT 10SM CLR 09/M05 A3009 RMK AO2 SLP184 T00891050,KROW,2025-01-27T21:51:00Z,33.3074,-104.508,8.9,-5,180,9,,10+,30.09,1018.4,,TRUE,TRUE,,,,,,,CLR,,,,,,,,VFR,,,,,,,,,,,,METAR,1105
KPWM 272151Z 21011G19KT 10SM CLR 02/M11 A2956 RMK AO2 SLP012 T00171106 $,KPWM,2025-01-27T21:51:00Z,43.6424,-70.3044,1.7,-10.6,210,11,19,10+,29.56,1001.2,,,TRUE,TRUE,,,,,,CLR,,,,,,,,VFR,,,,,,,,,,,,METAR,15
KPVD 272151Z 20012KT 10SM SCT250 01/M08 A2976 RMK AO2 SLP076 T00111078,KPVD,2025-01-27T21:51:00Z,41.7225,-71.4325,1.1,-7.8,200,12,,10+,29.76,1007.6,,,TRUE,,,,,,,SCT,25000,,,,,,,VFR,,,,,,,,,,,,METAR,15
KPIT 272151Z 23012G22KT 10SM FEW150 02/M12 A2983 RMK AO2 PK WND 23027/2122 SLP121 T00221122,KPIT,2025-01-27T21:51:00Z,40.4814,-80.2083,2.2,-12.2,230,12,22,10+,29.83,1012.1,,,TRUE,,,,,,,FEW,15000,,,,,,,VFR,,,,,,,,,,,,METAR,339
KPHX 272151Z 32005KT 10SM FEW060 SCT100 SCT130 16/03 A3000 RMK AO2 SLP153 T01610028,KPHX,2025-01-27T21:51:00Z,33.4278,-112.004,16.1,2.8,320,5,,10+,30.00,1015.3,,,TRUE,,,,,,,FEW,6000,SCT,10000,SCT,13000,,,VFR,,,,,,,,,,,,METAR,338
KP59 272151Z AUTO M02/M10 A2941 RMK AO1 PK WND 03031/2058 SLP972 T10221100 $,KP59,2025-01-27T21:51:00Z,47.467,-87.875,-2.2,-10,,,,,29.41,997.2,,TRUE,TRUE,TRUE,,,,,,,,,,,,,,,,,,,,,,,,,,METAR,185
KOXR 272151Z 28013KT 10SM CLR 15/07 A3010 RMK AO2 SLP191 T01500072,KOXR,2025-01-27T21:51:00Z,34.2001,-119.204,15,7.2,280,13,,10+,30.10,1019.1,,,TRUE,,,,,,,CLR,,,,,,,,VFR,,,,,,,,,,,,METAR,12
KORF 272151Z VRB03KT 10SM CLR 09/M02 A2991 RMK AO2 SLP127 T00941017,KORF,2025-01-27T21:51:00Z,36.9037,-76.1927,9.4,-1.7,VRB,3,,10+,29.91,1012.7,,,TRUE,,,,,,,CLR,,,,,,,,VFR,,,,,,,,,,,,METAR,5
KORD 272151Z 23018G31KT 10SM SCT150 BKN250 07/M11 A2968 RMK AO2 PK WND 23031/2149 SLP059 T00671111,KORD,2025-01-27T21:51:00Z,41.9602,-87.9316,6.7,-11.1,230,18,31,10+,29.68,1005.9,,,TRUE,,,,,,,SCT,15000,BKN,25000,,,,,VFR,,,,,,,,,,,,METAR,202
KOCF 272151Z 24009KT 10SM CLR 20/11 A3013 RMK AO2 SLP203 T02000106,KOCF,2025-01-27T21:51:00Z,29.1636,-82.221,20,10.6,240,9,,10+,30.13,1020.3,,,TRUE,,,,,,,CLR,,,,,,,,VFR,,,,,,,,,,,,METAR,24
KNYC 272151Z AUTO 24008G15KT 10SM CLR 04/M16 A2982 RMK AO2 SLP090 T00391161,KNYC,2025-01-27T21:51:00Z,40.779,-73.9692,3.9,-16.1,240,8,15,10+,29.82,1009,,TRUE,TRUE,,,,,,,CLR,,,,,,,,VFR,,,,,,,,,,,,METAR,33
KNBT 272151Z AUTO 21009KT 8SM -RA FEW006 BKN025 OVC080 08/08 A3003 RMK AO2 RAB2056 SLP173 P0002 T00830083,KNBT,2025-01-27T21:51:00Z,35.022,-76.463,8.3,8.3,210,9,,8,30.03,1017.3,,TRUE,TRUE,,,,,,-RA,FEW,600,BKN,2500,OVC,8000,,,MVFR,,,,,,0.02,,,,,,METAR,5
KMYL 272151Z AUTO 20004KT 10SM CLR M03/M13 A3020 RMK AO2 SLP295 T10331133,KMYL,2025-01-27T21:51:00Z,44.8943,-116.1,-3.3,-13.3,200,4,,10+,30.20,1029.5,,TRUE,TRUE,,,,,,,CLR,,,,,,,,VFR,,,,,,,,,,,,METAR,1532
KMPV 272151Z AUTO VRB06G19KT 10SM CLR 01/M13 A2949 RMK AO2 PK WND 19027/2058 SLP000 T00061128,KMPV,2025-01-27T21:51:00Z,44.205,-72.5655,0.6,-12.8,VRB,6,19,10+,29.49,1000,,TRUE,TRUE,,,,,,,CLR,,,,,,,,VFR,,,,,,,,,,,,METAR,336
KLWB 272151Z 27009KT 10SM CLR 05/M08 A2990,KLWB,2025-01-27T21:51:00Z,37.8633,-80.3923,5,-8,270,9,,10+,29.90,,,,,,,,,,,CLR,,,,,,,,VFR,,,,,,,,,,,,METAR,702
KLPC 272151Z AUTO 32011G14KT 10SM CLR 17/04 A3012 RMK AO2 SLP200 T01670039 PNO $,KLPC,2025-01-27T21:51:00Z,34.6646,-120.464,16.7,3.9,320,11,14,10+,30.12,1020,,TRUE,TRUE,TRUE,,,,,,CLR,,,,,,,,VFR,,,,,,,,,,,,METAR,26
KLGU 272151Z AUTO 10SM CLR 00/M11 A3019 RMK AO2 SLP259 T00001111,KLGU,2025-01-27T21:51:00Z,41.7865,-111.852,0,-11.1,,,,10+,30.19,1025.9,,TRUE,TRUE,,,,,,,CLR,,,,,,,,VFR,,,,,,,,,,,,METAR,1359
KLGA 272151Z 24016G23KT 10SM FEW250 05/M17 A2981 RMK AO2 SLP092 T00501167 $,KLGA,2025-01-27T21:51:00Z,40.7794,-73.8803,5,-16.7,240,16,23,10+,29.81,1009.2,,,TRUE,TRUE,,,,,,FEW,25000,,,,,,,VFR,,,,,,,,,,,,METAR,9
KJFK 272151Z 25013KT 10SM FEW250 04/M11 A2983 RMK AO2 SLP100 T00441106,KJFK,2025-01-27T21:51:00Z,40.6392,-73.7639,4.4,-10.6,250,13,,10+,29.83,1010,,,TRUE,,,,,,,FEW,25000,,,,,,,VFR,,,,,,,,,,,,METAR,3
KJCT 272151Z AUTO 07004KT 10SM OVC024 09/M01 A3018 RMK AO2 SLP206 T00941006,KJCT,2025-01-27T21:51:00Z,30.5105,-99.7665,9.4,-0.6,70,4,,10+,30.18,1020.6,,TRUE,TRUE,,,,,,,OVC,2400,,,,,,,MVFR,,,,,,,,,,,,METAR,522
KILG 272151Z 20010KT 10SM CLR 06/M09 A2987 RMK AO2 SLP114 T00611094 $,KILG,2025-01-27T21:51:00Z,39.6744,-75.6057,6.1,-9.4,200,10,,10+,29.87,1011.4,,,TRUE,TRUE,,,,,,CLR,,,,,,,,VFR,,,,,,,,,,,,METAR,22
KHTS 272151Z 27005KT 10SM CLR 06/M12 A2997 RMK AO2 SLP154 T00611122,KHTS,2025-01-27T21:51:00Z,38.3653,-82.5548,6.1,-12.2,270,5,,10+,29.97,1015.4,,,TRUE,,,,,,,CLR,,,,,,,,VFR,,,,,,,,,,,,METAR,252
KHDO 272151Z AUTO 01006KT 10SM OVC022 11/07 A3017 RMK AO2 SLP210 T01110072,KHDO,2025-01-27T21:51:00Z,29.3601,-99.1742,11.1,7.2,10,6,,10+,30.17,1021,,TRUE,TRUE,,,,,,,OVC,2200,,,,,,,MVFR,,,,,,,,,,,,METAR,280
KEWR 272151Z 23015G23KT 10SM FEW250 04/M16 A2981 RMK AO2 SLP095 T00441156,KEWR,2025-01-27T21:51:00Z,40.6828,-74.1692,4.4,-15.6,230,15,23,10+,29.81,1009.5,,,TRUE,,,,,,,FEW,25000,,,,,,,VFR,,,,,,,,,,,,METAR,2
KERI 272151Z 20022G34KT 10SM CLR 00/M13 A2966 RMK AO2 PK WND 19036/2134 SLP053 T00001128,KERI,2025-01-27T21:51:00Z,42.0803,-80.1824,0,-12.8,200,22,34,10+,29.66,1005.3,,,TRUE,,,,,,,CLR,,,,,,,,VFR,,,,,,,,,,,,METAR,222
KELP 272151Z 13007KT 10SM FEW250 18/M06 A2998 RMK AO2 SLP123 T01831056,KELP,2025-01-27T21:51:00Z,31.8123,-106.377,18.3,-5.6,130,7,,10+,29.98,1012.3,,,TRUE,,,,,,,FEW,25000,,,,,,,VFR,,,,,,,,,,,,METAR,1205
KEKN 272151Z AUTO 24013G21KT 10SM CLR 03/M12 A2988 RMK AO2 SLP144 T00331117,KEKN,2025-01-27T21:51:00Z,38.8899,-79.8554,3.3,-11.7,240,13,21,10+,29.88,1014.4,,TRUE,TRUE,,,,,,,CLR,,,,,,,,VFR,,,,,,,,,,,,METAR,596
KDAW 272151Z AUTO VRB05KT 10SM CLR 02/M11 A2957 RMK AO2 SLP015 T00171106,KDAW,2025-01-27T21:51:00Z,43.2794,-70.9243,1.7,-10.6,VRB,5,,10+,29.57,1001.5,,TRUE,TRUE,,,,,,,CLR,,,,,,,,VFR,,,,,,,,,,,,METAR,100
KCSG 272151Z 28003KT 10SM OVC005 12/11 A3006 RMK AO2 SLP178 T01220111,KCSG,2025-01-27T21:51:00Z,32.5163,-84.9422,12.2,11.1,280,3,,10+,30.06,1017.8,,,TRUE,,,,,,,OVC,500,,,,,,,IFR,,,,,,,,,,,,METAR,120
KCRP 272151Z 05011KT 8SM FEW005 OVC008 13/12 A3013 RMK AO2 SLP202 T01330117,KCRP,2025-01-27T21:51:00Z,27.7733,-97.513,13.3,11.7,50,11,,8,30.13,1020.2,,,TRUE,,,,,,,FEW,500,OVC,800,,,,,IFR,,,,,,,,,,,,METAR,11
KCON 272151Z AUTO 20010KT 10SM CLR 02/M11 A2959 RMK AO2 SLP024 T00171106,KCON,2025-01-27T21:51:00Z,43.2049,-71.5026,1.7,-10.6,200,10,,10+,29.59,1002.4,,TRUE,TRUE,,,,,,,CLR,,,,,,,,VFR,,,,,,,,,,,,METAR,102
KCMH 272151Z 21012G18KT 10SM FEW250 01/M10 A2991 RMK AO2 PK WND 23026/2125 SLP137 T00061100,KCMH,2025-01-27T21:51:00Z,39.9907,-82.8771,0.6,-10,210,12,18,10+,29.91,1013.7,,,TRUE,,,,,,,FEW,25000,,,,,,,VFR,,,,,,,,,,,,METAR,257
KCLE 272151Z 21018G35KT 10SM FEW250 01/M13 A2974 RMK AO2 PK WND 20035/2143 SLP096 T00061128,KCLE,2025-01-27T21:51:00Z,41.4057,-81.8519,0.6,-12.8,210,18,35,10+,29.74,1009.6,,,TRUE,,,,,,,FEW,25000,,,,,,,VFR,,,,,,,,,,,,METAR,237
KCDJ 272151Z AUTO 23008G17KT 07/M05 A2998 RMK AO1 SLP166 T00671050,KCDJ,2025-01-27T21:51:00Z,39.8198,-93.577,6.7,-5,230,8,17,,29.98,1016.6,,TRUE,TRUE,,,,,,,,,,,,,,,,,,,,,,,,,,,METAR,234
KCAK 272151Z 24018G26KT 10SM FEW150 FEW250 M01/M13 A2980 RMK AO2 PK WND 21032/2117 SLP107 T10111133,KCAK,2025-01-27T21:51:00Z,40.9181,-81.4434,-1.1,-13.3,240,18,26,10+,29.80,1010.7,,,TRUE,,,,,,,FEW,15000,FEW,25000,,,,,VFR,,,,,,,,,,,,METAR,369
KBKW 272151Z AUTO 28011KT 10SM CLR 05/M08 A2990 RMK AO2 SLP146 T00501083,KBKW,2025-01-27T21:51:00Z,37.7836,-81.1228,5,-8.3,280,11,,10+,29.90,1014.6,,TRUE,TRUE,,,,,,,CLR,,,,,,,,VFR,,,,,,,,,,,,METAR,762
KBHK 272151Z AUTO 29013KT 10SM CLR 02/M03 A2999 RMK AO2 SLP186 T00171033,KBHK,2025-01-27T21:51:00Z,46.3521,-104.261,1.7,-3.3,290,13,,10+,29.99,1018.6,,TRUE,TRUE,,,,,,,CLR,,,,,,,,VFR,,,,,,,,,,,,METAR,904
KBGD 272151Z AUTO 23009KT 10SM CLR 12/M06 A3009 RMK AO2 SLP195 T01221056,KBGD,2025-01-27T21:51:00Z,35.695,-101.396,12.2,-5.6,230,9,,10+,30.09,1019.5,,TRUE,TRUE,,,,,,,CLR,,,,,,,,VFR,,,,,,,,,,,,METAR,928
KBED 272151Z 22011G19KT 10SM CLR 02/M11 A2966 RMK AO2 SLP061 T00221111,KBED,2025-01-27T21:51:00Z,42.4681,-71.2946,2.2,-11.1,220,11,19,10+,29.66,1006.1,,,TRUE,,,,,,,CLR,,,,,,,,VFR,,,,,,,,,,,,METAR,39
KBDL 272151Z 21014G24KT 10SM FEW180 FEW200 FEW250 04/M08 A2970 RMK AO2 SLP060 T00391083,KBDL,2025-01-27T21:51:00Z,41.9374,-72.682,3.9,-8.3,210,14,24,10+,29.70,1006,,,TRUE,,,,,,,FEW,18000,FEW,20000,FEW,25000,,,VFR,,,,,,,,,,,,METAR,52
KBAZ 272151Z 05009KT 10SM OVC024 12/06 A3016 RMK AO2 SLP210 T01220061,KBAZ,2025-01-27T21:51:00Z,29.7089,-98.0459,12.2,6.1,50,9,,10+,30.16,1021,,,TRUE,,,,,,,OVC,2400,,,,,,,MVFR,,,,,,,,,,,,METAR,199
KAVX 272151Z AUTO 01007KT 10SM CLR 09/06 A3008 RMK AO2 SLP193 T00890056,KAVX,2025-01-27T21:51:00Z,33.4042,-118.415,8.9,5.6,10,7,,10+,30.08,1019.3,,TRUE,TRUE,,,,,,,CLR,,,,,,,,VFR,,,,,,,,,,,,METAR,482
KATT 272151Z AUTO VRB04KT 10SM OVC032 12/05 A3019 RMK AO2 SLP224 T01170050,KATT,2025-01-27T21:51:00Z,30.3208,-97.7604,11.7,5,VRB,4,,10+,30.19,1022.4,,TRUE,TRUE,,,,,,,OVC,3200,,,,,,,VFR,,,,,,,,,,,,METAR,203
KALB 272151Z 15010KT 10SM FEW200 BKN250 03/M09 A2962 RMK AO2 SLP034 T00281094,KALB,2025-01-27T21:51:00Z,42.7473,-73.7991,2.8,-9.4,150,10,,10+,29.62,1003.4,,,TRUE,,,,,,,FEW,20000,BKN,25000,,,,,VFR,,,,,,,,,,,,METAR,82
KACT 272151Z AUTO 04006KT 10SM CLR 11/04 A3020 RMK AO2 SLP225 T01110039,KACT,2025-01-27T21:51:00Z,31.618,-97.2283,11.1,3.9,40,6,,10+,30.20,1022.5,,TRUE,TRUE,,,,,,,CLR,,,,,,,,VFR,,,,,,,,,,,,METAR,150
KABE 272151Z 24012G20KT 10SM CLR 02/M12 A2980 RMK AO2 SLP097 T00221122,KABE,2025-01-27T21:51:00Z,40.658,-75.4347,2.2,-12.2,240,12,20,10+,29.80,1009.7,,,TRUE,,,,,,,CLR,,,,,,,,VFR,,,,,,,,,,,,METAR,117
TJBQ 272150Z 09010G15KT 10SM SCT017 SCT047 SCT060 25/22 A2998,TJBQ,2025-01-27T21:50:00Z,18.494,-67.128,25,22,90,10,15,10+,29.98,,,,,,,,,,,SCT,1700,SCT,4700,SCT,6000,,,VFR,,,,,,,,,,,,METAR,69
PTYA 272150Z VRB03KT 12SM FEW016 SCT300 27/25 A2981 RMK SLP095 T02660254,PTYA,2025-01-27T21:50:00Z,9.487,138.077,26.6,25.4,VRB,3,,12,29.81,1009.5,,,,,,,,,,FEW,1600,SCT,30000,,,,,VFR,,,,,,,,,,,,METAR,4
PTRO 272150Z COR 00000KT 13SM BKN015CB BKN110 OVC280 25/24 A2982 RMK CB ALQDS,PTRO,2025-01-27T21:50:00Z,7.367,134.544,25,24,0,0,,13,29.82,,TRUE,,,,,,,,,BKN,1500,BKN,11000,OVC,28000,,,MVFR,,,,,,,,,,,,METAR,30
OOSH 272150Z AUTO 23003KT //// ////// 19/04 Q1012 RMK QFE1008 RH035? PR000.0,OOSH,2025-01-27T21:50:00Z,24.388,56.624,19,4,230,3,,,29.88,,,TRUE,,,,,,,,,,,,,,,,,,,,,,,,,,,,METAR,35
OOSA 272150Z 35004KT CAVOK 20/14 Q1014 NOSIG,OOSA,2025-01-27T21:50:00Z,17.044,54.102,20,14,350,4,,6+,29.94,,,,,,TRUE,,,,,CAVOK,,,,,,,,VFR,,,,,,,,,,,,METAR,20
OOMS 272150Z 23003KT CAVOK 16/11 Q1012 NOSIG,OOMS,2025-01-27T21:50:00Z,23.595,58.298,16,11,230,3,,6+,29.88,,,,,,TRUE,,,,,CAVOK,,,,,,,,VFR,,,,,,,,,,,,METAR,8
OOKB 272150Z AUTO VRB07G19KT CAVOK 24/02 Q1013 NOSIG,OOKB,2025-01-27T21:50:00Z,26.168,56.239,24,2,VRB,7,19,6+,29.91,,,TRUE,,,TRUE,,,,,CAVOK,,,,,,,,VFR,,,,,,,,,,,,METAR,30
OODQ 272150Z AUTO 25004KT //// R22///// NCD 18/16 Q1014 NOSIG RMK RH88? 0,OODQ,2025-01-27T21:50:00Z,19.511,57.657,18,16,250,4,,,29.94,,,TRUE,,,TRUE,,,,,CLR,,,,,,,,,,,,,,,,,,,,METAR,116
OOAD 272150Z AUTO 10010KT 9999 // NCD 18/12 Q1015 NOSIG,OOAD,2025-01-27T21:50:00Z,22.5,57.37,18,12,100,10,,6+,29.97,,,TRUE,,,TRUE,,,,,CLR,,,,,,,,VFR,,,,,,,,,,,,METAR,327
NZSP 272150Z 04008KT 8000 BR FEW004 BKN010 M27/ A2881 RMK CLN AIR 02009KT ALL WNDS GRID SDF/HDF,NZSP,2025-01-27T21:50:00Z,-89.98,180,-27,,40,8,,4.97,28.81,,,,,,,,,,BR,FEW,400,BKN,1000,,,,,MVFR,,,,,,,,,,,,METAR,2830
NSTU 272150Z 10008KT 12SM SCT025TCU BKN250 31/25 A2984 RMK TCU W-NE SLP105 T03130251,NSTU,2025-01-27T21:50:00Z,-14.337,-170.721,31.3,25.1,100,8,,12,29.84,1010.5,,,,,,,,,,SCT,2500,BKN,25000,,,,,VFR,,,,,,,,,,,,METAR,8
MUVR 272150Z 07009KT 040V100 9000 SCT020 BKN050 24/20 Q1018,MUVR,2025-01-27T21:50:00Z,23.033,-81.435,24,20,70,9,,5.59,30.06,,,,,,,,,,,SCT,2000,BKN,5000,,,,,VFR,,,,,,,,,,,,METAR,65
MUSC 272150Z 06011KT 9000 SCT015 23/21 Q1018,MUSC,2025-01-27T21:50:00Z,22.494,-79.931,23,21,60,11,,5.59,30.06,,,,,,,,,,,SCT,1500,,,,,,,VFR,,,,,,,,,,,,METAR,97
MUMZ 272150Z AUTO /////KT XX/XX Q////,MUMZ,2025-01-27T21:50:00Z,20.285,-77.095,,,,,,,0.00,,,TRUE,,,,,,,,,,,,,,,,,,,,,,,,,,,,METAR,32
MUHG 272150Z 04013KT 010V080 9999 FEW042 27/21 Q1015,MUHG,2025-01-27T21:50:00Z,20.786,-76.316,27,21,40,13,,6+,29.97,,,,,,,,,,,FEW,4200,,,,,,,VFR,,,,,,,,,,,,METAR,100
MUHA 272150Z 05014KT 9000 FEW030 25/20 Q1018,MUHA,2025-01-27T21:50:00Z,22.991,-82.41,25,20,50,14,,5.59,30.06,,,,,,,,,,,FEW,3000,,,,,,,VFR,,,,,,,,,,,,METAR,61
MUCU 272150Z 15008KT 110V200 9000 SCT020TCU 27/22 Q1014 RMK TCU AT I / IV QUAD AD,MUCU,2025-01-27T21:50:00Z,19.971,-75.837,27,22,150,8,,5.59,29.94,,,,,,,,,,,SCT,2000,,,,,,,VFR,,,,,,,,,,,,METAR,70
MUCM 272150Z 03013KT 9000 FEW018 27/21 Q1016,MUCM,2025-01-27T21:50:00Z,21.42,-77.85,27,21,30,13,,5.59,30.00,,,,,,,,,,,FEW,1800,,,,,,,VFR,,,,,,,,,,,,METAR,125
MUCL 272150Z VRB03KT 9000 FEW020 26/21 Q1016,MUCL,2025-01-27T21:50:00Z,21.621,-81.552,26,21,VRB,3,,5.59,30.00,,,,,,,,,,,FEW,2000,,,,,,,VFR,,,,,,,,,,,,METAR,5
MUCF 272150Z AUTO 05009KT 27/21 Q1016,MUCF,2025-01-27T21:50:00Z,22.159,-80.41,27,21,50,9,,,30.00,,,TRUE,,,,,,,,,,,,,,,,,,,,,,,,,,,,METAR,35
MUCC 272150Z 07012KT 9000 SCT020 25/22 Q1017,MUCC,2025-01-27T21:50:00Z,22.456,-78.339,25,22,70,12,,5.59,30.03,,,,,,,,,,,SCT,2000,,,,,,,VFR,,,,,,,,,,,,METAR,7
MMMX 272150Z 18004KT 8SM SKC 25/M03 A3024 NOSIG RMK HZY CI,MMMX,2025-01-27T21:50:00Z,19.436,-99.072,25,-3,180,4,,8,30.24,,,,,,TRUE,,,,,SKC,,,,,,,,VFR,,,,,,,,,,,,METAR,2224
MMMV 272150Z 04005KT 10SM BKN060 BKN090 14/08 A3011 RMK 8/570,MMMV,2025-01-27T21:50:00Z,26.956,-101.47,14,8,40,5,,10+,30.11,,,,,,,,,,,BKN,6000,BKN,9000,,,,,VFR,,,,,,,,,,,,METAR,567
MMGL 272150Z 03004KT 6SM OVC300 27/03 A3012 RMK 8/007 HZY,MMGL,2025-01-27T21:50:00Z,20.523,-103.312,27,3,30,4,,6,30.12,,,,,,,,,,,OVC,30000,,,,,,,VFR,,,,,,,,,,,,METAR,1531
LXGB 272150Z AUTO 25018KT 9999 NCD 17/12 Q1024,LXGB,2025-01-27T21:50:00Z,36.151,-5.35,17,12,250,18,,6+,30.24,,,TRUE,,,,,,,,CLR,,,,,,,,VFR,,,,,,,,,,,,METAR,5
LTFO 272150Z 11003KT 080V140 CAVOK 05/02 Q1024,LTFO,2025-01-27T21:50:00Z,41.179,40.845,5,2,110,3,,6+,30.24,,,,,,,,,,,CAVOK,,,,,,,,VFR,,,,,,,,,,,,METAR,5
LTFM 272150Z 20008KT 6000 NSC 06/05 Q1021 NOSIG RMK RWY17L 19008KT RWY34L 19007KT RWY16R 19007KT RWY36 18004KT RWY18 20010KT,LTFM,2025-01-27T21:50:00Z,41.262,28.74,6,5,200,8,,3.73,30.15,,,,,,TRUE,,,,,CLR,,,,,,,,MVFR,,,1,,,,,,,,,METAR,99
LTFJ 272150Z VRB01KT 6000 NSC 08/05 Q1021 NOSIG RMK RWY24R VRB02KT RWY06R 00000KT RWY24L 09002KT,LTFJ,2025-01-27T21:50:00Z,40.899,29.309,8,5,VRB,1,,3.73,30.15,,,,,,TRUE,,,,,CLR,,,,,,,,MVFR,,,,,,,,,,,,METAR,83
LTFH 272150Z 15007KT 8000 NSC 04/03 Q1022 NOSIG,LTFH,2025-01-27T21:50:00Z,41.255,36.567,4,3,150,7,,4.97,30.18,,,,,,TRUE,,,,,CLR,,,,,,,,MVFR,,,,,,,,,,,,METAR,7
LTFG 272150Z 12006KT CAVOK 09/07 Q1023,LTFG,2025-01-27T21:50:00Z,36.299,32.3,9,7,120,6,,6+,30.21,,,,,,,,,,,CAVOK,,,,,,,,VFR,,,,,,,,,,,,METAR,26
LTFE 272150Z 13003KT 6000 NSC 08/08 Q1022 BECMG TL2400 4000 BR,LTFE,2025-01-27T21:50:00Z,37.245,27.673,8,8,130,3,,3.73,30.18,,,,,,,,,,,CLR,,,,,,,,MVFR,,,,,,,,,,,,METAR,6
LTFD 272150Z 10004KT 8000 NSC 04/04 Q1022,LTFD,2025-01-27T21:50:00Z,39.559,27.025,4,4,100,4,,4.97,30.18,,,,,,,,,,,CLR,,,,,,,,MVFR,,,,,,,,,,,,METAR,15
LTFC 272150Z VRB01KT 0200 R05/0800N R23/0550N FZFG VV002 M00/M00 Q1024,LTFC,2025-01-27T21:50:00Z,37.855,30.368,0,0,VRB,1,,0.12,30.24,,,,,,,,,,FZFG,OVX,0,,,,,,,LIFR,,,,,,,,,,,200,METAR,862
LTDB 272150Z 03002KT CAVOK 05/M01 Q1023 NOSIG,LTDB,2025-01-27T21:50:00Z,36.8938,35.07,5,-1,30,2,,6+,30.21,,,,,,TRUE,,,,,CAVOK,,,,,,,,VFR,,,,,,,,,,,,METAR,6
LTDA 272150Z VRB02KT CAVOK 04/M00 Q1023 NOSIG,LTDA,2025-01-27T21:50:00Z,36.361,36.283,4,0,VRB,2,,6+,30.21,,,,,,TRUE,,,,,CAVOK,,,,,,,,VFR,,,,,,,,,,,,METAR,80
LTCW 272150Z VRB02KT 3000 BR SCT007 SCT030 M08/M10 Q1023,LTCW,2025-01-27T21:50:00Z,37.55,44.238,-8,-10,VRB,2,,1.86,30.21,,,,,,,,,,BR,SCT,700,SCT,3000,,,,,IFR,,,,,,,,,,,,METAR,1852
LTCV 272150Z 23008KT CAVOK 04/M03 Q1021,LTCV,2025-01-27T21:50:00Z,37.365,42.06,4,-3,230,8,,6+,30.15,,,,,,,,,,,CAVOK,,,,,,,,VFR,,,,,,,,,,,,METAR,620
LTCT 272150Z 25008KT CAVOK M02/M07 Q1027,LTCT,2025-01-27T21:50:00Z,39.977,43.878,-2,-7,250,8,,6+,30.32,,,,,,,,,,,CAVOK,,,,,,,,VFR,,,,,,,,,,,,METAR,936
LTCS 272150Z 01008KT CAVOK 04/M05 Q1022 RMK RWY22 03007KT SKC,LTCS,2025-01-27T21:50:00Z,37.445,38.904,4,-5,10,8,,6+,30.18,,,,,,,,,,,CAVOK,,,,,,,,VFR,,,,,,,,,,,,METAR,825
LTCN 272150Z 08005KT CAVOK 03/M03 Q1023,LTCN,2025-01-27T21:50:00Z,37.539,36.953,3,-3,80,5,,6+,30.21,,,,,,,,,,,CAVOK,,,,,,,,VFR,,,,,,,,,,,,METAR,505
LTCJ 272150Z VRB03KT CAVOK 01/M05 Q1023 NOSIG RMK RWY20 18004KT SKC,LTCJ,2025-01-27T21:50:00Z,37.93,41.117,1,-5,VRB,3,,6+,30.21,,,,,,TRUE,,,,,CAVOK,,,,,,,,VFR,,,,,,,,,,,,METAR,559
LTCI 272150Z 04004KT 010V070 9999 FEW030 M05/M10 Q1023 NOSIG,LTCI,2025-01-27T21:50:00Z,38.469,43.337,-5,-10,40,4,,6+,30.21,,,,,,TRUE,,,,,FEW,3000,,,,,,,VFR,,,,,,,,,,,,METAR,1654
LTCG 272150Z 00000KT CAVOK 07/02 Q1024 NOSIG RMK RWY29 00000KT,LTCG,2025-01-27T21:50:00Z,40.995,39.782,7,2,0,0,,6+,30.24,,,,,,TRUE,,,,,CAVOK,,,,,,,,VFR,,,,,,,,,,,,METAR,28
LTCF 272150Z 00000KT 0400 R06/0550U R24/0900D FZFG VV001 M16/M18 Q1025 NOSIG,LTCF,2025-01-27T21:50:00Z,40.562,43.115,-16,-18,0,0,,0.25,30.27,,,,,,TRUE,,,,FZFG,OVX,0,,,,,,,LIFR,,,,,,,,,,,100,METAR,1794
LTCE 272150Z VRB02KT 2000 BR NSC M18/M20 Q1025 NOSIG RMK RWY08R VRB02KT RWY26R VRB01KT RWY08L 25002KT SKC,LTCE,2025-01-27T21:50:00Z,39.956,41.17,-18,-20,VRB,2,,1.24,30.27,,,,,,TRUE,,,,BR,CLR,,,,,,,,IFR,,,,,,,,,,,,METAR,1758
LTCD 272150Z 00000KT 6000 NSC M09/M10 Q1027 NOSIG,LTCD,2025-01-27T21:50:00Z,39.71,39.527,-9,-10,0,0,,3.73,30.32,,,,,,TRUE,,,,,CLR,,,,,,,,MVFR,,,,,,,,,,,,METAR,1146
LTCC 272150Z 24006KT CAVOK M01/M06 Q1022 NOSIG RMK RWY16 25004KT SKC,LTCC,2025-01-27T21:50:00Z,37.894,40.201,-1,-6,240,6,,6+,30.18,,,,,,TRUE,,,,,CAVOK,,,,,,,,VFR,,,,,,,,,,,,METAR,676
LTCB 272150Z VRB02KT CAVOK 04/02 Q1023 NOSIG,LTCB,2025-01-27T21:50:00Z,40.967,38.081,4,2,VRB,2,,6+,30.21,,,,,,TRUE,,,,,CAVOK,,,,,,,,VFR,,,,,,,,,,,,METAR,5
LTCA 272150Z 24006KT CAVOK M04/M06 Q1024 NOSIG,LTCA,2025-01-27T21:50:00Z,38.607,39.291,-4,-6,240,6,,6+,30.24,,,,,,TRUE,,,,,CAVOK,,,,,,,,VFR,,,,,,,,,,,,METAR,887
LTBY 272150Z 11005KT 070V140 5000 BR OVC004 03/02 Q1024,LTBY,2025-01-27T21:50:00Z,39.81,30.519,3,2,110,5,,3.11,30.24,,,,,,,,,,BR,OVC,400,,,,,,,LIFR,,,,,,,,,,,,METAR,788
LTBU 272150Z 00000KT 0250 R04/0225N R22/0250D FG VV002 04/03 Q1021,LTBU,2025-01-27T21:50:00Z,41.139,27.919,4,3,0,0,,0.16,30.15,,,,,,,,,,FG,OVX,0,,,,,,,LIFR,,,,,,,,,,,200,METAR,165
LTBS 272150Z 05004KT CAVOK 11/09 Q1022 NOSIG RMK RWY19 34006KT 4CI180,LTBS,2025-01-27T21:50:00Z,36.713,28.793,11,9,50,4,,6+,30.18,,,,,,TRUE,,,,,CAVOK,,,,,,,,VFR,,,,,,,,,,,,METAR,2
LTBR 272150Z 11004KT 5000 BR NSC 04/03 Q1022 BECMG TL2250 2000,LTBR,2025-01-27T21:50:00Z,40.255,29.562,4,3,110,4,,3.11,30.18,,,,,,,,,,BR,CLR,,,,,,,,MVFR,,,,,,,,,,,,METAR,233
LTBQ 272150Z 00000KT 4000 BR FEW002 00/M00 Q1022 NOSIG,LTBQ,2025-01-27T21:50:00Z,40.735,30.083,0,0,0,0,,2.49,30.18,,,,,,TRUE,,,,BR,FEW,200,,,,,,,IFR,,,,,,,,,,,,METAR,51
LTBJ 272150Z 00000KT 7000 NSC 05/05 Q1022 NOSIG RMK RWY16 VRB01KT,LTBJ,2025-01-27T21:50:00Z,38.285,27.155,5,5,0,0,,4.35,30.18,,,,,,TRUE,,,,,CLR,,,,,,,,MVFR,,,,,,,,,,,,METAR,123
LTBH 272150Z 03004KT 8000 FEW030 SCT100 06/05 Q1022,LTBH,2025-01-27T21:50:00Z,40.14,26.425,6,5,30,4,,4.97,30.18,,,,,,,,,,,FEW,3000,SCT,10000,,,,,MVFR,,,,,,,,,,,,METAR,8
LTBF 272150Z 00000KT 0200 R36/0225N R18/0250N FG VV001 03/03 Q1022 NOSIG,LTBF,2025-01-27T21:50:00Z,39.619,27.926,3,3,0,0,,0.12,30.18,,,,,,TRUE,,,,FG,OVX,0,,,,,,,LIFR,,,,,,,,,,,100,METAR,95
LTBD 272150Z 04003KT 5000 BR NSC 07/07 Q1022,LTBD,2025-01-27T21:50:00Z,37.816,27.886,7,7,40,3,,3.11,30.18,,,,,,,,,,BR,CLR,,,,,,,,MVFR,,,,,,,,,,,,METAR,29
LTBA 272150Z 00000KT 2200 BR NSC 07/06 Q1021 RMK RWY23 16002KT,LTBA,2025-01-27T21:50:00Z,40.982,28.821,7,6,0,0,,1.37,30.15,,,,,,,,,,BR,CLR,,,,,,,,IFR,,,,,,,,,,,,METAR,33
LTAZ 272150Z 08006KT CAVOK M02/M04 Q1024 RMK RWY29 14006KT,LTAZ,2025-01-27T21:50:00Z,38.771,34.521,-2,-4,80,6,,6+,30.24,,,,,,,,,,,CAVOK,,,,,,,,VFR,,,,,,,,,,,,METAR,944
LTAY 272150Z VRB01KT CAVOK 02/02 Q1022 NOSIG,LTAY,2025-01-27T21:50:00Z,37.785,29.701,2,2,VRB,1,,6+,30.18,,,,,,TRUE,,,,,CAVOK,,,,,,,,VFR,,,,,,,,,,,,METAR,851
LTAU 272150Z 07004KT CAVOK M03/M06 Q1024 NOSIG RMK RWY07 12004KT,LTAU,2025-01-27T21:50:00Z,38.77,35.495,-3,-6,70,4,,6+,30.24,,,,,,TRUE,,,,,CAVOK,,,,,,,,VFR,,,,,,,,,,,,METAR,1053
LTAT 272150Z 22005KT CAVOK M05/M07 Q1024 NOSIG RMK RWY03 21004KT,LTAT,2025-01-27T21:50:00Z,38.435,38.092,-5,-7,220,5,,6+,30.24,,,,,,TRUE,,,,,CAVOK,,,,,,,,VFR,,,-0.4,,,,,,,,,METAR,850
LTAR 272150Z 12005KT CAVOK M06/M08 Q1024,LTAR,2025-01-27T21:50:00Z,39.798,36.894,-6,-8,120,5,,6+,30.24,,,,,,,,,,,CAVOK,,,,,,,,VFR,,,,,,,,,,,,METAR,1601
LTAP 272150Z 00000KT 7000 FEW030 M00/M01 Q1023 NOSIG,LTAP,2025-01-27T21:50:00Z,40.826,35.52,0,-1,0,0,,4.35,30.21,,,,,,TRUE,,,,,FEW,3000,,,,,,,MVFR,,,,,,,,,,,,METAR,536
LTAN 272150Z 00000KT CAVOK M00/M03 Q1023 NOSIG,LTAN,2025-01-27T21:50:00Z,37.979,32.562,0,-3,0,0,,6+,30.21,,,,,,TRUE,,,,,CAVOK,,,,,,,,VFR,,,,,,,,,,,,METAR,1029
LTAJ 272150Z 03005KT CAVOK 03/M03 Q1022 NOSIG RMK RWY10 VRB02KT SKC,LTAJ,2025-01-27T21:50:00Z,36.947,37.479,3,-3,30,5,,6+,30.18,,,,,,TRUE,,,,,CAVOK,,,,,,,,VFR,,,,,,,,,,,,METAR,684
LTAI 272150Z 36004KT CAVOK 10/09 Q1022 NOSIG RMK RWY18C 34005KT RWY36R 35003KT RWY18L 34003KT,LTAI,2025-01-27T21:50:00Z,36.9,30.798,10,9,360,4,,6+,30.18,,,,,,TRUE,,,,,CAVOK,,,,,,,,VFR,,,,,,,,,,,,METAR,50
LTAG 272150Z 01005KT CAVOK 06/M02 Q1022 NOSIG RMK SKC,LTAG,2025-01-27T21:50:00Z,37.002,35.426,6,-2,10,5,,6+,30.18,,,,,,TRUE,,,,,CAVOK,,,,,,,,VFR,,,,,,,,,,,,METAR,62
LTAF 272150Z 04005KT CAVOK 08/00 Q1022 NOSIG RMK RWY23 05006KT SKC,LTAF,2025-01-27T21:50:00Z,36.989,35.293,8,0,40,5,,6+,30.18,,,,,,TRUE,,,,,CAVOK,,,,,,,,VFR,,,,,,,,,,,,METAR,19
LTAE 272150Z VRB02KT 0200 R03/0750N R21/0600N FG VV001 00/00 Q1024 NOSIG RMK RWY21 00000KT,LTAE,2025-01-27T21:50:00Z,40.079,32.566,0,0,VRB,2,,0.12,30.24,,,,,,TRUE,,,,FG,OVX,0,,,,,,,LIFR,,,,,,,,,,,100,METAR,836
LTAC 272150Z VRB02KT 0250 R03R/0275N R21L/0250N R03L/0275N R21R/0250N FZFG VV001 M01/M01 Q1023 NOSIG,LTAC,2025-01-27T21:50:00Z,40.128,32.995,-1,-1,VRB,2,,0.16,30.21,,,,,,TRUE,,,,FZFG,OVX,0,,,,,,,LIFR,,,,,,,,,,,100,METAR,952
LSMP 272150Z AUTO VRB02KT 7000NDV -RA SCT035 BKN049 OVC056 06/05 Q1002 RERA RMK,LSMP,2025-01-27T21:50:00Z,46.844,6.916,6,5,VRB,2,,,29.59,,,TRUE,,,,,,,-RA,SCT,3500,BKN,4900,OVC,5600,,,,,,,,,,,,,,,METAR,490
LSMM 272150Z AUTO VRB02KT 9999NDV -RA SCT052 BKN062 OVC072 02/02 Q1003 RMK,LSMM,2025-01-27T21:50:00Z,46.743,8.11,2,2,VRB,2,,,29.62,,,TRUE,,,,,,,-RA,SCT,5200,BKN,6200,OVC,7200,,,,,,,,,,,,,,,METAR,570
LOWW 272150Z 29003KT 240V340 CAVOK 05/03 Q1003 NOSIG,LOWW,2025-01-27T21:50:00Z,48.117,16.582,5,3,290,3,,6+,29.62,,,,,,TRUE,,,,,CAVOK,,,,,,,,VFR,,,,,,,,,,,,METAR,179
LOWS 272150Z AUTO 05004KT 020V100 9999 FEW036 BKN040 08/05 Q1007 NOSIG,LOWS,2025-01-27T21:50:00Z,47.789,13.009,8,5,50,4,,6+,29.73,,,TRUE,,,TRUE,,,,,FEW,3600,BKN,4000,,,,,VFR,,,,,,,,,,,,METAR,427
LOWL 272150Z AUTO 25007KT 9999 FEW046 BKN050 06/03 Q1006 NOSIG,LOWL,2025-01-27T21:50:00Z,48.233,14.188,6,3,250,7,,6+,29.70,,,TRUE,,,TRUE,,,,,FEW,4600,BKN,5000,,,,,VFR,,,,,,,,,,,,METAR,290
LOWK 272150Z AUTO 30003KT 260V330 9999 FEW044 BKN050 06/03 Q1007,LOWK,2025-01-27T21:50:00Z,46.648,14.318,6,3,300,3,,6+,29.73,,,TRUE,,,,,,,,FEW,4400,BKN,5000,,,,,VFR,,,,,,,,,,,,METAR,450
LOWI 272150Z 07006KT 030V110 9999 FEW044 BKN050 08/03 Q1005 TEMPO 27007KT,LOWI,2025-01-27T21:50:00Z,47.26,11.344,8,3,70,6,,6+,29.68,,,,,,,,,,,FEW,4400,BKN,5000,,,,,VFR,,,,,,,,,,,,METAR,570
LOWG 272150Z AUTO 19008KT 160V220 9999 FEW048 BKN050 11/06 Q1006 NOSIG,LOWG,2025-01-27T21:50:00Z,46.997,15.447,11,6,190,8,,6+,29.70,,,TRUE,,,TRUE,,,,,FEW,4800,BKN,5000,,,,,VFR,,,,,,,,,,,,METAR,337
LIRZ 272150Z AUTO 20018KT 9999 FEW031/// BKN100/// 15/09 Q1012,LIRZ,2025-01-27T21:50:00Z,43.097,12.51,15,9,200,18,,6+,29.88,,,TRUE,,,,,,,,FEW,3100,BKN,10000,,,,,VFR,,,,,,,,,,,,METAR,206
LIRQ 272150Z 17007KT 150V210 9999 BKN025 16/12 Q1008,LIRQ,2025-01-27T21:50:00Z,43.81,11.205,16,12,170,7,,6+,29.76,,,,,,,,,,,BKN,2500,,,,,,,MVFR,,,,,,,,,,,,METAR,33
LIRN 272150Z 11003KT 040V170 CAVOK 14/08 Q1017 NOSIG,LIRN,2025-01-27T21:50:00Z,40.885,14.292,14,8,110,3,,6+,30.03,,,,,,TRUE,,,,,CAVOK,,,,,,,,VFR,,,,,,,,,,,,METAR,76
LIRI 272150Z 04004KT CAVOK 11/10 Q1019,LIRI,2025-01-27T21:50:00Z,40.62,14.911,11,10,40,4,,6+,30.09,,,,,,,,,,,CAVOK,,,,,,,,VFR,,,,,,,,,,,,METAR,31
LIRF 272150Z 14016KT CAVOK 14/11 Q1014 NOSIG,LIRF,2025-01-27T21:50:00Z,41.8,12.239,14,11,140,16,,6+,29.94,,,,,,TRUE,,,,,CAVOK,,,,,,,,VFR,,,,,,,,,,,,METAR,2
LIRA 272150Z 15023G35KT CAVOK 14/10 Q1014,LIRA,2025-01-27T21:50:00Z,41.808,12.585,14,10,150,23,35,6+,29.94,,,,,,,,,,,CAVOK,,,,,,,,VFR,,,,,,,,,,,,METAR,101
LIPZ 272150Z 04008KT 9999 -RA BKN040 10/09 Q1008 NOSIG,LIPZ,2025-01-27T21:50:00Z,45.505,12.352,10,9,40,8,,6+,29.76,,,,,,TRUE,,,,-RA,BKN,4000,,,,,,,VFR,,,,,,,,,,,,METAR,3
LIPY 272150Z AUTO 08007KT 060V130 9999 OVC110/// 14/07 Q1010,LIPY,2025-01-27T21:50:00Z,43.617,13.36,14,7,80,7,,6+,29.82,,,TRUE,,,,,,,,OVC,11000,,,,,,,VFR,,,,,,,,,,,,METAR,11
LIPX 272150Z 09006KT 9999 BKN050 11/08 Q1006,LIPX,2025-01-27T21:50:00Z,45.387,10.872,11,8,90,6,,6+,29.70,,,,,,,,,,,BKN,5000,,,,,,,VFR,,,,,,,,,,,,METAR,67
LIPR 272150Z 21018G29KT 9999 FEW070 17/09 Q1008,LIPR,2025-01-27T21:50:00Z,44.02,12.612,17,9,210,18,29,6+,29.76,,,,,,,,,,,FEW,7000,,,,,,,VFR,,,,,,,,,,,,METAR,10
LIPQ 272150Z AUTO 13010KT 8000 -RA OVC028/// 11/11 Q1009 RERA,LIPQ,2025-01-27T21:50:00Z,45.828,13.472,11,11,130,10,,4.97,29.79,,,TRUE,,,,,,,-RA,OVC,2800,,,,,,,MVFR,,,,,,,,,,,,METAR,6
LIPO 272150Z AUTO 03005KT 9999 -RA FEW005/// BKN023/// 10/10 Q1006 RERA,LIPO,2025-01-27T21:50:00Z,45.429,10.331,10,10,30,5,,6+,29.70,,,TRUE,,,,,,,-RA,FEW,500,BKN,2300,,,,,MVFR,,,,,,,,,,,,METAR,104
LIPK 272150Z 19013KT CAVOK 16/10 Q1007,LIPK,2025-01-27T21:50:00Z,44.196,12.07,16,10,190,13,,6+,29.73,,,,,,,,,,,CAVOK,,,,,,,,VFR,,,,,,,,,,,,METAR,24
LIPH 272150Z 04005KT 010V070 9999 -RA SCT005 BKN020 10/10 Q1008,LIPH,2025-01-27T21:50:00Z,45.648,12.194,10,10,40,5,,6+,29.76,,,,,,,,,,-RA,SCT,500,BKN,2000,,,,,MVFR,,,,,,,,,,,,METAR,10
LIPE 272150Z 16007KT 130V200 9999 FEW050 16/10 Q1005,LIPE,2025-01-27T21:50:00Z,44.531,11.297,16,10,160,7,,6+,29.68,,,,,,,,,,,FEW,5000,,,,,,,VFR,,,,,,,,,,,,METAR,37
LIPB 272150Z VRB01KT 1500 RA BR FEW003 SCT010 BKN030 06/06 Q1008,LIPB,2025-01-27T21:50:00Z,46.46,11.326,6,6,VRB,1,,0.93,29.76,,,,,,,,,,RA BR,FEW,300,SCT,1000,BKN,3000,,,LIFR,,,,,,,,,,,,METAR,239
LIMZ 272150Z AUTO VRB01KT 2500 BR OVC012/// 06/05 Q1006,LIMZ,2025-01-27T21:50:00Z,44.547,7.623,6,5,VRB,1,,1.55,29.70,,,TRUE,,,,,,,BR,OVC,1200,,,,,,,IFR,,,,,,,,,,,,METAR,377
LIMP 272150Z 26003KT 140V310 3000 BR BKN010 07/07 Q1006,LIMP,2025-01-27T21:50:00Z,44.825,10.296,7,7,260,3,,1.86,29.70,,,,,,,,,,BR,BKN,1000,,,,,,,IFR,,,,,,,,,,,,METAR,41
LIML 272150Z VRB01KT 3000 DZ BR BKN010 07/07 Q1006 NOSIG,LIML,2025-01-27T21:50:00Z,45.461,9.263,7,7,VRB,1,,1.86,29.70,,,,,,TRUE,,,,DZ BR,BKN,1000,,,,,,,IFR,,,,,,,,,,,,METAR,109
LIMJ 272150Z 19015KT 3000 -RA BR SCT004 BKN014 14/14 Q1005,LIMJ,2025-01-27T21:50:00Z,44.413,8.838,14,14,190,15,,1.86,29.68,,,,,,,,,,-RA BR,SCT,400,BKN,1400,,,,,IFR,,,,,,,,,,,,METAR,3
LIMF 272150Z 25004KT 6000 OVC010 07/06 Q1006,LIMF,2025-01-27T21:50:00Z,45.203,7.649,7,6,250,4,,3.73,29.70,,,,,,,,,,,OVC,1000,,,,,,,MVFR,,,,,,,,,,,,METAR,295
LIME 272150Z VRB01KT 3500 -RA BR BKN003 BKN015 08/08 Q1005 NOSIG,LIME,2025-01-27T21:50:00Z,45.674,9.704,8,8,VRB,1,,2.17,29.68,,,,,,TRUE,,,,-RA BR,BKN,300,BKN,1500,,,,,LIFR,,,,,,,,,,,,METAR,239
LIMC 272150Z 01006KT 4000 -RA BR BKN005 OVC010 06/05 Q1005 NOSIG,LIMC,2025-01-27T21:50:00Z,45.631,8.728,6,5,10,6,,2.49,29.68,,,,,,TRUE,,,,-RA BR,BKN,500,OVC,1000,,,,,IFR,,,,,,,,,,,,METAR,221
LIEO 272150Z 20011KT CAVOK 17/11 Q1011,LIEO,2025-01-27T21:50:00Z,40.899,9.518,17,11,200,11,,6+,29.85,,,,,,,,,,,CAVOK,,,,,,,,VFR,,,,,,,,,,,,METAR,8
LIEE 272150Z 28014KT CAVOK 20/10 Q1014,LIEE,2025-01-27T21:50:00Z,39.243,9.06,20,10,280,14,,6+,29.94,,,,,,,,,,,CAVOK,,,,,,,,VFR,,,,,,,,,,,,METAR,1
LIEA 272150Z 19016KT CAVOK 17/12 Q1011,LIEA,2025-01-27T21:50:00Z,40.631,8.289,17,12,190,16,,6+,29.85,,,,,,,,,,,CAVOK,,,,,,,,VFR,,,,,,,,,,,,METAR,22
LICR 272150Z AUTO 09005KT 9999 BKN180/// 13/08 Q1020,LICR,2025-01-27T21:50:00Z,38.072,15.654,13,8,90,5,,6+,30.12,,,TRUE,,,,,,,,BKN,18000,,,,,,,VFR,,,,,,,,,,,,METAR,16
LICJ 272150Z 20019KT CAVOK 18/05 Q1018,LICJ,2025-01-27T21:50:00Z,38.176,13.091,18,5,200,19,,6+,30.06,,,,,,,,,,,CAVOK,,,,,,,,VFR,,,,,,,,,,,,METAR,20
LICD 272150Z AUTO 21017KT 9999 ///////// 17/14 Q1020,LICD,2025-01-27T21:50:00Z,35.498,12.618,17,14,210,17,,6+,30.12,,,TRUE,,,,,,,,,,,,,,,,VFR,,,,,,,,,,,,METAR,20
LICC 272150Z 26009KT CAVOK 13/09 Q1020,LICC,2025-01-27T21:50:00Z,37.467,15.064,13,9,260,9,,6+,30.12,,,,,,,,,,,CAVOK,,,,,,,,VFR,,,,,,,,,,,,METAR,6
LICB 272150Z AUTO 09003KT 060V120 9999 BKN180/// 10/07 Q1021,LICB,2025-01-27T21:50:00Z,36.994,14.606,10,7,90,3,,6+,30.15,,,TRUE,,,,,,,,BKN,18000,,,,,,,VFR,,,,,,,,,,,,METAR,212
LICA 272150Z AUTO 07003KT 9999 BKN150/// 09/08 Q1020,LICA,2025-01-27T21:50:00Z,38.908,16.242,9,8,70,3,,6+,30.12,,,TRUE,,,,,,,,BKN,15000,,,,,,,VFR,,,,,,,,,,,,METAR,7
LIBR 272150Z VRB02KT 7000 SCT010 11/11 Q1019,LIBR,2025-01-27T21:50:00Z,40.658,17.951,11,11,VRB,2,,4.35,30.09,,,,,,,,,,,SCT,1000,,,,,,,MVFR,,,,,,,,,,,,METAR,5
LIBP 272150Z AUTO 23016G27KT 9999 BKN170/// 19/06 Q1011,LIBP,2025-01-27T21:50:00Z,42.432,14.181,19,6,230,16,27,6+,29.85,,,TRUE,,,,,,,,BKN,17000,,,,,,,VFR,,,,,,,,,,,,METAR,10
LIBF 272150Z 18006KT CAVOK 12/05 Q1016,LIBF,2025-01-27T21:50:00Z,41.433,15.535,12,5,180,6,,6+,30.00,,,,,,,,,,,CAVOK,,,,,,,,VFR,,,,,,,,,,,,METAR,81
LIBD 272150Z 22007KT CAVOK 12/10 Q1017,LIBD,2025-01-27T21:50:00Z,41.138,16.765,12,10,220,7,,6+,30.03,,,,,,,,,,,CAVOK,,,,,,,,VFR,,,,,,,,,,,,METAR,42
LGTS 272150Z 11005KT 9999 FEW012 07/07 Q1021 NOSIG,LGTS,2025-01-27T21:50:00Z,40.52,22.971,7,7,110,5,,6+,30.15,,,,,,TRUE,,,,,FEW,1200,,,,,,,VFR,,,,,,,,,,,,METAR,4
LGSO 272150Z AUTO 22005KT //// // ////// 13/10 Q1021 RE//,LGSO,2025-01-27T21:50:00Z,37.422,24.95,13,10,220,5,,,30.15,,,TRUE,,,,,,,,,,,,,,,,,,,,,,,,,,,,METAR,71
LGSA 272150Z 00000KT 9999 FEW016 11/10 Q1021,LGSA,2025-01-27T21:50:00Z,35.54,24.141,11,10,0,0,,6+,30.15,,,,,,,,,,,FEW,1600,,,,,,,VFR,,,,,,,,,,,,METAR,122
LGRX 272150Z 00000KT 9999 SCT025 09/09 Q1022,LGRX,2025-01-27T21:50:00Z,38.151,21.426,9,9,0,0,,6+,30.18,,,,,,,,,,,SCT,2500,,,,,,,VFR,,,,,,,,,,,,METAR,16
LGPZ 272150Z 06004KT 9999 FEW020 09/08 Q1022 RMK FEW180 BLU,LGPZ,2025-01-27T21:50:00Z,38.921,20.761,9,8,60,4,,6+,30.18,,,,,,,,,,,FEW,2000,,,,,,,VFR,,,,,,,,,,,,METAR,3
LGPA 272150Z AUTO 09006KT //// // ////// 11/10 Q1021 RE//,LGPA,2025-01-27T21:50:00Z,37.022,25.114,11,10,90,6,,,30.15,,,TRUE,,,,,,,,,,,,,,,,,,,,,,,,,,,,METAR,42
LGLM 272150Z 00000KT 9999 SCT025 09/08 Q1020,LGLM,2025-01-27T21:50:00Z,39.917,25.236,9,8,0,0,,6+,30.12,,,,,,,,,,,SCT,2500,,,,,,,VFR,,,,,,,,,,,,METAR,4
LGKZ 272150Z AUTO VRB03KT //// // ////// 04/03 Q1021 RERASN,LGKZ,2025-01-27T21:50:00Z,40.288,21.842,4,3,VRB,3,,,30.15,,,TRUE,,,,,,,,,,,,,,,,,,,,,,,,,,,,METAR,615
LGKO 272150Z VRB02KT 9999 FEW018 11/08 Q1021,LGKO,2025-01-27T21:50:00Z,36.801,27.091,11,8,VRB,2,,6+,30.15,,,,,,,,,,,FEW,1800,,,,,,,VFR,,,,,,,,,,,,METAR,130
LGKL 272150Z AUTO VRB03KT //// // ////// 09/09 Q1022 RE//,LGKL,2025-01-27T21:50:00Z,37.068,22.026,9,9,VRB,3,,,30.18,,,TRUE,,,,,,,,,,,,,,,,,,,,,,,,,,,,METAR,4
LGIO 272150Z AUTO 00000KT //// // ////// 02/02 Q1022 RE//,LGIO,2025-01-27T21:50:00Z,39.696,20.823,2,2,0,0,,,30.18,,,TRUE,,,,,,,,,,,,,,,,,,,,,,,,,,,,METAR,476
LGEL 272150Z 00000KT 9999 FEW025 09/08 Q1021,LGEL,2025-01-27T21:50:00Z,38.064,23.556,9,8,0,0,,6+,30.15,,,,,,,,,,,FEW,2500,,,,,,,VFR,,,,,,,,,,,,METAR,21
LGBL 272150Z 23005KT 9999 FEW025 05/04 Q1021,LGBL,2025-01-27T21:50:00Z,39.22,22.794,5,4,230,5,,6+,30.15,,,,,,,,,,,FEW,2500,,,,,,,VFR,,,,,,,,,,,,METAR,13
LGAL 272150Z 00000KT 9999 FEW020 04/03 Q1020,LGAL,2025-01-27T21:50:00Z,40.856,25.945,4,3,0,0,,6+,30.12,,,,,,,,,,,FEW,2000,,,,,,,VFR,,,,,,,,,,,,METAR,5
LGAD 272150Z 00000KT 9999 SCT020 09/09 Q1022,LGAD,2025-01-27T21:50:00Z,37.923,21.287,9,9,0,0,,6+,30.18,,,,,,,,,,,SCT,2000,,,,,,,VFR,,,,,,,,,,,,METAR,8
LCRA 272150Z 32004KT CAVOK 11/06 Q1021,LCRA,2025-01-27T21:50:00Z,34.59,32.988,11,6,320,4,,6+,30.15,,,,,,,,,,,CAVOK,,,,,,,,VFR,,,,,,,,,,,,METAR,23
LCEN 272150Z 23006KT 9999 FEW020 05/05 Q1022 NOSIG RMK RWY11R 28008KT,LCEN,2025-01-27T21:50:00Z,35.155,33.496,5,5,230,6,,6+,30.18,,,,,,TRUE,,,,,FEW,2000,,,,,,,VFR,,,,,,,,,,,,METAR,91
KVQQ 272150Z COR 25007KT 10SM FEW050 SCT110 23/10 A3009,KVQQ,2025-01-27T21:50:00Z,30.2035,-81.8725,23,10,250,7,,10+,30.09,,TRUE,,,,,,,,,FEW,5000,SCT,11000,,,,,VFR,,,,,,,,,,,,METAR,21
KTRK 272150Z 02005KT 10SM CLR 03/M09 A3015,KTRK,2025-01-27T21:50:00Z,39.3154,-120.137,3,-9,20,5,,10+,30.15,,,,,,,,,,,CLR,,,,,,,,VFR,,,,,,,,,,,,METAR,1800
KSNH 272150Z AUTO VRB04G11KT 10SM CLR 10/M08 A3011 RMK A01,KSNH,2025-01-27T21:50:00Z,35.1731,-88.2146,10,-8,VRB,4,11,10+,30.11,,,TRUE,TRUE,,,,,,,CLR,,,,,,,,VFR,,,,,,,,,,,,METAR,142
KSLB 272150Z AUTO 29019KT 10SM CLR 09/M11 A2979 RMK AO2,KSLB,2025-01-27T21:50:00Z,42.5972,-95.2399,9,-11,290,19,,10+,29.79,,,TRUE,TRUE,,,,,,,CLR,,,,,,,,VFR,,,,,,,,,,,,METAR,450
KSCX 272150Z AUTO 29005KT 10SM CLR 07/M08 A3002 RMK A01,KSCX,2025-01-27T21:50:00Z,36.4553,-84.584,7,-8,290,5,,10+,30.02,,,TRUE,TRUE,,,,,,,CLR,,,,,,,,VFR,,,,,,,,,,,,METAR,462
KSAW 272150Z 30024KT 10SM OVC027 M01/M07 A2938,KSAW,2025-01-27T21:50:00Z,46.341,-87.395,-1,-7,300,24,,10+,29.38,,,,,,,,,,,OVC,2700,,,,,,,MVFR,,,,,,,,,,,,METAR,359
KQOA 272150Z 04006G13KT 9999 BKN060 28/18 A2996 RMK A02A SLP108 WND DATA/ALSTG ESTMD T02760184 $,KQOA,2025-01-27T21:50:00Z,-99.99,-99.99,27.6,18.4,40,6,13,6+,29.96,1010.8,,,TRUE,TRUE,,,,,,BKN,6000,,,,,,,VFR,,,,,,,,,,,,METAR,9999
KPWD 272150Z AUTO 30004KT 10SM CLR 00/M04 A2992 RMK AO2,KPWD,2025-01-27T21:50:00Z,48.7912,-104.525,0,-4,300,4,,10+,29.92,,,TRUE,TRUE,,,,,,,CLR,,,,,,,,VFR,,,,,,,,,,,,METAR,690
KOMN 272150Z 25008KT 7SM FEW055 23/11 A3010,KOMN,2025-01-27T21:50:00Z,29.3009,-81.111,23,11,250,8,,7,30.10,,,,,,,,,,,FEW,5500,,,,,,,VFR,,,,,,,,,,,,METAR,7
KOLV 272150Z 29005KT 10SM CLR 10/M12 A3015,KOLV,2025-01-27T21:50:00Z,34.9808,-89.7851,10,-12,290,5,,10+,30.15,,,,,,,,,,,CLR,,,,,,,,VFR,,,,,,,,,,,,METAR,124
KO69 272150Z AUTO 28008KT 10SM CLR 16/M04 A3013 RMK A01,KO69,2025-01-27T21:50:00Z,38.2601,-122.607,16,-4,280,8,,10+,30.13,,,TRUE,TRUE,,,,,,,CLR,,,,,,,,VFR,,,,,,,,,,,,METAR,26
KNQA 272150Z 29006KT 10SM CLR 08/M09 A3015,KNQA,2025-01-27T21:50:00Z,35.3619,-89.8612,8,-9,290,6,,10+,30.15,,,,,,,,,,,CLR,,,,,,,,VFR,,,,,,,,,,,,METAR,90
KMDH 272150Z 23010KT 10SM CLR 06/M09 A3007,KMDH,2025-01-27T21:50:00Z,37.7833,-89.2453,6,-9,230,10,,10+,30.07,,,,,,,,,,,CLR,,,,,,,,VFR,,,,,,,,,,,,METAR,122
KLOM 272150Z AUTO 23005KT 10SM 04/M13 A2983 RMK AO2 T00381130,KLOM,2025-01-27T21:50:00Z,40.1376,-75.2684,3.8,-13,230,5,,10+,29.83,,,TRUE,TRUE,,,,,,,,,,,,,,,VFR,,,,,,,,,,,,METAR,87
KLAL 272150Z 30003KT 10SM SKC 22/09 A3012,KLAL,2025-01-27T21:50:00Z,27.9866,-82.0193,22,9,300,3,,10+,30.12,,,,,,,,,,,SKC,,,,,,,,VFR,,,,,,,,,,,,METAR,39
KJWN 272150Z 31003KT 10SM CLR 09/M11 A3006,KJWN,2025-01-27T21:50:00Z,36.1852,-86.8833,9,-11,310,3,,10+,30.06,,,,,,,,,,,CLR,,,,,,,,VFR,,,,,,,,,,,,METAR,149
KJQF 272150Z 00000KT 3SM -RABR OVC007 09/07 A2999,KJQF,2025-01-27T21:50:00Z,35.3896,-80.7074,9,7,0,0,,3,29.99,,,,,,,,,,-RA BR,OVC,700,,,,,,,IFR,,,,,,,,,,,,METAR,204
KIWA 272150Z 21007KT 10SM BKN040 16/03 A3002,KIWA,2025-01-27T21:50:00Z,33.3008,-111.644,16,3,210,7,,10+,30.02,,,,,,,,,,,BKN,4000,,,,,,,VFR,,,,,,,,,,,,METAR,420
KHXD 272150Z 00000KT 10SM FEW037 SCT055 OVC075 10/05 A3010,KHXD,2025-01-27T21:50:00Z,32.2263,-80.6949,10,5,0,0,,10+,30.10,,,,,,,,,,,FEW,3700,SCT,5500,OVC,7500,,,VFR,,,,,,,,,,,,METAR,5
KHSA 272150Z 35010KT 10SM OVC012 16/13 A3011,KHSA,2025-01-27T21:50:00Z,30.3765,-89.4554,16,13,350,10,,10+,30.11,,,,,,,,,,,OVC,1200,,,,,,,MVFR,,,,,,,,,,,,METAR,6
KHQZ 272150Z 02003KT 10SM CLR 12/01 A3021,KHQZ,2025-01-27T21:50:00Z,32.7514,-96.5291,12,1,20,3,,10+,30.21,,,,,,,,,,,CLR,,,,,,,,VFR,,,,,,,,,,,,METAR,136
KHOB 272150Z 15009KT 10SM CLR 09/M05 A3011,KHOB,2025-01-27T21:50:00Z,32.6797,-103.222,9,-5,150,9,,10+,30.11,,,,,,,,,,,CLR,,,,,,,,VFR,,,,,,,,,,,,METAR,1112
KFIN 272150Z 27006KT 10SM CLR 22/08 A3010,KFIN,2025-01-27T21:50:00Z,29.467,-81.207,22,8,270,6,,10+,30.10,,,,,,,,,,,CLR,,,,,,,,VFR,,,,,,,,,,,,METAR,10
KESN 272150Z 19007KT 10SM CLR 07/M06 A2990,KESN,2025-01-27T21:50:00Z,38.804,-76.069,7,-6,190,7,,10+,29.90,,,,,,,,,,,CLR,,,,,,,,VFR,,,,,,,,,,,,METAR,14
KDAG 272150Z AUTO 34005KT 10SM OVC090 09/M01 A3007 RMK AO2 SLP181 T00941011,KDAG,2025-01-27T21:50:00Z,34.8537,-116.787,9.4,-1.1,340,5,,10+,30.07,1018.1,,TRUE,TRUE,,,,,,,OVC,9000,,,,,,,VFR,,,,,,,,,,,,METAR,584
KCWA 272150Z 28012G17KT 10SM FEW031 FEW055 SCT095 M01/M07 A2952,KCWA,2025-01-27T21:50:00Z,44.7795,-89.671,-1,-7,280,12,17,10+,29.52,,,,,,,,,,,FEW,3100,FEW,5500,SCT,9500,,,VFR,,,,,,,,,,,,METAR,387
KCHD 272150Z 21007KT 10SM SCT050 BKN080 16/ A3001,KCHD,2025-01-27T21:50:00Z,33.2669,-111.809,16,,210,7,,10+,30.01,,,,,,,,,,,SCT,5000,BKN,8000,,,,,VFR,,,,,,,,,,,,METAR,378
KC99 272150Z AUTO 04005KT 10SM CLR M02/M20 A3010 RMK AO2,KC99,2025-01-27T21:50:00Z,39.869,-105.553,-2,-20,40,5,,10+,30.10,,,TRUE,TRUE,,,,,,,CLR,,,,,,,,VFR,,,,,,,,,,,,METAR,3334
KALN 272150Z 25014G20KT 10SM CLR 06/M07 A3001,KALN,2025-01-27T21:50:00Z,38.8897,-90.0316,6,-7,250,14,20,10+,30.01,,,,,,,,,,,CLR,,,,,,,,VFR,,,,,,,,,,,,METAR,159
KADM 272150Z 00000KT 10SM CLR 11/M12 A3018,KADM,2025-01-27T21:50:00Z,34.3007,-97.0089,11,-12,0,0,,10+,30.18,,,,,,,,,,,CLR,,,,,,,,VFR,,,,,,,,,,,,METAR,223
K63S 272150Z AUTO 00000KT 10SM CLR M02/M09 A3042 RMK A01,K63S,2025-01-27T21:50:00Z,48.544,-117.884,-2,-9,0,0,,10+,30.42,,,TRUE,TRUE,,,,,,,CLR,,,,,,,,VFR,,,,,,,,,,,,METAR,571
K46U 272150Z AUTO VRB06KT 10SM CLR M09/M15 A3020 RMK A01,K46U,2025-01-27T21:50:00Z,43.181,-111.037,-9,-15,VRB,6,,10+,30.20,,,TRUE,TRUE,,,,,,,CLR,,,,,,,,VFR,,,,,,,,,,,,METAR,1718
K0D8 272150Z AUTO 32015G21KT 10SM CLR 04/M03 A2986 RMK A01,K0D8,2025-01-27T21:50:00Z,44.989,-99.954,4,-3,320,15,21,10+,29.86,,,TRUE,TRUE,,,,,,,CLR,,,,,,,,VFR,,,,,,,,,,,,METAR,628
FHAW 272150Z 14009KT 9999 FEW018 26/21 Q1013 RMK BLU,FHAW,2025-01-27T21:50:00Z,-7.97,-14.394,26,21,140,9,,6+,29.91,,,,,,,,,,,FEW,1800,,,,,,,VFR,,,,,,,,,,,,METAR,79
ETNG 272150Z 20010KT 160V240 CAVOK 08/04 Q0993,ETNG,2025-01-27T21:50:00Z,50.964,6.032,8,4,200,10,,6+,29.32,,,,,,,,,,,CAVOK,,,,,,,,VFR,,,,,,,,,,,,METAR,76
ESUP 272150Z AUTO 17005KT 9999 OVC006/// M04/M04 Q1000,ESUP,2025-01-27T21:50:00Z,67.246,23.069,-4,-4,170,5,,6+,29.53,,,TRUE,,,,,,,,OVC,600,,,,,,,IFR,,,,,,,,,,,,METAR,164
ESST 272150Z AUTO 00000KT 2400 BR BKN002/// OVC006/// 00/M00 Q0990,ESST,2025-01-27T21:50:00Z,60.158,12.992,0,0,0,0,,1.49,29.23,,,TRUE,,,,,,,BR,BKN,200,OVC,600,,,,,LIFR,,,,,,,,,,,,METAR,110
ESNX 272150Z AUTO 14006KT 5000 SG OVC003/// M06/M07 Q0998,ESNX,2025-01-27T21:50:00Z,65.592,19.283,-6,-7,140,6,,3.11,29.47,,,TRUE,,,,,,,SG,OVC,300,,,,,,,LIFR,,,,,,,,,,,,METAR,380
ESNV 272150Z AUTO 14005KT 9999 OVC009/// M03/M04 Q0995,ESNV,2025-01-27T21:50:00Z,64.579,16.839,-3,-4,140,5,,6+,29.38,,,TRUE,,,,,,,,OVC,900,,,,,,,IFR,,,,,,,,,,,,METAR,348
ESNL 272150Z AUTO 11007KT 9999 SG FEW007/// SCT013/// BKN015/// M02/M03 Q0997,ESNL,2025-01-27T21:50:00Z,64.552,18.711,-2,-3,110,7,,6+,29.44,,,TRUE,,,,,,,SG,FEW,700,SCT,1300,BKN,1500,,,MVFR,,,,,,,,,,,,METAR,220
ESND 272150Z AUTO 09007KT 2400 -SN VV018 M05/M05 Q0991,ESND,2025-01-27T21:50:00Z,62.047,14.416,-5,-5,90,7,,1.49,29.26,,,TRUE,,,,,,,-SN,OVX,0,,,,,,,IFR,,,,,,,,,,,1800,METAR,352
ESKM 272150Z AUTO 32003KT 2100 -SN OVC003/// M02/M02 Q0991,ESKM,2025-01-27T21:50:00Z,60.96,14.507,-2,-2,320,3,,1.3,29.26,,,TRUE,,,,,,,-SN,OVC,300,,,,,,,LIFR,,,,,,,,,,,,METAR,184
ENWV 272150Z AUTO 20031KT 9999NDV FEW014/// 07/05 Q0980 W///S5,ENWV,2025-01-27T21:50:00Z,56.278,3.395,7,5,200,31,,,28.94,,,TRUE,,,,,,,,FEW,1400,,,,,,,,,,,,,,,,,,,METAR,30
ENVD 272150Z 25015KT 9999 BKN012 M05/M07 Q0999,ENVD,2025-01-27T21:50:00Z,70.065,29.835,-5,-7,250,15,,6+,29.50,,,,,,,,,,,BKN,1200,,,,,,,MVFR,,,,,,,,,,,,METAR,39
ENUN 272150Z AUTO 13014KT 9999 FEW020/// BKN043/// 05/01 Q0985 W06/S4,ENUN,2025-01-27T21:50:00Z,-99.99,-99.99,5,1,130,14,,6+,29.08,,,TRUE,,,,,,,,FEW,2000,BKN,4300,,,,,VFR,,,,,,,,,,,,METAR,9999
ENUG 272150Z AUTO VRB08KT 9999NDV NCD 03/M02 Q0992 W///S3,ENUG,2025-01-27T21:50:00Z,71.305,22.253,3,-2,VRB,8,,,29.29,,,TRUE,,,,,,,,CLR,,,,,,,,,,,,,,,,,,,,METAR,30
ENST 272150Z 17012KT 070V220 CAVOK 04/M10 Q0989 RMK WIND 300FT 13023G33KT,ENST,2025-01-27T21:50:00Z,65.961,12.472,4,-10,170,12,,6+,29.20,,,,,,,,,,,CAVOK,,,,,,,,VFR,,,,,,,,,,,,METAR,17
ENSS 272150Z AUTO 23023KT 9999 NCD M06/M07 Q0998 RMK WIND 0500FT 23029KT,ENSS,2025-01-27T21:50:00Z,70.355,31.044,-6,-7,230,23,,6+,29.47,,,TRUE,,,,,,,,CLR,,,,,,,,VFR,,,,,,,,,,,,METAR,13
ENSR 272150Z AUTO 16015KT 9999 NCD M07/M12 Q0995 RMK WIND RWY 32 14020KT WIND 1119FT 14020KT,ENSR,2025-01-27T21:50:00Z,69.789,20.955,-7,-12,160,15,,6+,29.38,,,TRUE,,,,,,,,CLR,,,,,,,,VFR,,,,,,,,,,,,METAR,5
ENSL 272150Z AUTO 21031KT 9999 BKN012/// BKN034/// 06/03 Q0972 W04/S5,ENSL,2025-01-27T21:50:00Z,58.367,1.907,6,3,210,31,,6+,28.70,,,TRUE,,,,,,,,BKN,1200,BKN,3400,,,,,MVFR,,,,,,,,,,,,METAR,50
ENSK 272150Z AUTO 14010KT 9999 SCT100/// 03/M05 Q0991,ENSK,2025-01-27T21:50:00Z,68.58,15.029,3,-5,140,10,,6+,29.26,,,TRUE,,,,,,,,SCT,10000,,,,,,,VFR,,,,,,,,,,,,METAR,3
ENSH 272150Z 08011KT 9999 FEW053 03/M04 Q0991 RMK WIND 0150FT 08017KT,ENSH,2025-01-27T21:50:00Z,68.245,14.669,3,-4,80,11,,6+,29.26,,,,,,,,,,,FEW,5300,,,,,,,VFR,,,,,,,,,,,,METAR,9
ENSG 272150Z AUTO 03006KT 9999 OVC072/// M00/M06 Q0984 RMK WIND 3806FT 10014KT,ENSG,2025-01-27T21:50:00Z,61.158,7.141,0,-6,30,6,,6+,29.06,,,TRUE,,,,,,,,OVC,7200,,,,,,,VFR,,1.4,,,,,,,,,,METAR,493
ENSF 272150Z AUTO 09026KT 9999 -DZ FEW015/// FEW019/// BKN035/// 05/02 Q0982 W///S4,ENSF,2025-01-27T21:50:00Z,61.25,1.85,5,2,90,26,,6+,29.00,,,TRUE,,,,,,,-DZ,FEW,1500,FEW,1900,BKN,3500,,,VFR,,,,,,,,,,,,METAR,15
ENSE 272150Z AUTO 08015KT 9999 FEW017/// OVC048/// 05/01 Q0983 W/////,ENSE,2025-01-27T21:50:00Z,61.45,2.15,5,1,80,15,,6+,29.03,,,TRUE,,,,,,,,FEW,1700,OVC,4800,,,,,VFR,,,,,,,,,,,,METAR,10
ENSD 272150Z 00000KT 9999 BKN041 04/M03 Q0984 RMK WIND RWY 26 VRB01KT WIND 1140FT 22003KT,ENSD,2025-01-27T21:50:00Z,61.829,6.104,4,-3,0,0,,6+,29.06,,,,,,,,,,,BKN,4100,,,,,,,VFR,,,,,,,,,,,,METAR,61
ENRS 272150Z AUTO 16018KT 9999 NCD 04/M04 Q0990,ENRS,2025-01-27T21:50:00Z,67.527,12.104,4,-4,160,18,,6+,29.23,,,TRUE,,,,,,,,CLR,,,,,,,,VFR,,,,,,,,,,,,METAR,4
ENRM 272150Z 10010KT 070V130 CAVOK 02/M06 Q0987,ENRM,2025-01-27T21:50:00Z,64.835,11.141,2,-6,100,10,,6+,29.14,,,,,,,,,,,CAVOK,,,,,,,,VFR,,,,,,,,,,,,METAR,4
ENRA 272150Z 10009KT 060V140 CAVOK 00/M09 Q0993,ENRA,2025-01-27T21:50:00Z,66.364,14.302,0,-9,100,9,,6+,29.32,,,,,,,,,,,CAVOK,,,,,,,,VFR,,,,,,,,,,,,METAR,66
ENQR 272150Z AUTO 09007KT 9999 FEW026/// OVC054/// 06/02 Q0983 W07/S5,ENQR,2025-01-27T21:50:00Z,61.53,2.22,6,2,90,7,,6+,29.03,,,TRUE,,,,,,,,FEW,2600,OVC,5400,,,,,VFR,,,,,,,,,,,,METAR,10
ENQC 272150Z AUTO 05013KT 9999 BKN040/// BKN080/// 07/01 Q0981 W///S5,ENQC,2025-01-27T21:50:00Z,60.886,3.61,7,1,50,13,,6+,28.97,,,TRUE,,,,,,,,BKN,4000,BKN,8000,,,,,VFR,,,,,,,,,,,,METAR,20
ENQA 272150Z AUTO 06021KT 9999 BKN034/// BKN062/// OVC110/// 06/M00 Q0980 W07/S5,ENQA,2025-01-27T21:50:00Z,60.645,3.725,6,0,60,21,,6+,28.94,,,TRUE,,,,,,,,BKN,3400,BKN,6200,OVC,11000,,,VFR,,,,,,,,,,,,METAR,90
ENOV 272150Z VRB01KT 9999 FEW055 SCT075 02/M03 Q0984 RMK WIND RWY 24 VRB02KT WIND 2090FT 17010KT,ENOV,2025-01-27T21:50:00Z,62.18,6.078,2,-3,VRB,1,,6+,29.06,,,,,,,,,,,FEW,5500,SCT,7500,,,,,VFR,,,,,,,,,,,,METAR,72
ENOA 272150Z 10035KT 9999 -RA BKN023 05/02 Q0979 W///S5,ENOA,2025-01-27T21:50:00Z,60.492,2.827,5,2,100,35,,6+,28.91,,,,,,,,,,-RA,BKN,2300,,,,,,,MVFR,,,,,,,,,,,,METAR,5
ENNM 272150Z AUTO 08013KT 9999 OVC137/// 01/M06 Q0988,ENNM,2025-01-27T21:50:00Z,64.471,11.57,1,-6,80,13,,6+,29.17,,,TRUE,,,,,,,,OVC,13700,,,,,,,VFR,,,,,,,,,,,,METAR,2
ENNE 272150Z AUTO 13012KT 9999 SCT027/// BKN043/// BKN170/// 05/M00 Q0985 W///S4,ENNE,2025-01-27T21:50:00Z,66.03,8.08,5,0,130,12,,6+,29.08,,,TRUE,,,,,,,,SCT,2700,BKN,4300,BKN,17000,,,VFR,,,,,,,,,,,,METAR,10
ENNA 272150Z 19013KT CAVOK M08/M11 Q0998 RMK WIND 1800FT /////KT,ENNA,2025-01-27T21:50:00Z,70.059,24.971,-8,-11,190,13,,6+,29.47,,,,,,,,,,,CAVOK,,,,,,,,VFR,,,,,,,,,,,,METAR,12
ENML 272150Z AUTO 02005KT 9999NDV NCD 05/M05 Q0984,ENML,2025-01-27T21:50:00Z,62.744,7.262,5,-5,20,5,,,29.06,,,TRUE,,,,,,,,CLR,,,,,,,,,,,,,,,,,,,,METAR,3
ENMH 272150Z 19011KT CAVOK M06/M10 Q0995,ENMH,2025-01-27T21:50:00Z,71.029,27.829,-6,-10,190,11,,6+,29.38,,,,,,,,,,,CAVOK,,,,,,,,VFR,,,,,,,,,,,,METAR,10
ENLE 272150Z 19031KT 9999 SCT016 07/04 Q0979 W08/S5,ENLE,2025-01-27T21:50:00Z,56.535,3.205,7,4,190,31,,6+,28.91,,,,,,,,,,,SCT,1600,,,,,,,VFR,,,,,,,,,,,,METAR,10
ENLA 272150Z AUTO 18027KT 8000NDV -RA BKN017/// 07/06 Q0977 W///S5,ENLA,2025-01-27T21:50:00Z,57.111,2.846,7,6,180,27,,,28.85,,,TRUE,,,,,,,-RA,BKN,1700,,,,,,,,,,,,,,,,,,,METAR,10
ENKR 272150Z 21008KT 170V250 9999 SCT008 BKN010 M07/M08 Q1000 RMK WIND 731FT 24025KT,ENKR,2025-01-27T21:50:00Z,69.725,29.898,-7,-8,210,8,,6+,29.53,,,,,,,,,,,SCT,800,BKN,1000,,,,,MVFR,,,,,,,,,,,,METAR,86
ENKB 272150Z AUTO 26004KT 9999 OVC150/// 04/M06 Q0983 RMK WIND 745FT 20009KT,ENKB,2025-01-27T21:50:00Z,63.109,7.816,4,-6,260,4,,6+,29.03,,,TRUE,,,,,,,,OVC,15000,,,,,,,VFR,,,0.9,,,,,,,,,METAR,62
ENJS 272150Z 17039KT 9999 BKN015 06/04 Q0972 W08/S5,ENJS,2025-01-27T21:50:00Z,58.835,2.545,6,4,170,39,,6+,28.70,,,,,,,,,,,BKN,1500,,,,,,,MVFR,,,,,,,,,,,,METAR,
ENHV 272150Z 21022KT 9999 NSC M03/M07 Q0995,ENHV,2025-01-27T21:50:00Z,71.009,25.982,-3,-7,210,22,,6+,29.38,,,,,,,,,,,CLR,,,,,,,,VFR,,,,,,,,,,,,METAR,13
ENHK 272150Z AUTO 10011KT 9999 NCD M01/M06 Q0993,ENHK,2025-01-27T21:50:00Z,70.487,22.14,-1,-6,100,11,,6+,29.32,,,TRUE,,,,,,,,CLR,,,,,,,,VFR,,,,,,,,,,,,METAR,6
ENHF 272150Z VRB02KT CAVOK M07/M11 Q0994 RMK WIND 1253FT 19005KT,ENHF,2025-01-27T21:50:00Z,70.681,23.677,-7,-11,VRB,2,,6+,29.35,,,,,,,,,,,CAVOK,,,,,,,,VFR,,,,,,,,,,,,METAR,79
ENHE 272150Z 11008KT CAVOK 05/M00 Q0985 W///S4,ENHE,2025-01-27T21:50:00Z,65.325,2.327,5,0,110,8,,6+,29.08,,,,,,,,,,,CAVOK,,,,,,,,VFR,,,,,,,,,,,,METAR,10
ENGC 272150Z 10022KT 9999 SHRA BKN010 BKN020 04/02 Q0982 W06/S4,ENGC,2025-01-27T21:50:00Z,61.033,2.033,4,2,100,22,,6+,29.00,,,,,,,,,,SHRA,BKN,1000,BKN,2000,,,,,MVFR,,,,,,,,,,,,METAR,10
ENFL 272150Z AUTO 08013KT 9999NDV -RA FEW016/// BKN021/// 02/M00 Q0984,ENFL,2025-01-27T21:50:00Z,61.582,5.02,2,0,80,13,,,29.06,,,TRUE,,,,,,,-RA,FEW,1600,BKN,2100,,,,,,,,,,,,,,,,,METAR,1
ENFB 272150Z AUTO 07024KT 9999 -SHRA BKN013/// BKN047/// OVC056/// 05/02 Q0981 W///S4,ENFB,2025-01-27T21:50:00Z,61.206,1.829,5,2,70,24,,6+,28.97,,,TRUE,,,,,,,-SHRA,BKN,1300,BKN,4700,OVC,5600,,,MVFR,,,,,,,,,,,,METAR,10
ENEV 272150Z VRB06KT CAVOK M01/M08 Q0993 TEMPO 15010KT RMK WIND 1400FT 14016KT,ENEV,2025-01-27T21:50:00Z,68.491,16.683,-1,-8,VRB,6,,6+,29.32,,,,,,,,,,,CAVOK,,,,,,,,VFR,,,,,,,,,,,,METAR,26
ENDR 272150Z AUTO 13008KT 9999NDV BKN230/// 05/M02 Q0984 W///S4,ENDR,2025-01-27T21:50:00Z,64.349,7.78,5,-2,130,8,,,29.06,,,TRUE,,,,,,,,BKN,23000,,,,,,,,,,,,,,,,,,,METAR,10
ENBV 272150Z AUTO 21022KT 9999 NCD M05/M09 Q0996 REFZDZ,ENBV,2025-01-27T21:50:00Z,70.871,29.032,-5,-9,210,22,,6+,29.41,,,TRUE,,,,,,,,CLR,,,,,,,,VFR,,,,,,,,,,,,METAR,13
ENBS 272150Z AUTO 19028G40KT 170V230 3900 PL FEW010/// SCT012/// M07/M07 Q0996 RESN REFZRA,ENBS,2025-01-27T21:50:00Z,70.601,29.698,-7,-7,190,28,40,2.42,29.41,,,TRUE,,,,,,,PL FZRA,FEW,1000,SCT,1200,,,,,IFR,,,,,,,,,,,,METAR,144
ENBN 272150Z 13018G31KT 070V150 CAVOK 03/M05 Q0989,ENBN,2025-01-27T21:50:00Z,65.458,12.216,3,-5,130,18,31,6+,29.20,,,,,,,,,,,CAVOK,,,,,,,,VFR,,,,,,,,,,,,METAR,3
ENBL 272150Z 08004KT 030V160 9999 -SHSN FEW015 SCT030 BKN060 01/M03 Q0983,ENBL,2025-01-27T21:50:00Z,61.391,5.76,1,-3,80,4,,6+,29.03,,,,,,,,,,-SHSN,FEW,1500,SCT,3000,BKN,6000,,,VFR,,,,,,,,,,,,METAR,313
ENAT 272150Z 16011KT CAVOK M06/M12 Q0998 RMK WIND 700FT 16017KT,ENAT,2025-01-27T21:50:00Z,69.978,23.358,-6,-12,160,11,,6+,29.47,,,,,,,,,,,CAVOK,,,,,,,,VFR,,,,,,,,,,,,METAR,3
ELLX 272150Z 20009KT 170V240 9999 BKN022 06/04 Q0997 NOSIG,ELLX,2025-01-27T21:50:00Z,49.626,6.204,6,4,200,9,,6+,29.44,,,,,,TRUE,,,,,BKN,2200,,,,,,,MVFR,,,,,,,,,,,,METAR,374
EGYP 272150Z 27022G34KT 9999 FEW036 13/05 Q0994,EGYP,2025-01-27T21:50:00Z,-51.82,-58.448,13,5,270,22,34,6+,29.35,,,,,,,,,,,FEW,3600,,,,,,,VFR,,,,,,,,,,,,METAR,70
EGYM 272150Z 18020KT 8000 -DZ SCT050 BKN160 07/03 Q0980 RMK BLU,EGYM,2025-01-27T21:50:00Z,52.648,0.567,7,3,180,20,,4.97,28.94,,,,,,,,,,-DZ,SCT,5000,BKN,16000,,,,,MVFR,,,,,,,,,,,,METAR,25
EGYH 272150Z AUTO 19015KT 9999 -RA BKN047/// SCT087/// 07/04 Q0979,EGYH,2025-01-27T21:50:00Z,52.873,0.139,7,4,190,15,,6+,28.91,,,TRUE,,,,,,,-RA,BKN,4700,SCT,8700,,,,,VFR,,,,,,,,,,,,METAR,5
EGYE 272150Z AUTO 16021KT //// OVC017/// 06/04 Q0977,EGYE,2025-01-27T21:50:00Z,52.962,-0.562,6,4,160,21,,,28.85,,,TRUE,,,,,,,,OVC,1700,,,,,,,,,,,,,,,,,,,METAR,105
EGYD 272150Z AUTO 17018KT 6000 RA OVC018/// 06/04 Q0977,EGYD,2025-01-27T21:50:00Z,53.031,-0.503,6,4,170,18,,3.73,28.85,,,TRUE,,,,,,,RA,OVC,1800,,,,,,,MVFR,,,,,,,,,,,,METAR,65
EGXZ 272150Z AUTO 14014KT 9999 -RA OVC059/// 05/04 Q0975,EGXZ,2025-01-27T21:50:00Z,54.205,-1.39,5,4,140,14,,6+,28.79,,,TRUE,,,,,,,-RA,OVC,5900,,,,,,,VFR,,,,,,,,,,,,METAR,24
EGXW 272150Z AUTO 18024G35KT 8000 RA OVC017/// 06/04 Q0977,EGXW,2025-01-27T21:50:00Z,53.175,-0.523,6,4,180,24,35,4.97,28.85,,,TRUE,,,,,,,RA,OVC,1700,,,,,,,MVFR,,,,,,,,,,,,METAR,70
EGXV 272150Z AUTO 17009KT 9999 -RA SCT062/// BKN083/// 07/04 Q0977,EGXV,2025-01-27T21:50:00Z,53.876,-0.435,7,4,170,9,,6+,28.85,,,TRUE,,,,,,,-RA,SCT,6200,BKN,8300,,,,,VFR,,,,,,,,,,,,METAR,6
EGXT 272150Z AUTO 17017KT 9999 -RA OVC024/// 07/04 Q0978,EGXT,2025-01-27T21:50:00Z,52.611,-0.461,7,4,170,17,,6+,28.88,,,TRUE,,,,,,,-RA,OVC,2400,,,,,,,MVFR,,,,,,,,,,,,METAR,74
EGXS 272150Z AUTO 17013G23KT 9999 FEW042/// BKN097/// 06/04 Q0978,EGXS,2025-01-27T21:50:00Z,53.475,0.152,6,4,170,13,23,6+,28.88,,,TRUE,,,,,,,,FEW,4200,BKN,9700,,,,,VFR,,,,,,,,,,,,METAR,6
EGXE 272150Z AUTO 15010KT 9999 // BKN020/// BKN056/// 05/03 Q0975,EGXE,2025-01-27T21:50:00Z,54.297,-1.533,5,3,150,10,,6+,28.79,,,TRUE,,,,,,,,BKN,2000,BKN,5600,,,,,MVFR,,,,,,,,,,,,METAR,30
EGXC 272150Z 17013KT 4000 RA BKN024 06/04 Q0978 RMK GRN,EGXC,2025-01-27T21:50:00Z,53.094,-0.173,6,4,170,13,,2.49,28.88,,,,,,,,,,RA,BKN,2400,,,,,,,IFR,,,,,,,,,,,,METAR,9
EGWU 272150Z AUTO 20012KT 9999 // OVC026/// 07/05 Q0981,EGWU,2025-01-27T21:50:00Z,51.549,-0.417,7,5,200,12,,6+,28.97,,,TRUE,,,,,,,,OVC,2600,,,,,,,MVFR,,,,,,,,,,,,METAR,33
EGWC 272150Z AUTO 18013KT //// ///////// ///// Q////,EGWC,2025-01-27T21:50:00Z,52.64,-2.311,,,180,13,,,0.00,,,TRUE,,,,,,,,,,,,,,,,,,,,,,,,,,,,METAR,79
EGVP 272150Z AUTO 19023G34KT 9999 // OVC017/// 08/05 Q0979,EGVP,2025-01-27T21:50:00Z,51.139,-1.569,8,5,190,23,34,6+,28.91,,,TRUE,,,,,,,,OVC,1700,,,,,,,MVFR,,,,,,,,,,,,METAR,80
EGVO 272150Z 18022G35KT 9999 BKN020 BKN050 07/05 Q0980 TEMPO FEW020 RMK WHT TEMPO BLU,EGVO,2025-01-27T21:50:00Z,51.239,-0.945,7,5,180,22,35,6+,28.94,,,,,,,,,,,BKN,2000,BKN,5000,,,,,MVFR,,,,,,,,,,,,METAR,118
EGVN 272150Z 19012KT 9999 -SHRA BKN017 BKN030 07/05 Q0978 TEMPO 6000 SHRA BKN012,EGVN,2025-01-27T21:50:00Z,51.758,-1.578,7,5,190,12,,6+,28.88,,,,,,,,,,-SHRA,BKN,1700,BKN,3000,,,,,MVFR,,,,,,,,,,,,METAR,83
EGUW 272150Z AUTO 19016KT 9999 // FEW034/// BKN041/// BKN096/// 07/03 Q0982,EGUW,2025-01-27T21:50:00Z,52.124,0.957,7,3,190,16,,6+,29.00,,,TRUE,,,,,,,,FEW,3400,BKN,4100,BKN,9600,,,VFR,,,,,,,,,,,,METAR,86
EGUB 272150Z AUTO 18017G29KT 9999 -RA OVC014/// 07/05 Q0979,EGUB,2025-01-27T21:50:00Z,51.62,-1.099,7,5,180,17,29,6+,28.91,,,TRUE,,,,,,,-RA,OVC,1400,,,,,,,MVFR,,,,,,,,,,,,METAR,56
EGQS 272150Z 07012KT 9999 -RA FEW010 BKN040 06/04 Q0977 RMK BLU,EGQS,2025-01-27T21:50:00Z,57.711,-3.324,6,4,70,12,,6+,28.85,,,,,,,,,,-RA,FEW,1000,BKN,4000,,,,,VFR,,,,,,,,,,,,METAR,6
EGQM 272150Z AUTO 18004KT 9999 NCD 03/01 Q0975,EGQM,2025-01-27T21:50:00Z,55.421,-1.601,3,1,180,4,,6+,28.79,,,TRUE,,,,,,,,CLR,,,,,,,,VFR,,,,,,,,,,,,METAR,24
EGQL 272150Z 36003KT 9999 OVC033 04/03 Q0975 RMK BLU,EGQL,2025-01-27T21:50:00Z,56.377,-2.862,4,3,360,3,,6+,28.79,,,,,,,,,,,OVC,3300,,,,,,,VFR,,,,,,,,,,,,METAR,11
EGQK 272150Z AUTO 06012KT 9999 -RA OVC006/// 06/05 Q0976,EGQK,2025-01-27T21:50:00Z,57.646,-3.563,6,5,60,12,,6+,28.82,,,TRUE,,,,,,,-RA,OVC,600,,,,,,,IFR,,,,,,,,,,,,METAR,5
EGQA 272150Z AUTO 06011KT 9999 -RA OVC011/// 06/04 Q0977,EGQA,2025-01-27T21:50:00Z,57.825,-3.955,6,4,60,11,,6+,28.85,,,TRUE,,,,,,,-RA,OVC,1100,,,,,,,MVFR,,,,,,,,,,,,METAR,4
EGOV 272150Z AUTO 16018KT 3300 RA FEW018/// BKN045/// 08/08 Q0969,EGOV,2025-01-27T21:50:00Z,53.252,-4.536,8,8,160,18,,2.05,28.61,,,TRUE,,,,,,,RA,FEW,1800,BKN,4500,,,,,IFR,,,,,,,,,,,,METAR,11
EGOS 272150Z 16014KT 9999 SCT015 BKN200 07/05 Q0973 TEMPO SCT014 RMK BLACKWHT TEMPO GRN,EGOS,2025-01-27T21:50:00Z,52.795,-2.665,7,5,160,14,,6+,28.73,,,,,,,,,,,SCT,1500,BKN,20000,,,,,VFR,,,,,,,,,,,,METAR,76
EGOP 272150Z AUTO 19036KT //// // ///////// ///// Q////,EGOP,2025-01-27T21:50:00Z,51.714,-4.367,,,190,36,,,0.00,,,TRUE,,,,,,,,,,,,,,,,,,,,,,,,,,,,METAR,8
EGOM 272150Z AUTO 11007KT 9999 OVC015/// 04/02 Q0974,EGOM,2025-01-27T21:50:00Z,55.05,-2.554,4,2,110,7,,6+,28.76,,,TRUE,,,,,,,,OVC,1500,,,,,,,MVFR,,,,,,,,,,,,METAR,286
EGNS 272150Z 14019KT 9999 FEW006 BKN011 07/06 Q0969,EGNS,2025-01-27T21:50:00Z,54.085,-4.632,7,6,140,19,,6+,28.61,,,,,,,,,,,FEW,600,BKN,1100,,,,,MVFR,,,,,,,,,,,,METAR,18
EGNM 272150Z 14009KT 120V180 9999 -RA BKN012 04/03 Q0975,EGNM,2025-01-27T21:50:00Z,53.862,-1.665,4,3,140,9,,6+,28.79,,,,,,,,,,-RA,BKN,1200,,,,,,,MVFR,,,,,,,,,,,,METAR,221
EGJB 272150Z 20027G39KT 9999 VCSH BKN025 08/04 Q0982,EGJB,2025-01-27T21:50:00Z,49.433,-2.598,8,4,200,27,39,6+,29.00,,,,,,,,,,VCSH,BKN,2500,,,,,,,MVFR,,,,,,,,,,,,METAR,102
EGHI 272150Z 19020G33KT 140V230 9999 BKN030 09/05 Q0981,EGHI,2025-01-27T21:50:00Z,50.944,-1.358,9,5,190,20,33,6+,28.97,,,,,,,,,,,BKN,3000,,,,,,,MVFR,,,,,,,,,,,,METAR,13
EGHH 272150Z 19021G33KT 9999 SCT024 09/06 Q0980,EGHH,2025-01-27T21:50:00Z,50.779,-1.836,9,6,190,21,33,6+,28.94,,,,,,,,,,,SCT,2400,,,,,,,VFR,,,,,,,,,,,,METAR,9
EGDY 272150Z AUTO 19021KT 9999 -RA OVC016/// 08/06 Q0977,EGDY,2025-01-27T21:50:00Z,51.006,-2.643,8,6,190,21,,6+,28.85,,,TRUE,,,,,,,-RA,OVC,1600,,,,,,,MVFR,,,,,,,,,,,,METAR,21
EGDR 272150Z AUTO 23020KT 8000 // OVC011/// 10/09 Q0974,EGDR,2025-01-27T21:50:00Z,50.084,-5.257,10,9,230,20,,4.97,28.76,,,TRUE,,,,,,,,OVC,1100,,,,,,,MVFR,,,,,,,,,,,,METAR,74
EGDM 272150Z AUTO 19021KT 8000 -RA OVC017/// 07/05 Q0978,EGDM,2025-01-27T21:50:00Z,51.153,-1.75,7,5,190,21,,4.97,28.88,,,TRUE,,,,,,,-RA,OVC,1700,,,,,,,MVFR,,,,,,,,,,,,METAR,122
EEEI 272150Z AUTO 12008KT 9999 OVC005/// 01/00 Q1002,EEEI,2025-01-27T21:50:00Z,59.26,24.209,1,0,120,8,,6+,29.59,,,TRUE,,,,,,,,OVC,500,,,,,,,IFR,,,,,,,,,,,,METAR,19
EDXW 272150Z AUTO 19012KT 9999 // SCT045/// BKN130/// BKN150/// 06/04 Q0990,EDXW,2025-01-27T21:50:00Z,54.913,8.341,6,4,190,12,,6+,29.23,,,TRUE,,,,,,,,SCT,4500,BKN,13000,BKN,15000,,,VFR,,,,,,,,,,,,METAR,8
EDWE 272150Z AUTO 17008KT CAVOK 07/04 Q0991,EDWE,2025-01-27T21:50:00Z,53.388,7.229,7,4,170,8,,6+,29.26,,,TRUE,,,,,,,,CAVOK,,,,,,,,VFR,,,,,,,,,,,,METAR,
EDVK 272150Z AUTO 21011KT 9999 // NCD 08/04 Q0996,EDVK,2025-01-27T21:50:00Z,51.421,9.388,8,4,210,11,,6+,29.41,,,TRUE,,,,,,,,CLR,,,,,,,,VFR,,,,,,,,,,,,METAR,262
EDVE 272150Z AUTO 18006KT CAVOK 09/05 Q0996,EDVE,2025-01-27T21:50:00Z,52.319,10.558,9,5,180,6,,6+,29.41,,,TRUE,,,,,,,,CAVOK,,,,,,,,VFR,,,,,,,,,,,,METAR,83
EDTY 272150Z AUTO 21006KT 180V250 9999 // OVC180/// 08/03 Q1001,EDTY,2025-01-27T21:50:00Z,49.118,9.784,8,3,210,6,,6+,29.56,,,TRUE,,,,,,,,OVC,18000,,,,,,,VFR,,,,,,,,,,,,METAR,398
EDTL 272150Z AUTO 19012KT 9999 // NCD 11/04 Q1000,EDTL,2025-01-27T21:50:00Z,48.369,7.828,11,4,190,12,,6+,29.53,,,TRUE,,,,,,,,CLR,,,,,,,,VFR,,,,,,,,,,,,METAR,152
EDSB 272150Z 22008KT 9999 SCT048 10/03 Q0999,EDSB,2025-01-27T21:50:00Z,48.779,8.081,10,3,220,8,,6+,29.50,,,,,,,,,,,SCT,4800,,,,,,,VFR,,,,,,,,,,,,METAR,122
EDQM 272150Z AUTO 20018KT 9999 // NCD 06/04 Q1000,EDQM,2025-01-27T21:50:00Z,50.289,11.86,6,4,200,18,,6+,29.53,,,TRUE,,,,,,,,CLR,,,,,,,,VFR,,,,,,,,,,,,METAR,578
EDNY 272150Z AUTO 13005KT 080V180 9999 // FEW068/// BKN081/// OVC130/// 06/04 Q1003,EDNY,2025-01-27T21:50:00Z,47.671,9.511,6,4,130,5,,6+,29.62,,,TRUE,,,,,,,,FEW,6800,BKN,8100,OVC,13000,,,VFR,,,,,,,,,,,,METAR,411
EDMO 272150Z AUTO 20011KT 9999 -RA OVC036 05/04 Q1005,EDMO,2025-01-27T21:50:00Z,48.081,11.283,5,4,200,11,,6+,29.68,,,TRUE,,,,,,,-RA,OVC,3600,,,,,,,VFR,,,,,,,,,,,,METAR,587
EDMA 272150Z AUTO 18009KT 9999 // SCT045/// OVC057/// 06/04 Q1004,EDMA,2025-01-27T21:50:00Z,48.425,10.932,6,4,180,9,,6+,29.65,,,TRUE,,,,,,,,SCT,4500,OVC,5700,,,,,VFR,,,,,,,,,,,,METAR,462
EDLW 272150Z AUTO 19009KT 9999 // FEW025/// SCT040/// BKN070/// 07/05 Q0994,EDLW,2025-01-27T21:50:00Z,51.518,7.612,7,5,190,9,,6+,29.35,,,TRUE,,,,,,,,FEW,2500,SCT,4000,BKN,7000,,,VFR,,,,,,,,,,,,METAR,122
EDLV 272150Z 18010KT 150V210 CAVOK 08/04 Q0992,EDLV,2025-01-27T21:50:00Z,51.602,6.142,8,4,180,10,,6+,29.29,,,,,,,,,,,CAVOK,,,,,,,,VFR,,,,,,,,,,,,METAR,27
EDLP 272150Z 21015KT CAVOK 08/03 Q0995,EDLP,2025-01-27T21:50:00Z,51.614,8.616,8,3,210,15,,6+,29.38,,,,,,,,,,,CAVOK,,,,,,,,VFR,,,,,,,,,,,,METAR,211
EDLN 272150Z AUTO 17008KT 140V210 9999 // SCT170/// 08/04 Q0994,EDLN,2025-01-27T21:50:00Z,51.23,6.504,8,4,170,8,,6+,29.35,,,TRUE,,,,,,,,SCT,17000,,,,,,,VFR,,,,,,,,,,,,METAR,38
EDJA 272150Z 18010KT 9999 SCT053 05/03 Q1003,EDJA,2025-01-27T21:50:00Z,47.989,10.239,5,3,180,10,,6+,29.62,,,,,,,,,,,SCT,5300,,,,,,,VFR,,,,,,,,,,,,METAR,625
EDHL 272150Z AUTO 16008KT 9999 // BKN200/// 07/05 Q0994,EDHL,2025-01-27T21:50:00Z,53.805,10.719,7,5,160,8,,6+,29.35,,,TRUE,,,,,,,,BKN,20000,,,,,,,VFR,,,,,,,,,,,,METAR,13
EDHK 272150Z AUTO 19006KT 160V220 9999 // BKN190/// 06/04 Q0993,EDHK,2025-01-27T21:50:00Z,54.376,10.143,6,4,190,6,,6+,29.32,,,TRUE,,,,,,,,BKN,19000,,,,,,,VFR,,,,,,,,,,,,METAR,24
EDHI 272150Z AUTO 17003KT 130V240 9999 // BKN220/// 07/05 Q0994,EDHI,2025-01-27T21:50:00Z,53.536,9.837,7,5,170,3,,6+,29.35,,,TRUE,,,,,,,,BKN,22000,,,,,,,VFR,,,,,,,,,,,,METAR,5
EDGS 272150Z AUTO 21013KT 9999 // BKN014/// BKN028/// 05/03 Q0996,EDGS,2025-01-27T21:50:00Z,50.708,8.083,5,3,210,13,,6+,29.41,,,TRUE,,,,,,,,BKN,1400,BKN,2800,,,,,MVFR,,,,,,,,,,,,METAR,595
EDFM 272150Z AUTO 17005KT 130V200 9999 // BKN046/// BKN230/// 10/04 Q1000,EDFM,2025-01-27T21:50:00Z,49.474,8.515,10,4,170,5,,6+,29.53,,,TRUE,,,,,,,,BKN,4600,BKN,23000,,,,,VFR,,,,,,,,,,,,METAR,94
EDFH 272150Z 22010KT 190V250 CAVOK 06/04 Q0997,EDFH,2025-01-27T21:50:00Z,49.946,7.265,6,4,220,10,,6+,29.44,,,,,,,,,,,CAVOK,,,,,,,,VFR,,,,,,,,,,,,METAR,494
EDBC 272150Z AUTO 14010KT 9999 FEW034 08/05 Q0997,EDBC,2025-01-27T21:50:00Z,51.856,11.42,8,5,140,10,,6+,29.44,,,TRUE,,,,,,,,FEW,3400,,,,,,,VFR,,,,,,,,,,,,METAR,178
EDAH 272150Z AUTO 20004KT 120V270 9999 // FEW110/// OVC140/// 06/05 Q0997,EDAH,2025-01-27T21:50:00Z,53.879,14.152,6,5,200,4,,6+,29.44,,,TRUE,,,,,,,,FEW,11000,OVC,14000,,,,,VFR,,,,,,,,,,,,METAR,22
EDAC 272150Z AUTO /////KT ///V/// 9999 // OVC180/// 10/04 Q0999,EDAC,2025-01-27T21:50:00Z,50.982,12.506,10,4,,,,6+,29.50,,,TRUE,,,,,,,,OVC,18000,,,,,,,VFR,,,,,,,,,,,,METAR,193
EBOS 272150Z 18011KT 9999 FEW040 07/03 Q0989 NOSIG,EBOS,2025-01-27T21:50:00Z,51.199,2.862,7,3,180,11,,6+,29.20,,,,,,TRUE,,,,,FEW,4000,,,,,,,VFR,,,,,,,,,,,,METAR,5
EBLG 272150Z 19016KT 9999 FEW026 07/04 Q0993 NOSIG,EBLG,2025-01-27T21:50:00Z,50.637,5.443,7,4,190,16,,6+,29.32,,,,,,TRUE,,,,,FEW,2600,,,,,,,VFR,,,,,,,,,,,,METAR,187
EBCI 272150Z 19014KT 9999 SCT025 BKN035 08/03 Q0993 TEMPO 20015G25KT,EBCI,2025-01-27T21:50:00Z,50.459,4.454,8,3,190,14,,6+,29.32,,,,,,,,,,,SCT,2500,BKN,3500,,,,,VFR,,,1.5,,,,,,,,,METAR,176
EBBR 272150Z 19017G28KT 9999 BKN028 08/04 Q0992 NOSIG,EBBR,2025-01-27T21:50:00Z,50.896,4.526,8,4,190,17,28,6+,29.29,,,,,,TRUE,,,,,BKN,2800,,,,,,,MVFR,,,,,,,,,,,,METAR,49
EBAW 272150Z 18010KT 9999 FEW034 08/04 Q0991 NOSIG,EBAW,2025-01-27T21:50:00Z,51.189,4.46,8,4,180,10,,6+,29.26,,,,,,TRUE,,,,,FEW,3400,,,,,,,VFR,,,,,,,,,,,,METAR,7
BGJN 272150Z VRB02KT 9999 FEW240 M14/M24 Q0997 RMK 1CI,BGJN,2025-01-27T21:50:00Z,69.24,-51.064,-14,-24,VRB,2,,6+,29.44,,,,,,,,,,,FEW,24000,,,,,,,VFR,,,,,,,,,,,,METAR,22
MMUN 272149Z 11007KT 7SM SCT015TCU 27/22 A3002 RMK 8/200 AC,MMUN,2025-01-27T21:49:00Z,21.038,-86.855,27,22,110,7,,7,30.02,,,,,,,,,,,SCT,1500,,,,,,,VFR,,,,,,,,,,,,METAR,13
KRYN 272149Z 27010KT 10SM SCT060 16/M02 A3000,KRYN,2025-01-27T21:49:00Z,32.1418,-111.177,16,-2,270,10,,10+,30.00,,,,,,,,,,,SCT,6000,,,,,,,VFR,,,,,,,,,,,,METAR,731
KMWN 272149Z 25063G72KT 80SM SCT030 BKN080 M13/M18 RMK BLSN AT STA,KMWN,2025-01-27T21:49:00Z,44.271,-71.304,-13,-18,250,63,72,80,0.00,,,,,,,,,,,SCT,3000,BKN,8000,,,,,VFR,,,,,,,,,,,,METAR,1911
KBKB 272149Z AUTO VRB03KT 10SM OVC011 11/08 A3014 RMK AO2 SLP237 T01110083,KBKB,2025-01-27T21:49:00Z,31.022,-92.911,11.1,8.3,VRB,3,,10+,30.14,1023.7,,TRUE,TRUE,,,,,,,OVC,1100,,,,,,,MVFR,,,,,,,,,,,,METAR,74
MMPG 272148Z 32006KT 1SM BR OVC005 12/10 A3021 RMK 8/6//,MMPG,2025-01-27T21:48:00Z,28.63,-100.541,12,10,320,6,,1,30.21,,,,,,,,,,BR,OVC,500,,,,,,,IFR,,,,,,,,,,,,METAR,224
KJDN 272148Z AUTO 27010KT 04/M04 A3002 RMK AO1 SLP195 T00391039,KJDN,2025-01-27T21:48:00Z,47.3259,-106.949,3.9,-3.9,270,10,,,30.02,1019.5,,TRUE,TRUE,,,,,,,,,,,,,,,,,,,,,,,,,,,METAR,802
KIFP 272148Z 33003KT 10SM FEW050 OVC070 14/M01 A3003,KIFP,2025-01-27T21:48:00Z,35.1487,-114.561,14,-1,330,3,,10+,30.03,,,,,,,,,,,FEW,5000,OVC,7000,,,,,VFR,,,,,,,,,,,,METAR,210
KCWF 272148Z 35008KT 10SM OVC013 03/10 A3017,KCWF,2025-01-27T21:48:00Z,30.2216,-93.1467,3,10,350,8,,10+,30.17,,,,,,,,,,,OVC,1300,,,,,,,MVFR,,,,,,,,,,,,METAR,4
KASG 272148Z 24008KT 10SM CLR 09/M07 A3015,KASG,2025-01-27T21:48:00Z,36.1802,-94.1176,9,-7,240,8,,10+,30.15,,,,,,,,,,,CLR,,,,,,,,VFR,,,,,,,,,,,,METAR,410
MMZH 272147Z 23006KT 7SM BKN250 30/23 A2984 RMK 8/008 HZY ISOL CU,MMZH,2025-01-27T21:47:00Z,17.605,-101.464,30,23,230,6,,7,29.84,,,,,,,,,,,BKN,25000,,,,,,,VFR,,,,,,,,,,,,METAR,9
MMIO 272147Z 36006KT 10SM BKN200 17/08 A3024 RMK 8/008,MMIO,2025-01-27T21:47:00Z,25.544,-100.928,17,8,360,6,,10+,30.24,,,,,,,,,,,BKN,20000,,,,,,,VFR,,,,,,,,,,,,METAR,1430
MMCU 272147Z 20015KT 10SM BKN090 OVC200 21/M04 A3006 RMK 8/022 BINOVC,MMCU,2025-01-27T21:47:00Z,28.701,-105.965,21,-4,200,15,,10+,30.06,,,,,,,,,,,BKN,9000,OVC,20000,,,,,VFR,,,,,,,,,,,,METAR,1349
MMCT 272147Z 00000KT 7SM BKN020TCU BKN300 28/22 A3000 RMK 8/208 HZY CB E,MMCT,2025-01-27T21:47:00Z,20.641,-88.446,28,22,0,0,,7,30.00,,,,,,,,,,,BKN,2000,BKN,30000,,,,,MVFR,,,,,,,,,,,,METAR,29
MMAS 272147Z 20011KT 9SM BKN200 26/03 A3020 RMK 8/008 HZY,MMAS,2025-01-27T21:47:00Z,21.702,-102.318,26,3,200,11,,9,30.20,,,,,,,,,,,BKN,20000,,,,,,,VFR,,,,,,,,,,,,METAR,1866
KTIX 272147Z 15010KT 7SM SCT050 24/11 A3011,KTIX,2025-01-27T21:47:00Z,28.508,-80.798,24,11,150,10,,7,30.11,,,,,,,,,,,SCT,5000,,,,,,,VFR,,,,,,,,,,,,METAR,10
KSUN 272147Z 14006KT 10SM CLR M04/M14 A3022,KSUN,2025-01-27T21:47:00Z,43.4969,-114.292,-4,-14,140,6,,10+,30.22,,,,,,,,,,,CLR,,,,,,,,VFR,,,,,,,,,,,,METAR,1619
KSUA 272147Z 08007KT 10SM CLR 21/13 A3010,KSUA,2025-01-27T21:47:00Z,27.1815,-80.2252,21,13,80,7,,10+,30.10,,,,,,,,,,,CLR,,,,,,,,VFR,,,,,,,,,,,,METAR,4
KSQL 272147Z 00000KT 10SM CLR 16/M06 A3015,KSQL,2025-01-27T21:47:00Z,37.5119,-122.248,16,-6,0,0,,10+,30.15,,,,,,,,,,,CLR,,,,,,,,VFR,,,,,,,,,,,,METAR,1
KSEE 272147Z VRB04KT 10SM OVC060 13/05 A3008,KSEE,2025-01-27T21:47:00Z,32.8273,-116.974,13,5,VRB,4,,10+,30.08,,,,,,,,,,,OVC,6000,,,,,,,VFR,,,,,,,,,,,,METAR,113
KRHV 272147Z 32003KT 10SM SKC 14/M04 A3014,KRHV,2025-01-27T21:47:00Z,37.3331,-121.82,14,-4,320,3,,10+,30.14,,,,,,,,,,,SKC,,,,,,,,VFR,,,,,,,,,,,,METAR,37
KPOC 272147Z 27007KT 10SM CLR 12/03 A3007,KPOC,2025-01-27T21:47:00Z,34.0928,-117.779,12,3,270,7,,10+,30.07,,,,,,,,,,,CLR,,,,,,,,VFR,,,,,,,,,,,,METAR,304
KPAO 272147Z 32006KT 10SM SKC 16/M05 A3015,KPAO,2025-01-27T21:47:00Z,37.458,-122.112,16,-5,320,6,,10+,30.15,,,,,,,,,,,SKC,,,,,,,,VFR,,,,,,,,,,,,METAR,2
KHUM 272147Z 33007KT 7SM SCT025 19/14 A3012,KHUM,2025-01-27T21:47:00Z,29.5634,-90.6629,19,14,330,7,,7,30.12,,,,,,,,,,,SCT,2500,,,,,,,VFR,,,,,,,,,,,,METAR,1
KGYR 272147Z VRB04KT 10SM FEW010 FEW035 SCT090 14/05 A3003,KGYR,2025-01-27T21:47:00Z,33.428,-112.368,14,5,VRB,4,,10+,30.03,,,,,,,,,,,FEW,1000,FEW,3500,SCT,9000,,,VFR,,,,,,,,,,,,METAR,292
KGYH 272147Z 23012KT 10SM OVC010 09/08 A2998,KGYH,2025-01-27T21:47:00Z,34.763,-82.375,9,8,230,12,,10+,29.98,,,,,,,,,,,OVC,1000,,,,,,,MVFR,,,,,,,,,,,,METAR,283
KFDK 272147Z 21008KT 10SM CLR 06/M05 A2988,KFDK,2025-01-27T21:47:00Z,39.4177,-77.3696,6,-5,210,8,,10+,29.88,,,,,,,,,,,CLR,,,,,,,,VFR,,,,,,,,,,,,METAR,82
KEVB 272147Z 00000KT 10SM SCT050 21/12 A3010,KEVB,2025-01-27T21:47:00Z,29.0568,-80.9491,21,12,0,0,,10+,30.10,,,,,,,,,,,SCT,5000,,,,,,,VFR,,,,,,,,,,,,METAR,2
KBJC 272147Z 32007KT 10SM SKC 07/M05 A3004,KBJC,2025-01-27T21:47:00Z,39.9008,-105.104,7,-5,320,7,,10+,30.04,,,,,,,,,,,SKC,,,,,,,,VFR,,,,,,,,,,,,METAR,1694
KAQV 272147Z AUTO 04005KT 10SM OVC012 11/08 A3018 RMK AO2 SLP219 T01060078,KAQV,2025-01-27T21:47:00Z,31.396,-93.297,10.6,7.8,40,5,,10+,30.18,1021.9,,TRUE,TRUE,,,,,,,OVC,1200,,,,,,,MVFR,,,,,,,,,,,,METAR,123
KAEG 272147Z 15009G15KT 10SM CLR 11/M09 A3000,KAEG,2025-01-27T21:47:00Z,35.15,-106.793,11,-9,150,9,15,10+,30.00,,,,,,,,,,,CLR,,,,,,,,VFR,,,,,,,,,,,,METAR,1771
KADS 272147Z 34004KT 10SM SKC 12/M04 A3019,KADS,2025-01-27T21:47:00Z,32.9634,-96.8354,12,-4,340,4,,10+,30.19,,,,,,,,,,,SKC,,,,,,,,VFR,,,,,,,,,,,,METAR,198
MMTO 272146Z 05005KT 6SM FEW020 SCT200 22/M02 A3031 RMK 8/101 HZY FU NE,MMTO,2025-01-27T21:46:00Z,19.343,-99.568,22,-2,50,5,,6,30.31,,,,,,,,,,,FEW,2000,SCT,20000,,,,,VFR,,,,,,,,,,,,METAR,2582
KNRA 272146Z AUTO 34003KT 10SM CLR 07/M01 A3035 RMK AO2 SLP220 T00721011 PNO $ ,KNRA,2025-01-27T21:46:00Z,48.1892,-122.633,7.2,-1.1,340,3,,10+,30.35,1022,,TRUE,TRUE,TRUE,,,,,,CLR,,,,,,,,VFR,,,,,,,,,,,,METAR,61
KMMU 272146Z 23007G16KT 10SM FEW250 03/M13 A2982,KMMU,2025-01-27T21:46:00Z,40.7989,-74.4164,3,-13,230,7,16,10+,29.82,,,,,,,,,,,FEW,25000,,,,,,,VFR,,,,,,,,,,,,METAR,55
EQYS 272146Z AUTO 10SM CLR 14/08 A3014 RMK AO2 TSB26E27 SLP206 T01440083 $ ,EQYS,2025-01-27T21:46:00Z,37.4,14.92,14.4,8.3,,,,10+,30.14,1020.6,,TRUE,TRUE,TRUE,,,,,,CLR,,,,,,,,VFR,,,,,,,,,,,,METAR,25
TJIG 272145Z 11012KT 10SM SCT045 28/21 A2999,TJIG,2025-01-27T21:45:00Z,18.457,-66.094,28,21,110,12,,10+,29.99,,,,,,,,,,,SCT,4500,,,,,,,VFR,,,,,,,,,,,,METAR,3
SBPB 272145Z 12008KT 9999 SCT020 28/24 Q1010,SBPB,2025-01-27T21:45:00Z,-2.894,-41.731,28,24,120,8,,6+,29.82,,,,,,,,,,,SCT,2000,,,,,,,VFR,,,,,,,,,,,,SPECI,3
PAKU 272145Z 06008KT 7SM R06/P6000FT BKN080 M19/ A2963,PAKU,2025-01-27T21:45:00Z,70.331,-149.613,-19,,60,8,,7,29.63,,,,,,,,,,,BKN,8000,,,,,,,VFR,,,,,,,,,,,,METAR,23
MMTL 272145Z 08009KT 7SM SCT025 27/24 A3002 RMK 8/400,MMTL,2025-01-27T21:45:00Z,20.1725,-87.6622,27,24,80,9,,7,30.02,,,,,,,,,,,SCT,2500,,,,,,,VFR,,,,,,,,,,,,METAR,20
MMSP 272145Z 09005KT 10SM BKN230 26/02 A3017 RMK 8/008 ISOL CU 1 4QDS,MMSP,2025-01-27T21:45:00Z,22.256,-100.93,26,2,90,5,,10+,30.17,,,,,,,,,,,BKN,23000,,,,,,,VFR,,,,,,,,,,,,METAR,1841
MMPS 272145Z 14008KT 10SM FEW030 27/24 A2991 RMK 8/100 HZY,MMPS,2025-01-27T21:45:00Z,15.876,-97.093,27,24,140,8,,10+,29.91,,,,,,,,,,,FEW,3000,,,,,,,VFR,,,,,,,,,,,,METAR,65
MMLP 272145Z 33011KT 10SM BKN200 24/13 A3004 RMK 8/008 ISOL AS,MMLP,2025-01-27T21:45:00Z,24.077,-110.364,24,13,330,11,,10+,30.04,,,,,,,,,,,BKN,20000,,,,,,,VFR,,,,,,,,,,,,METAR,16
MMCE 272145Z 01008KT 7SM SCT070 25/21 A3000 RMK 8/030,MMCE,2025-01-27T21:45:00Z,18.651,-91.8,25,21,10,8,,7,30.00,,,,,,,,,,,SCT,7000,,,,,,,VFR,,,,,,,,,,,,METAR,5
MMCB 272145Z 19005KT 8SM FEW250 30/04 A3005 RMK 8/004 ISOL SC HZY,MMCB,2025-01-27T21:45:00Z,18.83,-99.265,30,4,190,5,,8,30.05,,,,,,,,,,,FEW,25000,,,,,,,VFR,,,,,,,,,,,,METAR,1281
MMAA 272145Z 23009KT 7SM BKN250 29/24 A2978 RMK 8/002 HZY,MMAA,2025-01-27T21:45:00Z,16.758,-99.754,29,24,230,9,,7,29.78,,,,,,,,,,,BKN,25000,,,,,,,VFR,,,,,,,,,,,,METAR,5
LIRP 272145Z 20012KT 9999 -RA SCT020 BKN050 15/15 Q1008 NOSIG,LIRP,2025-01-27T21:45:00Z,43.684,10.393,15,15,200,12,,6+,29.76,,,,,,TRUE,,,,-RA,SCT,2000,BKN,5000,,,,,VFR,,,,,,,,,,,,METAR,1
LHSM 272145Z AUTO 19006KT CAVOK 10/04 Q1008,LHSM,2025-01-27T21:45:00Z,46.689,17.161,10,4,190,6,,6+,29.76,,,TRUE,,,,,,,,CAVOK,,,,,,,,VFR,,,,,,,,,,,,METAR,119
LHPR 272145Z AUTO 20019G30KT 180V240 CAVOK 13/05 Q1005,LHPR,2025-01-27T21:45:00Z,47.627,17.808,13,5,200,19,30,6+,29.68,,,TRUE,,,,,,,,CAVOK,,,,,,,,VFR,,,,,,,,,,,,METAR,127
LHPP 272145Z AUTO 20007KT 170V230 CAVOK 11/03 Q1010,LHPP,2025-01-27T21:45:00Z,45.991,18.241,11,3,200,7,,6+,29.82,,,TRUE,,,,,,,,CAVOK,,,,,,,,VFR,,,,,,,,,,,,METAR,193
LHPA 272145Z 20016KT 160V220 CAVOK 12/05 Q1006 NOSIG RMK BLU,LHPA,2025-01-27T21:45:00Z,47.362,17.494,12,5,200,16,,6+,29.70,,,,,,TRUE,,,,,CAVOK,,,,,,,,VFR,,,,,,,,,,,,METAR,143
LHNY 272145Z AUTO 19009KT CAVOK 11/06 Q1011,LHNY,2025-01-27T21:45:00Z,47.984,21.6916,11,6,190,9,,6+,29.85,,,TRUE,,,,,,,,CAVOK,,,,,,,,VFR,,,,,,,,,,,,METAR,99
LHDC 272145Z AUTO 18008KT 150V210 CAVOK 10/06 Q1011,LHDC,2025-01-27T21:45:00Z,47.489,21.615,10,6,180,8,,6+,29.85,,,TRUE,,,,,,,,CAVOK,,,,,,,,VFR,,,,,,,,,,,,METAR,105
KWDG 272145Z 19012KT 10SM SKC 10/M09 A3015,KWDG,2025-01-27T21:45:00Z,36.3781,-97.7888,10,-9,190,12,,10+,30.15,,,,,,,,,,,SKC,,,,,,,,VFR,,,,,,,,,,,,METAR,352
KUES 272145Z 24013G30KT 10SM SCT055 BKN065 OVC085 02/M14 A2963,KUES,2025-01-27T21:45:00Z,43.0425,-88.2465,2,-14,240,13,30,10+,29.63,,,,,,,,,,,SCT,5500,BKN,6500,OVC,8500,,,VFR,,,,,,,,,,,,METAR,273
KTCY 272145Z AUTO 29006G13KT 10SM CLR 16/M06 A3013 RMK A01,KTCY,2025-01-27T21:45:00Z,37.6919,-121.444,16,-6,290,6,13,10+,30.13,,,TRUE,TRUE,,,,,,,CLR,,,,,,,,VFR,,,,,,,,,,,,METAR,51
KSWF 272145Z 23011G21KT 10SM SKC 02/M12 A2974,KSWF,2025-01-27T21:45:00Z,41.5045,-74.0999,2,-12,230,11,21,10+,29.74,,,,,,,,,,,SKC,,,,,,,,VFR,,,,,,,,,,,,METAR,139
KRTS 272145Z AUTO VRB04KT 10SM CLR 02/M10 A3021 RMK AO2,KRTS,2025-01-27T21:45:00Z,39.6658,-119.873,2,-10,VRB,4,,10+,30.21,,,TRUE,TRUE,,,,,,,CLR,,,,,,,,VFR,,,,,,,,,,,,METAR,1537
KPCW 272145Z AUTO 23018G28KT 10SM CLR 00/M09 A2973 RMK AO2,KPCW,2025-01-27T21:45:00Z,41.5188,-82.8692,0,-9,230,18,28,10+,29.73,,,TRUE,TRUE,,,,,,,CLR,,,,,,,,VFR,,,,,,,,,,,,METAR,179
KOUN 272145Z 20003KT 10SM CLR 10/M10 A3016,KOUN,2025-01-27T21:45:00Z,35.2436,-97.4713,10,-10,200,3,,10+,30.16,,,,,,,,,,,CLR,,,,,,,,VFR,,,,,,,,,,,,METAR,359
KMWC 272145Z 25014G22KT 10SM SCT060 OVC070 03/M11 A2963,KMWC,2025-01-27T21:45:00Z,43.1095,-88.0343,3,-11,250,14,22,10+,29.63,,,,,,,,,,,SCT,6000,OVC,7000,,,,,VFR,,,,,,,,,,,,METAR,225
KMWA 272145Z 24007KT 20SM CLR 06/M11 A3008,KMWA,2025-01-27T21:45:00Z,37.7544,-89.0118,6,-11,240,7,,20,30.08,,,,,,,,,,,CLR,,,,,,,,VFR,,,,,,,,,,,,METAR,142
KMTN 272145Z 16007KT 10SM CLR 05/M05 A2989,KMTN,2025-01-27T21:45:00Z,39.3214,-76.4065,5,-5,160,7,,10+,29.89,,,,,,,,,,,CLR,,,,,,,,VFR,,,,,,,,,,,,METAR,2
KMEV 272145Z AUTO 30004KT 10SM CLR 03/M09 A3021 RMK AO2,KMEV,2025-01-27T21:45:00Z,38.9963,-119.75,3,-9,300,4,,10+,30.21,,,TRUE,TRUE,,,,,,,CLR,,,,,,,,VFR,,,,,,,,,,,,METAR,1437
KLOT 272145Z 23020G27KT 10SM CLR 06/M11 A2976,KLOT,2025-01-27T21:45:00Z,41.6031,-88.1017,6,-11,230,20,27,10+,29.76,,,,,,,,,,,CLR,,,,,,,,VFR,,,,,,,,,,,,METAR,205
KLBE 272145Z 22014G22KT 10SM CLR 01/M10 A2987,KLBE,2025-01-27T21:45:00Z,40.2767,-79.4039,1,-10,220,14,22,10+,29.87,,,,,,,,,,,CLR,,,,,,,,VFR,,,,,,,,,,,,METAR,345
KJVL 272145Z 24020G30KT 10SM OVC075 04/M09 A2966,KJVL,2025-01-27T21:45:00Z,42.6213,-89.0419,4,-9,240,20,30,10+,29.66,,,,,,,,,,,OVC,7500,,,,,,,VFR,,,,,,,,,,,,METAR,244
KGYY 272145Z 24016G36KT 10SM CLR 06/M09 A2974,KGYY,2025-01-27T21:45:00Z,41.6121,-87.4091,6,-9,240,16,36,10+,29.74,,,,,,,,,,,CLR,,,,,,,,VFR,,,,,,,,,,,,METAR,179
KFMH 272145Z 23013G21KT 10SM CLR 01/M06 A2978,KFMH,2025-01-27T21:45:00Z,41.6608,-70.5221,1,-6,230,13,21,10+,29.78,,,,,,,,,,,CLR,,,,,,,,VFR,,,,,,,,,,,,METAR,35
KEMT 272145Z 00000KT 10SM SCT050 14/04 A3007,KEMT,2025-01-27T21:45:00Z,34.0882,-118.034,14,4,0,0,,10+,30.07,,,,,,,,,,,SCT,5000,,,,,,,VFR,,,,,,,,,,,,METAR,84
KCGF 272145Z 22020G27KT 10SM CLR 00/M13 A2972,KCGF,2025-01-27T21:45:00Z,41.566,-81.4827,0,-13,220,20,27,10+,29.72,,,,,,,,,,,CLR,,,,,,,,VFR,,,,,,,,,,,,METAR,265
KBBG 272145Z 30008KT 10SM CLR 08/M09 A3013,KBBG,2025-01-27T21:45:00Z,36.5259,-93.1969,8,-9,300,8,,10+,30.13,,,,,,,,,,,CLR,,,,,,,,VFR,,,,,,,,,,,,METAR,403
KBAK 272145Z 20015KT 10SM CLR 01/M11 A2998,KBAK,2025-01-27T21:45:00Z,39.2664,-85.8926,1,-11,200,15,,10+,29.98,,,,,,,,,,,CLR,,,,,,,,VFR,,,,,,,,,,,,METAR,199
KATW 272145Z 26023G28KT 10SM BKN043 OVC050 04/M07 A2951,KATW,2025-01-27T21:45:00Z,44.2519,-88.526,4,-7,260,23,28,10+,29.51,,,,,,,,,,,BKN,4300,OVC,5000,,,,,VFR,,,,,,,,,,,,METAR,266
K6S0 272145Z AUTO 26023G29KT 10SM CLR 02/M10 A3011 RMK A01,K6S0,2025-01-27T21:45:00Z,45.8063,-109.974,2,-10,260,23,29,10+,30.11,,,TRUE,TRUE,,,,,,,CLR,,,,,,,,VFR,,,,,,,,,,,,METAR,1364
MMTJ 272144Z 24005KT 10SM SCT039 14/04 A3010 RMK 8/400,MMTJ,2025-01-27T21:44:00Z,32.544,-116.982,14,4,240,5,,10+,30.10,,,,,,,,,,,SCT,3900,,,,,,,VFR,,,,,,,,,,,,METAR,150
MMSM 272144Z 27003KT 9SM FEW220 25/M03 A3025 RMK 8/002 HZY,MMSM,2025-01-27T21:44:00Z,19.763,-99.002,25,-3,270,3,,9,30.25,,,,,,,,,,,FEW,22000,,,,,,,VFR,,,,,,,,,,,,METAR,2250
MMPB 272144Z 19005KT 9SM SKC 25/M05 A3025 RMK HZY SC,MMPB,2025-01-27T21:44:00Z,19.17,-98.371,25,-5,190,5,,9,30.25,,,,,,,,,,,SKC,,,,,,,,VFR,,,,,,,,,,,,METAR,2250
MMMD 272144Z 13006KT 7SM SCT020 32/17 A2998 RMK 8/100 MDT CU,MMMD,2025-01-27T21:44:00Z,20.936,-89.659,32,17,130,6,,7,29.98,,,,,,,,,,,SCT,2000,,,,,,,VFR,,,,,,,,,,,,METAR,10
MMVR 272143Z 05009KT 7SM SKC 25/18 A3001,MMVR,2025-01-27T21:43:00Z,19.144,-96.189,25,18,50,9,,7,30.01,,,,,,,,,,,SKC,,,,,,,,VFR,,,,,,,,,,,,METAR,26
MMVA 272143Z 08013KT 7SM SCT020TCU BKN070 28/21 A2996 RMK 8/230,MMVA,2025-01-27T21:43:00Z,17.998,-92.817,28,21,80,13,,7,29.96,,,,,,,,,,,SCT,2000,BKN,7000,,,,,VFR,,,,,,,,,,,,METAR,13
MMTP 272143Z 22010KT 8SM FEW180 31/24 A2979 RMK 8/001 HZY,MMTP,2025-01-27T21:43:00Z,14.795,-92.371,31,24,220,10,,8,29.79,,,,,,,,,,,FEW,18000,,,,,,,VFR,,,,,,,,,,,,METAR,27
MMTG 272143Z 31020KT 8SM SKC 28/16 A2994 RMK HZY ISOLD CU AC,MMTG,2025-01-27T21:43:00Z,16.571,-93.03,28,16,310,20,,8,29.94,,,,,,,,,,,SKC,,,,,,,,VFR,,,,,,,,,,,,METAR,463
MMSL 272143Z 13004KT 10SM SCT250 24/11 A3000 RMK 8/008 AC,MMSL,2025-01-27T21:43:00Z,22.948,-109.936,24,11,130,4,,10+,30.00,,,,,,,,,,,SCT,25000,,,,,,,VFR,,,,,,,,,,,,METAR,205
MMMM 272143Z 20006KT 7SM OVC300 26/02 A3017 RMK 8/007 HZY,MMMM,2025-01-27T21:43:00Z,19.844,-101.037,26,2,200,6,,7,30.17,,,,,,,,,,,OVC,30000,,,,,,,VFR,,,,,,,,,,,,METAR,1840
MMCV 272143Z 04010KT 6SM OVC030 26/17 A3005 RMK 8/5// BINOVC HZ,MMCV,2025-01-27T21:43:00Z,23.706,-98.959,26,17,40,10,,6,30.05,,,,,,,,,,,OVC,3000,,,,,,,MVFR,,,,,,,,,,,,METAR,230
MMEP 272142Z 35007KT 12SM BKN250 28/11 A3004 RMK 8/008,MMEP,2025-01-27T21:42:00Z,21.418,-104.842,28,11,350,7,,12,30.04,,,,,,,,,,,BKN,25000,,,,,,,VFR,,,,,,,,,,,,METAR,921
MMCL 272142Z 29005KT 10SM BKN250 31/10 A2993 RMK 8/008 HZY,MMCL,2025-01-27T21:42:00Z,24.766,-107.476,31,10,290,5,,10+,29.93,,,,,,,,,,,BKN,25000,,,,,,,VFR,,,,,,,,,,,,METAR,35
MMZC 272141Z E18020KT 8SM BKN200 22/04 A3022 RMK 8/008,MMZC,2025-01-27T21:41:00Z,22.904,-102.68,22,4,180,20,,8,30.22,,,,,,,,,,,BKN,20000,,,,,,,VFR,,,,,,,,,,,,METAR,2175
MMPE 272141Z 33011KT 10SM BKN040 19/03 A3003 RMK 8/100,MMPE,2025-01-27T21:41:00Z,31.3514,-113.305,19,3,330,11,,10+,30.03,,,,,,,,,,,BKN,4000,,,,,,,VFR,,,,,,,,,,,,METAR,27
MMLM 272141Z 29014KT 10SM BKN220 26/08 A2999 RMK 8/008,MMLM,2025-01-27T21:41:00Z,25.688,-109.085,26,8,290,14,,10+,29.99,,,,,,,,,,,BKN,22000,,,,,,,VFR,,,,,,,,,,,,METAR,6
MMDO 272141Z 20015KT 10SM SCT210 25/M07 A3017 RMK 8/002,MMDO,2025-01-27T21:41:00Z,24.124,-104.532,25,-7,200,15,,10+,30.17,,,,,,,,,,,SCT,21000,,,,,,,VFR,,,,,,,,,,,,METAR,1863
MMZO 272140Z 18010KT 10SM BKN210 27/25 A2982 RMK 8/006 HZY,MMZO,2025-01-27T21:40:00Z,19.147,-104.565,27,25,180,10,,10+,29.82,,,,,,,,,,,BKN,21000,,,,,,,VFR,,,,,,,,,,,,METAR,11
MMTM 272140Z 09006KT 5SM OVC050 23/20 A3002 RMK 8/5// BINOVC HZ,MMTM,2025-01-27T21:40:00Z,22.29,-97.863,23,20,90,6,,5,30.02,,,,,,,,,,,OVC,5000,,,,,,,MVFR,,,,,,,,,,,,METAR,21
MMTC 272140Z 01006KT 10SM SCT110 BKN250 27/02 A3004 RMK 8/042,MMTC,2025-01-27T21:40:00Z,25.564,-103.408,27,2,10,6,,10+,30.04,,,,,,,,,,,SCT,11000,BKN,25000,,,,,VFR,,,,,,,,,,,,METAR,1128
MMSD 272140Z 16010KT 12SM BKN250 24/12 A2999 RMK 8/008,MMSD,2025-01-27T21:40:00Z,23.157,-109.72,24,12,160,10,,12,29.99,,,,,,,,,,,BKN,25000,,,,,,,VFR,,,,,,,,,,,,METAR,107
MMPR 272140Z 24011KT 15SM BKN200 24/19 A2991 RMK 8/002,MMPR,2025-01-27T21:40:00Z,20.68,-105.25,24,19,240,11,,15,29.91,,,,,,,,,,,BKN,20000,,,,,,,VFR,,,,,,,,,,,,METAR,6
MMPQ 272140Z 08005KT 6SM OVC020 25/22 A2989 RMK 8/4//,MMPQ,2025-01-27T21:40:00Z,17.534,-92.017,25,22,80,5,,6,29.89,,,,,,,,,,,OVC,2000,,,,,,,MVFR,,,,,,,,,,,,METAR,48
MMPN 272140Z 20006KT 10SM BKN220 24/13 A3014 RMK 8/002 HZY SC,MMPN,2025-01-27T21:40:00Z,19.396,-102.041,24,13,200,6,,10+,30.14,,,,,,,,,,,BKN,22000,,,,,,,VFR,,,,,,,,,,,,METAR,1602
MMPA 272140Z 06006KT 5SM SCT020TCU 25/19 A3001 RMK 8/200 HZY ISOL AC,MMPA,2025-01-27T21:40:00Z,20.601,-97.459,25,19,60,6,,5,30.01,,,,,,,,,,,SCT,2000,,,,,,,MVFR,,,,,,,,,,,,METAR,153
MMOX 272140Z 25003KT 12SM SKC 29/02 A3014,MMOX,2025-01-27T21:40:00Z,17.002,-96.724,29,2,250,3,,12,30.14,,,,,,,,,,,SKC,,,,,,,,VFR,,,,,,,,,,,,METAR,1528
MMNL 272140Z 36009KT 1 1/2SM -DZ BR BKN003 OVC005 11/11 A3016 RMK 60015 8/7//,MMNL,2025-01-27T21:40:00Z,27.448,-99.574,11,11,360,9,,1.5,30.16,,,,,,,,,,-DZ BR,BKN,300,OVC,500,,,,,LIFR,,,,,,,0.15,,,,,METAR,146
MMMZ 272140Z 30012KT 15SM FEW100 SCT240 30/10 A2990 RMK 8/032,MMMZ,2025-01-27T21:40:00Z,23.161,-106.271,30,10,300,12,,15,29.90,,,,,,,,,,,FEW,10000,SCT,24000,,,,,VFR,,,,,,,,,,,,METAR,7
MMMY 272140Z 34005KT 5SM BKN015 OVC020 17/11 A3013 RMK 8/5// HZY,MMMY,2025-01-27T21:40:00Z,25.774,-100.104,17,11,340,5,,5,30.13,,,,,,,,,,,BKN,1500,OVC,2000,,,,,MVFR,,,,,,,,,,,,METAR,382
MMMT 272140Z 01007KT 7SM FEW020 OVC070 23/20 A3001 RMK 8/52/ HZY,MMMT,2025-01-27T21:40:00Z,18.098,-94.583,23,20,10,7,,7,30.01,,,,,,,,,,,FEW,2000,OVC,7000,,,,,VFR,,,,,,,,,,,,METAR,15
MMML 272140Z 25005KT 10SM BKN050 17/00 A3005 RMK 8/400 ISOL AC,MMML,2025-01-27T21:40:00Z,32.631,-115.238,17,0,250,5,,10+,30.05,,,,,,,,,,,BKN,5000,,,,,,,VFR,,,,,,,,,,,,METAR,21
MMMA 272140Z 13009KT 10SM BKN020TCU 24/18 A3005 RMK 8/200,MMMA,2025-01-27T21:40:00Z,25.77,-97.523,24,18,130,9,,10+,30.05,,,,,,,,,,,BKN,2000,,,,,,,MVFR,,,,,,,,,,,,METAR,7
MMLT 272140Z 04016KT 8SM FEW040 OVC240 18/13 A3002 RMK 8/507 HZY,MMLT,2025-01-27T21:40:00Z,25.993,-111.35,18,13,40,16,,8,30.02,,,,,,,,,,,FEW,4000,OVC,24000,,,,,VFR,,,,,,,,,,,,METAR,4
MMLO 272140Z 24004KT 10SM BKN220 26/02 A3021 RMK 8/008,MMLO,2025-01-27T21:40:00Z,20.997,-101.481,26,2,240,4,,10+,30.21,,,,,,,,,,,BKN,22000,,,,,,,VFR,,,,,,,,,,,,METAR,1805
MMIA 272140Z 25011KT 6SM BKN200 30/20 A2994 RMK 8/001 HZY,MMIA,2025-01-27T21:40:00Z,19.276,-103.576,30,20,250,11,,6,29.94,,,,,,,,,,,BKN,20000,,,,,,,VFR,,,,,,,,,,,,METAR,744
MMHO 272140Z 20010KT 10SM SCT200 23/M02 A3001 RMK 8/008 HZY,MMHO,2025-01-27T21:40:00Z,29.097,-111.051,23,-2,200,10,,10+,30.01,,,,,,,,,,,SCT,20000,,,,,,,VFR,,,,,,,,,,,,METAR,186
MMGM 272140Z 22010KT 10SM BKN140 23/09 A2997 RMK 8/020,MMGM,2025-01-27T21:40:00Z,27.964,-110.928,23,9,220,10,,10+,29.97,,,,,,,,,,,BKN,14000,,,,,,,VFR,,,,,,,,,,,,METAR,13
MMGA 272140Z E26008KT 10SM OVC200 ///// A//// RMK 8/007,MMGA,2025-01-27T21:40:00Z,-99.99,-99.99,,,260,8,,10+,0.00,,,,,,,,,,,OVC,20000,,,,,,,VFR,,,,,,,,,,,,METAR,9999
MMCZ 272140Z 08009KT 8SM SCT015TCU 27/23 A3000 RMK 8/200 SC,MMCZ,2025-01-27T21:40:00Z,20.516,-86.932,27,23,80,9,,8,30.00,,,,,,,,,,,SCT,1500,,,,,,,VFR,,,,,,,,,,,,METAR,7
MMCS 272140Z 11005KT 10SM SCT230 17/M06 A3003 RMK 8/002,MMCS,2025-01-27T21:40:00Z,31.636,-106.427,17,-6,110,5,,10+,30.03,,,,,,,,,,,SCT,23000,,,,,,,VFR,,,,,,,,,,,,METAR,1194
MMCP 272140Z 32010KT 7SM SCT020 26/22 A2999 RMK 8/100,MMCP,2025-01-27T21:40:00Z,19.817,-90.502,26,22,320,10,,7,29.99,,,,,,,,,,,SCT,2000,,,,,,,VFR,,,,,,,,,,,,METAR,9
MMCN 272140Z 28006KT 10SM SCT100 BKN200 26/02 A3001 RMK 8/078 FU N,MMCN,2025-01-27T21:40:00Z,27.395,-109.837,26,2,280,6,,10+,30.01,,,,,,,,,,,SCT,10000,BKN,20000,,,,,VFR,,,,,,,,,,,,METAR,57
MMCM 272140Z 00000KT 7SM SCT010 BKN020 BKN100 26/25 A2997 RMK 8/460 VC RA CB N,MMCM,2025-01-27T21:40:00Z,18.504,-88.326,26,25,0,0,,7,29.97,,,,,,,,,,,SCT,1000,BKN,2000,BKN,10000,,,MVFR,,,,,,,,,,,,METAR,10
MMBT 272140Z 10006KT 10SM SKC 31/17 A2983,MMBT,2025-01-27T21:40:00Z,15.775,-96.26,31,17,100,6,,10+,29.83,,,,,,,,,,,SKC,,,,,,,,VFR,,,,,,,,,,,,METAR,137
MMAN 272140Z 02004KT 5SM BKN015 OVC020 16/11 A3013 RMK 8/5// HZY BR,MMAN,2025-01-27T21:40:00Z,25.865,-100.239,16,11,20,4,,5,30.13,,,,,,,,,,,BKN,1500,OVC,2000,,,,,MVFR,,,,,,,,,,,,METAR,447
KMHV 272140Z AUTO 22005KT 10SM CLR 09/01 A3007 RMK AO2,KMHV,2025-01-27T21:40:00Z,35.0626,-118.157,9,1,220,5,,10+,30.07,,,TRUE,TRUE,,,,,,,CLR,,,,,,,,VFR,,,,,,,,,,,,METAR,841
VOTR 272130Z 00000KT 3000 BR FEW016 SCT100 21/20 Q1009 NOSIG,VOTR,2025-01-27T21:30:00Z,10.765,78.71,21,20,0,0,,1.86,29.79,,,,,,TRUE,,,,BR,FEW,1600,SCT,10000,,,,,IFR,,,,,,,,,,,,METAR,90
VOCI 272130Z 14001KT 3500 BR FEW015 SCT080 22/19 Q1008 NOSIG,VOCI,2025-01-27T21:30:00Z,10.152,76.402,22,19,140,1,,2.17,29.76,,,,,,TRUE,,,,BR,FEW,1500,SCT,8000,,,,,IFR,,,,,,,,,,,,METAR,8
VOBG 272130Z 09006KT 2500 BR FEW012 17/15 Q1014 NOSIG,VOBG,2025-01-27T21:30:00Z,12.949,77.663,17,15,90,6,,1.55,29.94,,,,,,TRUE,,,,BR,FEW,1200,,,,,,,IFR,,,,,,,,,,,,METAR,884
VEPT 272130Z 00000KT 1600 BR NSC 13/10 Q1011 NOSIG,VEPT,2025-01-27T21:30:00Z,25.591,85.088,13,10,0,0,,0.99,29.85,,,,,,TRUE,,,,BR,CLR,,,,,,,,LIFR,,,,,,,,,,,,METAR,53
VEGT 272130Z 00000KT 2000 BR FEW020 SCT100 16/14 Q1010 TEMPO 1500 BR,VEGT,2025-01-27T21:30:00Z,26.107,91.587,16,14,0,0,,1.24,29.82,,,,,,,,,,BR,FEW,2000,SCT,10000,,,,,IFR,,,,,,,,,,,,METAR,50
SBCJ 272130Z 00000KT 9999 FEW025 26/21 Q1013,SBCJ,2025-01-27T21:30:00Z,-6.118,-50.004,26,21,0,0,,6+,29.91,,,,,,,,,,,FEW,2500,,,,,,,VFR,,,,,,,,,,,,SPECI,634
HKMO 272130Z 03004KT 9999 FEW017 25/22 Q1009 NOSIG,HKMO,2025-01-27T21:30:00Z,-4.015,39.606,25,22,30,4,,6+,29.79,,,,,,TRUE,,,,,FEW,1700,,,,,,,VFR,,,,,,,,,,,,METAR,55
PAIK 272121Z AUTO 20004KT 1 3/4SM -SN SCT017 BKN025 OVC050 M19/M22 A2950 RMK AO2 VIS 3/4V5 P0000 FZRANO,PAIK,2025-01-27T21:21:00Z,66.975,-160.439,-19,-22,200,4,,1.75,29.50,,,TRUE,TRUE,,,,TRUE,,-SN,SCT,1700,BKN,2500,OVC,5000,,,IFR,,,,,,0.005,,,,,,SPECI,49
KY51 272120Z AUTO 26016G29KT 10SM BKN035 BKN047 03/M13 A2964 RMK AO1 T00301132,KY51,2025-01-27T21:20:00Z,43.5814,-90.8997,3,-13.2,260,16,29,10+,29.64,,,TRUE,TRUE,,,,,,,BKN,3500,BKN,4700,,,,,VFR,,,,,,,,,,,,METAR,390
ETWM 272120Z AUTO 19005KT //// // ////// 08/03 Q0992 ///,ETWM,2025-01-27T21:20:00Z,52.725,7.33,8,3,190,5,,,29.29,,,TRUE,,,,,,,,,,,,,,,,,,,,,,,,,,,,METAR,18
ETSN 272120Z 21006KT 9999 -RA OVC040 06/04 Q1004 BLU,ETSN,2025-01-27T21:20:00Z,48.71,11.21,6,4,210,6,,6+,29.65,,,,,,,,,,-RA,OVC,4000,,,,,,,VFR,,,,,,,,,,,,METAR,378
ETSL 272120Z 19015KT 9999 RA BKN030 05/03 Q1004 BLU,ETSL,2025-01-27T21:20:00Z,48.185,10.861,5,3,190,15,,6+,29.65,,,,,,,,,,RA,BKN,3000,,,,,,,MVFR,,,,,,,,,,,,METAR,548
ETSH 272120Z 17004KT 9999 BKN110 OVC180 09/05 Q0999 BLU BLU TEMPO WHT,ETSH,2025-01-27T21:20:00Z,51.768,13.168,9,5,170,4,,6+,29.50,,,,,,,,,,,BKN,11000,OVC,18000,,,,,VFR,,,,,,,,,,,,METAR,79
ETSB 272120Z AUTO 22016KT //// // ////// 06/04 Q0996 ///,ETSB,2025-01-27T21:20:00Z,50.175,7.06,6,4,220,16,,,29.41,,,TRUE,,,,,,,,,,,,,,,,,,,,,,,,,,,,METAR,477
ETNW 272120Z 19008KT 9999 SCT130 BKN180 07/04 Q0994 BLU,ETNW,2025-01-27T21:20:00Z,52.457,9.427,7,4,190,8,,6+,29.35,,,,,,,,,,,SCT,13000,BKN,18000,,,,,VFR,,,,,,,,,,,,METAR,57
ETNT 272120Z 19008KT 9999 FEW040 BKN170 07/04 Q0991 BLACKBLU,ETNT,2025-01-27T21:20:00Z,53.548,7.667,7,4,190,8,,6+,29.26,,,,,,,,,,,FEW,4000,BKN,17000,,,,,VFR,,,,,,,,,,,,METAR,5
ETNS 272120Z AUTO 15007KT 9999 // ////// 06/04 Q0992 ///,ETNS,2025-01-27T21:20:00Z,54.457,9.52,6,4,150,7,,6+,29.29,,,TRUE,,,,,,,,,,,,,,,,VFR,,,,,,,,,,,,METAR,22
ETNN 272120Z 16005KT 9999 SCT020 SCT040 07/04 Q0994 BLU+,ETNN,2025-01-27T21:20:00Z,50.829,6.66,7,4,160,5,,6+,29.35,,,,,,,,,,,SCT,2000,SCT,4000,,,,,VFR,,,,,,,,,,,,METAR,108
ETNL 272120Z 20005KT 9999 FEW037 SCT200 07/05 Q0995 BLU+,ETNL,2025-01-27T21:20:00Z,53.916,12.279,7,5,200,5,,6+,29.38,,,,,,,,,,,FEW,3700,SCT,20000,,,,,VFR,,,,,,,,,,,,METAR,40
ETNH 272120Z AUTO 14004KT 8000 // ////// 05/04 Q0992 ///,ETNH,2025-01-27T21:20:00Z,54.312,9.538,5,4,140,4,,4.97,29.29,,,TRUE,,,,,,,,,,,,,,,,MVFR,,,,,,,,,,,,METAR,6
ETMN 272120Z 19007KT 9999 BKN150 07/04 Q0992 BLU BLU TEMPO BLU+,ETMN,2025-01-27T21:20:00Z,53.765,8.658,7,4,190,7,,6+,29.29,,,,,,,,,,,BKN,15000,,,,,,,VFR,,,,,,,,,,,,METAR,23
ETHS 272120Z 18007KT 9999 BKN150 06/04 Q0994 BLU,ETHS,2025-01-27T21:20:00Z,52.918,10.184,6,4,180,7,,6+,29.35,,,,,,,,,,,BKN,15000,,,,,,,VFR,,,,,,,,,,,,METAR,71
ETHN 272120Z 21013KT 9999 BKN150 07/03 Q1000 BLU,ETHN,2025-01-27T21:20:00Z,49.392,9.958,7,3,210,13,,6+,29.53,,,,,,,,,,,BKN,15000,,,,,,,VFR,,,,,,,,,,,,METAR,466
ETHL 272120Z 23011KT 9999 FEW015 SCT040 OVC070 06/04 Q1003 BLU BLU,ETHL,2025-01-27T21:20:00Z,48.218,9.91,6,4,230,11,,6+,29.62,,,,,,,,,,,FEW,1500,SCT,4000,OVC,7000,,,VFR,,,,,,,,,,,,METAR,536
ETHF 272120Z 20011KT 9999 -SHRA SCT032CB BKN080 08/06 Q0997 BLU,ETHF,2025-01-27T21:20:00Z,51.114,9.286,8,6,200,11,,6+,29.44,,,,,,,,,,-SHRA,SCT,3200,BKN,8000,,,,,VFR,,,,,,,,,,,,METAR,171
ETHC 272120Z 14004KT 9999 SCT100 SCT160 BKN220 07/05 Q0995 BLU+,ETHC,2025-01-27T21:20:00Z,52.591,10.022,7,5,140,4,,6+,29.38,,,,,,,,,,,SCT,10000,SCT,16000,BKN,22000,,,VFR,,,,,,,,,,,,METAR,35
ETHB 272120Z 19015KT 9999 BKN130 09/04 Q0994 BLU BLU,ETHB,2025-01-27T21:20:00Z,52.279,9.082,9,4,190,15,,6+,29.35,,,,,,,,,,,BKN,13000,,,,,,,VFR,,,,,,,,,,,,METAR,69
ETHA 272120Z AUTO 24011KT 9999 // ////// 03/02 Q1005 ///,ETHA,2025-01-27T21:20:00Z,47.834,10.867,3,2,240,11,,6+,29.68,,,TRUE,,,,,,,,,,,,,,,,VFR,,,,,,,,,,,,METAR,738
ETGG 272120Z AUTO 16012KT 9999 // ////// 05/04 Q0991 ///,ETGG,2025-01-27T21:20:00Z,54.827,9.506,5,4,160,12,,6+,29.26,,,TRUE,,,,,,,,,,,,,,,,VFR,,,,,,,,,,,,METAR,33
ENLK 272120Z 15007KT 120V200 9999 SCT030 BKN045 04/M03 Q0991,ENLK,2025-01-27T21:20:00Z,68.155,13.615,4,-3,150,7,,6+,29.26,,,,,,,,,,,SCT,3000,BKN,4500,,,,,VFR,,,,,,,,,,,,METAR,26
RJAK 272119Z VRB02KT 9999 -SHRA FEW025 BKN080 03/M02 Q1008 RMK 1CU025 7AC080 A2978,RJAK,2025-01-27T21:19:00Z,36.035,140.193,3,-2,VRB,2,,6+,29.76,,,,,,,,,,-SHRA,FEW,2500,BKN,8000,,,,,VFR,,,,,,,,,,,,SPECI,20
KFRR 272115Z AUTO 22004KT 10SM CLR 07/M08 A2984 RMK AO1,KFRR,2025-01-27T21:15:00Z,38.9169,-78.2487,7,-8,220,4,,10+,29.84,,,TRUE,TRUE,,,,,,,CLR,,,,,,,,VFR,,,,,,,,,,,,METAR,213
RJNY 272111Z VRB02KT 9999 FEW030 BKN070 06/04 Q1008 RMK 1CU030 5AC070 A2977,RJNY,2025-01-27T21:11:00Z,34.814,138.294,6,4,VRB,2,,6+,29.76,,,,,,,,,,,FEW,3000,BKN,7000,,,,,VFR,,,,,,,,,,,,SPECI,7
